<?xml version="1.0" encoding="UTF-8"?>
<kml xmlns="http://www.opengis.net/kml/2.2">
  <Document>
    <name>Ruta Mallorca</name>
    <description>Referencias de estaciones y puntos singulares de la ruta.</description>
    <Style id="icon-1899-0288D1-nodesc-normal">
      <IconStyle>
        <color>ffd18802</color>
        <scale>1</scale>
        <Icon>
          <href>https://www.gstatic.com/mapspro/images/stock/503-wht-blank_maps.png</href>
        </Icon>
        <hotSpot x="32" xunits="pixels" y="64" yunits="insetPixels"/>
      </IconStyle>
      <LabelStyle>
        <scale>0</scale>
      </LabelStyle>
      <BalloonStyle>
        <text><![CDATA[<h3>$[name]</h3>]]></text>
      </BalloonStyle>
    </Style>
    <Style id="icon-1899-0288D1-nodesc-highlight">
      <IconStyle>
        <color>ffd18802</color>
        <scale>1</scale>
        <Icon>
          <href>https://www.gstatic.com/mapspro/images/stock/503-wht-blank_maps.png</href>
        </Icon>
        <hotSpot x="32" xunits="pixels" y="64" yunits="insetPixels"/>
      </IconStyle>
      <LabelStyle>
        <scale>1</scale>
      </LabelStyle>
      <BalloonStyle>
        <text><![CDATA[<h3>$[name]</h3>]]></text>
      </BalloonStyle>
    </Style>
    <StyleMap id="icon-1899-0288D1-nodesc">
      <Pair>
        <key>normal</key>
        <styleUrl>#icon-1899-0288D1-nodesc-normal</styleUrl>
      </Pair>
      <Pair>
        <key>highlight</key>
        <styleUrl>#icon-1899-0288D1-nodesc-highlight</styleUrl>
      </Pair>
    </StyleMap>
    <Folder>
      <name>Capa sin nombre</name>
      <Placemark>
        <name>T1Palma</name>
        <styleUrl>#icon-1899-0288D1-nodesc</styleUrl>
        <Point>
          <coordinates>
            2.6544908,39.5761744,0
          </coordinates>
        </Point>
      </Placemark>
      <Placemark>
        <name>T1Jacinto</name>
        <styleUrl>#icon-1899-0288D1-nodesc</styleUrl>
        <Point>
          <coordinates>
            2.6601556,39.5801768,0
          </coordinates>
        </Point>
      </Placemark>
      <Placemark>
        <name>T1SonCosta</name>
        <styleUrl>#icon-1899-0288D1-nodesc</styleUrl>
        <Point>
          <coordinates>
            2.6652298,39.5839056,0
          </coordinates>
        </Point>
      </Placemark>
      <Placemark>
        <name>T1SFuster</name>
        <styleUrl>#icon-1899-0288D1-nodesc</styleUrl>
        <Point>
          <coordinates>
            2.6744995,39.5901068,0
          </coordinates>
        </Point>
      </Placemark>
      <Placemark>
        <name>T1SCladera</name>
        <styleUrl>#icon-1899-0288D1-nodesc</styleUrl>
        <Point>
          <coordinates>
            2.6794562,39.5935792,0
          </coordinates>
        </Point>
      </Placemark>
      <Placemark>
        <name>T1SRullan</name>
        <styleUrl>#icon-1899-0288D1-nodesc</styleUrl>
        <Point>
          <coordinates>
            2.6835262,39.5959575,0
          </coordinates>
        </Point>
      </Placemark>
      <Placemark>
        <name>T1VLluc</name>
        <styleUrl>#icon-1899-0288D1-nodesc</styleUrl>
        <Point>
          <coordinates>
            2.6863586,39.5967842,0
          </coordinates>
        </Point>
      </Placemark>
      <Placemark>
        <name>T1PInca</name>
        <styleUrl>#icon-1899-0288D1-nodesc</styleUrl>
        <Point>
          <coordinates>
            2.691723,39.5981069,0
          </coordinates>
        </Point>
      </Placemark>
      <Placemark>
        <name>T1PIncaNou</name>
        <styleUrl>#icon-1899-0288D1-nodesc</styleUrl>
        <Point>
          <coordinates>
            2.7016859,39.6045286,0
          </coordinates>
        </Point>
      </Placemark>
      <Placemark>
        <name>T1PoligonMarratxi</name>
        <styleUrl>#icon-1899-0288D1-nodesc</styleUrl>
        <Point>
          <coordinates>
            2.7167879,39.6155305,0
          </coordinates>
        </Point>
      </Placemark>
      <Placemark>
        <name>T1Marratxi</name>
        <styleUrl>#icon-1899-0288D1-nodesc</styleUrl>
        <Point>
          <coordinates>
            2.7257198,39.6257493,0
          </coordinates>
        </Point>
      </Placemark>
      <Placemark>
        <name>ParqueVaporistas</name>
        <styleUrl>#icon-1899-0288D1-nodesc</styleUrl>
        <Point>
          <coordinates>
            2.7310246,39.629108,0
          </coordinates>
        </Point>
      </Placemark>
      <Placemark>
        <name>T1FestivalPark</name>
        <styleUrl>#icon-1899-0288D1-nodesc</styleUrl>
        <Point>
          <coordinates>
            2.7364964,39.6319835,0
          </coordinates>
        </Point>
      </Placemark>
      <Placemark>
        <name>Sa Bomba</name>
        <styleUrl>#icon-1899-0288D1-nodesc</styleUrl>
        <Point>
          <coordinates>
            2.7538664,39.6544604,0
          </coordinates>
        </Point>
      </Placemark>
      <Placemark>
        <name>T1StaMaria</name>
        <styleUrl>#icon-1899-0288D1-nodesc</styleUrl>
        <Point>
          <coordinates>
            2.7742218,39.6532217,0
          </coordinates>
        </Point>
      </Placemark>
      <Placemark>
        <name>T1AlaroConsell</name>
        <styleUrl>#icon-1899-0288D1-nodesc</styleUrl>
        <Point>
          <coordinates>
            2.8082729,39.6773931,0
          </coordinates>
        </Point>
      </Placemark>
      <Placemark>
        <name>T1Binissalem</name>
        <styleUrl>#icon-1899-0288D1-nodesc</styleUrl>
        <Point>
          <coordinates>
            2.8414453,39.6926572,0
          </coordinates>
        </Point>
      </Placemark>
      <Placemark>
        <name>T1Lloseta</name>
        <styleUrl>#icon-1899-0288D1-nodesc</styleUrl>
        <Point>
          <coordinates>
            2.8690593,39.7161545,0
          </coordinates>
        </Point>
      </Placemark>
      <Placemark>
        <name>T1Inca</name>
        <styleUrl>#icon-1899-0288D1-nodesc</styleUrl>
        <Point>
          <coordinates>
            2.9058899,39.7181022,0
          </coordinates>
        </Point>
      </Placemark>
      <Placemark>
        <name>T3Constancia</name>
        <styleUrl>#icon-1899-0288D1-nodesc</styleUrl>
        <Point>
          <coordinates>
            2.9147452,39.7148202,0
          </coordinates>
        </Point>
      </Placemark>
      <Placemark>
        <name>T3Enllaç</name>
        <styleUrl>#icon-1899-0288D1-nodesc</styleUrl>
        <Point>
          <coordinates>
            2.9512986,39.6907421,0
          </coordinates>
        </Point>
      </Placemark>
      <Placemark>
        <name>T3Sineu</name>
        <styleUrl>#icon-1899-0288D1-nodesc</styleUrl>
        <Point>
          <coordinates>
            3.0145699,39.6436028,0
          </coordinates>
        </Point>
      </Placemark>
      <Placemark>
        <name>T3SantJoan</name>
        <styleUrl>#icon-1899-0288D1-nodesc</styleUrl>
        <Point>
          <coordinates>
            3.0243642,39.6217489,0
          </coordinates>
        </Point>
      </Placemark>
      <Placemark>
        <name>T3PAETSJoan</name>
        <styleUrl>#icon-1899-0288D1-nodesc</styleUrl>
        <Point>
          <coordinates>
            3.0531286,39.6230907,0
          </coordinates>
        </Point>
      </Placemark>
      <Placemark>
        <name>T3Petra</name>
        <styleUrl>#icon-1899-0288D1-nodesc</styleUrl>
        <Point>
          <coordinates>
            3.1101149,39.6178245,0
          </coordinates>
        </Point>
      </Placemark>
      <Placemark>
        <name>T3Manacor</name>
        <styleUrl>#icon-1899-0288D1-nodesc</styleUrl>
        <Point>
          <coordinates>
            3.2028754,39.5705496,0
          </coordinates>
        </Point>
      </Placemark>
      <Placemark>
        <name>T2Llubi</name>
        <styleUrl>#icon-1899-0288D1-nodesc</styleUrl>
        <Point>
          <coordinates>
            2.993876,39.711312,0
          </coordinates>
        </Point>
      </Placemark>
      <Placemark>
        <name>T2Muro</name>
        <styleUrl>#icon-1899-0288D1-nodesc</styleUrl>
        <Point>
          <coordinates>
            3.0322751,39.7342838,0
          </coordinates>
        </Point>
      </Placemark>
      <Placemark>
        <name>T2SaPobla</name>
        <styleUrl>#icon-1899-0288D1-nodesc</styleUrl>
        <Point>
          <coordinates>
            3.0292658,39.7645486,0
          </coordinates>
        </Point>
      </Placemark>
      <Placemark>
        <name>M1SFusterVell</name>
        <styleUrl>#icon-1899-0288D1-nodesc</styleUrl>
        <Point>
          <coordinates>
            2.6711284,39.595576,0
          </coordinates>
        </Point>
      </Placemark>
      <Placemark>
        <name>M1SCastello</name>
        <styleUrl>#icon-1899-0288D1-nodesc</styleUrl>
        <Point>
          <coordinates>
            2.6720936,39.6025492,0
          </coordinates>
        </Point>
      </Placemark>
      <Placemark>
        <name>M1GVAsima</name>
        <styleUrl>#icon-1899-0288D1-nodesc</styleUrl>
        <Point>
          <coordinates>
            2.6686415,39.6065005,0
          </coordinates>
        </Point>
      </Placemark>
      <Placemark>
        <name>M1CamiReis</name>
        <styleUrl>#icon-1899-0288D1-nodesc</styleUrl>
        <Point>
          <coordinates>
            2.6653821,39.6102779,0
          </coordinates>
        </Point>
      </Placemark>
      <Placemark>
        <name>M1SonSardina</name>
        <styleUrl>#icon-1899-0288D1-nodesc</styleUrl>
        <Point>
          <coordinates>
            2.6612195,39.620695,0
          </coordinates>
        </Point>
      </Placemark>
      <Placemark>
        <name>M1UIB</name>
        <styleUrl>#icon-1899-0288D1-nodesc</styleUrl>
        <Point>
          <coordinates>
            2.6479801,39.6346078,0
          </coordinates>
        </Point>
      </Placemark>
      <Placemark>
        <name>M1ParcBit</name>
        <styleUrl>#icon-1899-0288D1-nodesc</styleUrl>
        <Point>
          <coordinates>
            2.636312,39.6343362,0
          </coordinates>
        </Point>
      </Placemark>
      <Placemark>
        <name>S1SonReus</name>
        <styleUrl>#icon-1899-0288D1-nodesc</styleUrl>
        <Point>
          <coordinates>
            2.6681968,39.6376586,0
          </coordinates>
        </Point>
      </Placemark>
      <Placemark>
        <name>S1StaMaria</name>
        <styleUrl>#icon-1899-0288D1-nodesc</styleUrl>
        <Point>
          <coordinates>
            2.6833849,39.6669005,0
          </coordinates>
        </Point>
      </Placemark>
      <Placemark>
        <name>S1Caubet</name>
        <styleUrl>#icon-1899-0288D1-nodesc</styleUrl>
        <Point>
          <coordinates>
            2.6852071,39.6742281,0
          </coordinates>
        </Point>
      </Placemark>
      <Placemark>
        <name>S1Bunyola</name>
        <styleUrl>#icon-1899-0288D1-nodesc</styleUrl>
        <Point>
          <coordinates>
            2.6938186,39.6973636,0
          </coordinates>
        </Point>
      </Placemark>
      <Placemark>
        <name>Tunel3Sur</name>
        <styleUrl>#icon-1899-0288D1-nodesc</styleUrl>
        <Point>
          <coordinates>
            2.6904706,39.716963,0
          </coordinates>
        </Point>
      </Placemark>
      <Placemark>
        <name>Tunel3Norte</name>
        <styleUrl>#icon-1899-0288D1-nodesc</styleUrl>
        <Point>
          <coordinates>
            2.6961994,39.7434283,0
          </coordinates>
        </Point>
      </Placemark>
      <Placemark>
        <name>S1Monumento</name>
        <styleUrl>#icon-1899-0288D1-nodesc</styleUrl>
        <Point>
          <coordinates>
            2.6966773,39.7453114,0
          </coordinates>
        </Point>
      </Placemark>
      <Placemark>
        <name>S1Mirador</name>
        <styleUrl>#icon-1899-0288D1-nodesc</styleUrl>
        <Point>
          <coordinates>
            2.7063057,39.7606449,0
          </coordinates>
        </Point>
      </Placemark>
      <Placemark>
        <name>ViaductoCincPonts</name>
        <styleUrl>#icon-1899-0288D1-nodesc</styleUrl>
        <Point>
          <coordinates>
            2.6977069,39.7650075,0
          </coordinates>
        </Point>
      </Placemark>
      <Placemark>
        <name>S1Soller</name>
        <styleUrl>#icon-1899-0288D1-nodesc</styleUrl>
        <Point>
          <coordinates>
            2.7147629,39.764351,0
          </coordinates>
        </Point>
      </Placemark>
      <Placemark>
        <name>S2Constitucio</name>
        <styleUrl>#icon-1899-0288D1-nodesc</styleUrl>
        <Point>
          <coordinates>
            2.715015,39.7664169,0
          </coordinates>
        </Point>
      </Placemark>
      <Placemark>
        <name>S2Mercat</name>
        <styleUrl>#icon-1899-0288D1-nodesc</styleUrl>
        <Point>
          <coordinates>
            2.7140534,39.7671643,0
          </coordinates>
        </Point>
      </Placemark>
      <Placemark>
        <name>S2RocaRoja</name>
        <styleUrl>#icon-1899-0288D1-nodesc</styleUrl>
        <Point>
          <coordinates>
            2.6998157,39.7825184,0
          </coordinates>
        </Point>
      </Placemark>
      <Placemark>
        <name>S2PortSoller1</name>
        <styleUrl>#icon-1899-0288D1-nodesc</styleUrl>
        <Point>
          <coordinates>
            2.6955632,39.7878998,0
          </coordinates>
        </Point>
      </Placemark>
      <Placemark>
        <name>S2PortSoller2</name>
        <styleUrl>#icon-1899-0288D1-nodesc</styleUrl>
        <Point>
          <coordinates>
            2.6955004,39.7976791,0
          </coordinates>
        </Point>
      </Placemark>
      <Placemark>
        <name>A1Manacor</name>
        <styleUrl>#icon-1899-0288D1-nodesc</styleUrl>
        <Point>
          <coordinates>
            3.2175925,39.57362,0
          </coordinates>
        </Point>
      </Placemark>
      <Placemark>
        <name>A1SantLlorenç</name>
        <styleUrl>#icon-1899-0288D1-nodesc</styleUrl>
        <Point>
          <coordinates>
            3.2869807,39.6067284,0
          </coordinates>
        </Point>
      </Placemark>
      <Placemark>
        <name>A1Museu</name>
        <styleUrl>#icon-1899-0288D1-nodesc</styleUrl>
        <Point>
          <coordinates>
            3.318605,39.5906458,0
          </coordinates>
        </Point>
      </Placemark>
      <Placemark>
        <name>A1SonCarrio</name>
        <styleUrl>#icon-1899-0288D1-nodesc</styleUrl>
        <Point>
          <coordinates>
            3.3196832,39.5900174,0
          </coordinates>
        </Point>
      </Placemark>
      <Placemark>
        <name>A1SonServera</name>
        <styleUrl>#icon-1899-0288D1-nodesc</styleUrl>
        <Point>
          <coordinates>
            3.3614499,39.6231134,0
          </coordinates>
        </Point>
      </Placemark>
      <Placemark>
        <name>A1Arta</name>
        <styleUrl>#icon-1899-0288D1-nodesc</styleUrl>
        <Point>
          <coordinates>
            3.3497786,39.6909134,0
          </coordinates>
        </Point>
      </Placemark>
    </Folder>
  </Document>
</kml>
