<?xml version="1.0" encoding="UTF-8"?>
<kml xmlns="http://www.opengis.net/kml/2.2">
  <Document>
    <name>Señales T3 — Palma-Manacor</name>
    <description>Marcadores interpolados sobre la polilínea del eje usando el PK oficial de las estaciones como anclas.</description>
    <Style id="st-Avanzada">
      <IconStyle>
        <color>ff00a5ff</color>
        <scale>1.0</scale>
        <Icon><href>http://maps.google.com/mapfiles/kml/paddle/orange-blank.png</href></Icon>
        <hotSpot x="32" y="1" xunits="pixels" yunits="pixels"/>
      </IconStyle>
      <LabelStyle><scale>0.8</scale></LabelStyle>
      <LineStyle><color>ffaa00aa</color><width>3</width></LineStyle>
    </Style>
    <Style id="st-Entrada">
      <IconStyle>
        <color>ff0000ff</color>
        <scale>1.0</scale>
        <Icon><href>http://maps.google.com/mapfiles/kml/paddle/red-blank.png</href></Icon>
        <hotSpot x="32" y="1" xunits="pixels" yunits="pixels"/>
      </IconStyle>
      <LabelStyle><scale>0.8</scale></LabelStyle>
      <LineStyle><color>ffaa00aa</color><width>3</width></LineStyle>
    </Style>
    <Style id="st-Salida">
      <IconStyle>
        <color>ff00c800</color>
        <scale>1.0</scale>
        <Icon><href>http://maps.google.com/mapfiles/kml/paddle/grn-blank.png</href></Icon>
        <hotSpot x="32" y="1" xunits="pixels" yunits="pixels"/>
      </IconStyle>
      <LabelStyle><scale>0.8</scale></LabelStyle>
      <LineStyle><color>ffaa00aa</color><width>3</width></LineStyle>
    </Style>
    <Style id="st-Retroceso">
      <IconStyle>
        <color>ffc000c0</color>
        <scale>1.0</scale>
        <Icon><href>http://maps.google.com/mapfiles/kml/paddle/purple-blank.png</href></Icon>
        <hotSpot x="32" y="1" xunits="pixels" yunits="pixels"/>
      </IconStyle>
      <LabelStyle><scale>0.8</scale></LabelStyle>
      <LineStyle><color>ffaa00aa</color><width>3</width></LineStyle>
    </Style>
    <Style id="st-Hitootra">
      <IconStyle>
        <color>ff0080ff</color>
        <scale>1.0</scale>
        <Icon><href>http://maps.google.com/mapfiles/kml/paddle/blu-blank.png</href></Icon>
        <hotSpot x="32" y="1" xunits="pixels" yunits="pixels"/>
      </IconStyle>
      <LabelStyle><scale>0.8</scale></LabelStyle>
      <LineStyle><color>ffaa00aa</color><width>3</width></LineStyle>
    </Style>
    <Style id="st-Estacion">
      <IconStyle>
        <color>ffd18802</color>
        <scale>1.0</scale>
        <Icon><href>http://maps.google.com/mapfiles/kml/paddle/wht-blank.png</href></Icon>
        <hotSpot x="32" y="1" xunits="pixels" yunits="pixels"/>
      </IconStyle>
      <LabelStyle><scale>0.8</scale></LabelStyle>
      <LineStyle><color>ffaa00aa</color><width>3</width></LineStyle>
    </Style>
    <Placemark>
      <name>Eje T3</name>
      <styleUrl>#st-Estacion</styleUrl>
      <LineString>
        <tessellate>1</tessellate>
        <coordinates>2.6543697515,39.5761133614,0 2.6544783810,39.5761702146,0 2.6545427540,39.5762053602,0 2.6546004215,39.5762384384,0 2.6546487012,39.5762673818,0 2.6546862522,39.5762994263,0 2.6558758119,39.5771170721,0 2.6563733616,39.5774953979,0 2.6567394832,39.5777548498,0 2.6570573249,39.5779801896,0 2.6572491029,39.5781145662,0 2.6574998894,39.5782799524,0 2.6579639116,39.5786045218,0 2.6584078172,39.5789859405,0 2.6587028602,39.5792133436,0 2.6589040259,39.5793632226,0 2.6595356861,39.5798366311,0 2.6597636739,39.5799989123,0 2.6602397659,39.5803090028,0 2.6604221562,39.5804268368,0 2.6608888605,39.5807379589,0 2.6612482765,39.5809870624,0 2.6615433195,39.5811958538,0 2.6618236104,39.5813994765,0 2.6620931724,39.5815824263,0 2.6623600522,39.5817684765,0 2.6626832583,39.5819917361,0 2.6629447737,39.5821788187,0 2.6635268131,39.5825736546,0 2.6637963751,39.5827555677,0 2.6641383567,39.5830098319,0 2.6643556157,39.5832165500,0 2.6646077433,39.5834449728,0 2.6650891998,39.5837178389,0 2.6656350294,39.5839679653,0 2.6657020846,39.5840516850,0 2.6661812139,39.5843675809,0 2.6667904470,39.5848051502,0 2.6673518345,39.5851837191,0 2.6679833955,39.5856016175,0 2.6684841787,39.5859482255,0 2.6689977207,39.5863071227,0 2.6695431598,39.5866807671,0 2.6701492032,39.5871207799,0 2.6705957615,39.5874255917,0 2.6714920677,39.5880450437,0 2.6722448374,39.5885686238,0 2.6728445014,39.5889840437,0 2.6734824418,39.5894338743,0 2.6742352115,39.5899476116,0 2.6746945286,39.5902671592,0 2.6750996208,39.5905449187,0 2.6753091419,39.5907000739,0 2.6754640394,39.5908101391,0 2.6759267205,39.5911336163,0 2.6764470690,39.5914937801,0 2.6769613826,39.5918534252,0 2.6774803901,39.5922130684,0 2.6779960447,39.5925701262,0 2.6785137111,39.5929282156,0 2.6790240013,39.5932863031,0 2.6794578487,39.5935885833,0 2.6798460984,39.5938588259,0 2.6801552230,39.5940598278,0 2.6804764175,39.5942618626,0 2.6807929182,39.5944530458,0 2.6810530925,39.5946101257,0 2.6812663281,39.5947408531,0 2.6815271729,39.5948999992,0 2.6818604374,39.5951020315,0 2.6821890080,39.5952978628,0 2.6825135553,39.5954838762,0 2.6828327381,39.5956507710,0 2.6831921542,39.5958171488,0 2.6835408413,39.5959618249,0 2.6839096451,39.5961008169,0 2.6842844838,39.5962263745,0 2.6847022378,39.5963488317,0 2.6851099336,39.5964547544,0 2.6855706030,39.5965725610,0 2.6860118264,39.5966846837,0 2.6864865774,39.5968035232,0 2.6868741566,39.5969032450,0 2.6872174793,39.5969879825,0 2.6875158751,39.5970613527,0 2.6878612095,39.5971460900,0 2.6883198672,39.5972649288,0 2.6888764256,39.5974075350,0 2.6894121969,39.5975413573,0 2.6899680847,39.5976793127,0 2.6905192786,39.5978193347,0 2.6911381984,39.5979722735,0 2.6916598880,39.5981107448,0 2.6919146979,39.5981846305,0 2.6922694200,39.5983019174,0 2.6926382238,39.5984341879,0 2.6929889226,39.5985747250,0 2.6933879012,39.5987586629,0 2.6937754804,39.5989570672,0 2.6941563541,39.5991709712,0 2.6945023590,39.5993952080,0 2.6948436701,39.5996318443,0 2.6952151561,39.5999015466,0 2.6956416273,39.6002125813,0 2.6961478942,39.6005778645,0 2.6966615373,39.6009524457,0 2.6971771920,39.6013265082,0 2.6976720595,39.6016855856,0 2.6981810087,39.6020539609,0 2.6986798996,39.6024161345,0 2.6991928720,39.6027865725,0 2.6997065151,39.6031580419,0 2.7002168053,39.6035295092,0 2.7007156962,39.6038916751,0 2.7012253159,39.6042579721,0 2.7017590755,39.6046438993,0 2.7022344971,39.6049848774,0 2.7027454579,39.6053573682,0 2.7032597715,39.6057308903,0 2.7037807906,39.6061064768,0 2.7042897397,39.6064743120,0 2.7048107588,39.6068509278,0 2.7053324485,39.6072311578,0 2.7058454209,39.6076031199,0 2.7063657695,39.6079766299,0 2.7068800831,39.6083527208,0 2.7073963850,39.6087242476,0 2.7079105439,39.6090960500,0 2.7084208342,39.6094685187,0 2.7089391711,39.6098399522,0 2.7094595196,39.6102175828,0 2.7099730312,39.6105875359,0 2.7104739338,39.6109563804,0 2.7109842240,39.6113236733,0 2.7116091787,39.6117694846,0 2.7119256794,39.6120055620,0 2.7123957365,39.6123444375,0 2.7129087090,39.6127148224,0 2.7134122937,39.6130790065,0 2.7139232546,39.6134509372,0 2.7144355565,39.6138207997,0 2.7149438351,39.6141875607,0 2.7154085278,39.6145238428,0 2.7158799260,39.6148668385,0 2.7163426071,39.6152015675,0 2.7168542385,39.6155740034,0 2.7173048496,39.6158983980,0 2.7176884055,39.6161773349,0 2.7180699497,39.6164542044,0 2.7184937387,39.6167610325,0 2.7190053701,39.6171272614,0 2.7195196837,39.6175017531,0 2.7200252801,39.6178695277,0 2.7205416053,39.6182419492,0 2.7210539072,39.6186112695,0 2.7214763551,39.6189149888,0 2.7218096196,39.6191649880,0 2.7221321552,39.6194325482,0 2.7224332332,39.6197073386,0 2.7227168768,39.6199924584,0 2.7229804039,39.6202894568,0 2.7232204616,39.6205895532,0 2.7234464377,39.6209072096,0 2.7236516267,39.6212336453,0 2.7238360285,39.6215600795,0 2.7239976316,39.6218942597,0 2.7241880685,39.6223193428,0 2.7243644237,39.6227087849,0 2.7245206624,39.6230460585,0 2.7246923238,39.6234251666,0 2.7248338103,39.6237433265,0 2.7249410987,39.6239752311,0 2.7250785619,39.6242784104,0 2.7252079784,39.6245573135,0 2.7253099024,39.6247804351,0 2.7254554122,39.6251037537,0 2.7256378024,39.6255024767,0 2.7257759362,39.6258015174,0 2.7259355276,39.6261599514,0 2.7260796964,39.6264527917,0 2.7262299001,39.6267022472,0 2.7264029026,39.6269387901,0 2.7266067504,39.6271655194,0 2.7268018811,39.6273462825,0 2.7270372450,39.6275327262,0 2.7273074775,39.6277160707,0 2.7275844156,39.6278735916,0 2.7278854936,39.6280156183,0 2.7282013237,39.6281385357,0 2.7285272121,39.6282392453,0 2.7289744704,39.6283415040,0 2.7295370638,39.6284602892,0 2.7301553130,39.6285909527,0 2.7307722210,39.6287241983,0 2.7312711119,39.6288533119,0 2.7317632973,39.6289974024,0 2.7322414010,39.6291575027,0 2.7327107876,39.6293408428,0 2.7331620693,39.6295381266,0 2.7335563540,39.6297307618,0 2.7338755369,39.6299073866,0 2.7342510461,39.6301248102,0 2.7344488590,39.6302415265,0 2.7348411321,39.6305085274,0 2.7352206647,39.6307910205,0 2.7355747163,39.6310848740,0 2.7359099924,39.6313937029,0 2.7362238109,39.6317138919,0 2.7364263176,39.6319437041,0 2.7365483582,39.6320919196,0 2.7369889935,39.6326834824,0 2.7372484973,39.6330868095,0 2.7374945900,39.6335014955,0 2.7377239188,39.6339208268,0 2.7379713526,39.6343670090,0 2.7382469496,39.6348798051,0 2.7385158410,39.6353812365,0 2.7387854030,39.6358805987,0 2.7390509417,39.6363747933,0 2.7393198332,39.6368741483,0 2.7395887246,39.6373688522,0 2.7398614911,39.6378730004,0 2.7401290414,39.6383744101,0 2.7403989270,39.6388730876,0 2.7406658068,39.6393672608,0 2.7409114698,39.6398225808,0 2.7411609152,39.6402836996,0 2.7414049962,39.6407344880,0 2.7416504184,39.6411873390,0 2.7418509135,39.6415627332,0 2.7421861896,39.6421828778,0 2.7424550811,39.6426821908,0 2.7427279959,39.6431825330,0 2.7429975579,39.6436823552,0 2.7432731548,39.6441925005,0 2.7435346702,39.6446788907,0 2.7437619874,39.6450950562,0 2.7439430365,39.6454275738,0 2.7440918991,39.6456707649,0 2.7442622194,39.6459041450,0 2.7444653967,39.6461354590,0 2.7446893612,39.6463394071,0 2.7449354539,39.6465309629,0 2.7452090392,39.6467049632,0 2.7455483386,39.6468872242,0 2.7459493289,39.6470730990,0 2.7464515725,39.6473023438,0 2.7468559155,39.6474882174,0 2.7471409002,39.6476379486,0 2.7474118033,39.6478021362,0 2.7476706365,39.6479843943,0 2.7479033182,39.6481816249,0 2.7481172243,39.6483989910,0 2.7482996145,39.6486215195,0 2.7484598765,39.6488600527,0 2.7485859403,39.6491083948,0 2.7486918876,39.6493644805,0 2.7487877766,39.6496257283,0 2.7488742778,39.6498874914,0 2.7489956478,39.6502359910,0 2.7491552392,39.6506676118,0 2.7492805114,39.6510113048,0 2.7494159630,39.6513097189,0 2.7495587906,39.6515647640,0 2.7497405102,39.6518492361,0 2.7499423465,39.6521238978,0 2.7501716753,39.6523892654,0 2.7504177680,39.6526396600,0 2.7506866595,39.6528823095,0 2.7509689620,39.6531136001,0 2.7512626639,39.6533237229,0 2.7515845289,39.6535359101,0 2.7519037118,39.6537258971,0 2.7522456935,39.6538983306,0 2.7526024272,39.6540578569,0 2.7529712310,39.6542013787,0 2.7533420464,39.6543257984,0 2.7537262728,39.6544347300,0 2.7541218986,39.6545250760,0 2.7545235595,39.6545978689,0 2.7549084564,39.6546494951,0 2.7553027412,39.6546851171,0 2.7557077547,39.6547062838,0 2.7561141094,39.6547083489,0 2.7565399101,39.6546892472,0 2.7569502880,39.6546541414,0 2.7573573133,39.6545968364,0 2.7577522685,39.6545250760,0 2.7581398478,39.6544347300,0 2.7585897883,39.6543087617,0 2.7590880086,39.6541497522,0 2.7596827885,39.6539556362,0 2.7603338947,39.6537439665,0 2.7609762838,39.6535374589,0 2.7616005679,39.6533309507,0 2.7622657558,39.6531146327,0 2.7629349669,39.6528957326,0 2.7635404756,39.6526969666,0 2.7641701241,39.6524909722,0 2.7647669157,39.6522973678,0 2.7652456900,39.6521445490,0 2.7656882545,39.6520237394,0 2.7661180785,39.6519246133,0 2.7666028877,39.6518420082,0 2.7670434406,39.6517816031,0 2.7675067922,39.6517418493,0 2.7679708144,39.6517201654,0 2.7684368481,39.6517222306,0 2.7689082464,39.6517454633,0 2.7693769624,39.6517862497,0 2.7698255619,39.6518492362,0 2.7702225288,39.6519204831,0 2.7706476589,39.6520149626,0 2.7709735473,39.6521011815,0 2.7713503977,39.6522199259,0 2.7717232247,39.6523464143,0 2.7721423199,39.6524945861,0 2.7728356709,39.6527367199,0 2.7733298679,39.6529153511,0 2.7738891085,39.6531125676,0 2.7743082037,39.6532664168,0 2.7747802725,39.6534342049,0 2.7751946738,39.6535813419,0 2.7757988413,39.6538007560,0 2.7763735046,39.6540093279,0 2.7767329206,39.6541368456,0 2.7771855434,39.6542948226,0 2.7776153674,39.6544486691,0 2.7781249871,39.6546288446,0 2.7784146657,39.6547357107,0 2.7788009038,39.6548730360,0 2.7792736431,39.6550408202,0 2.7797504058,39.6552106690,0 2.7802258273,39.6553800012,0 2.7807522109,39.6555828895,0 2.7811994692,39.6557780335,0 2.7815930834,39.6559711118,0 2.7819726160,39.6561786447,0 2.7823306908,39.6563980506,0 2.7826854130,39.6566396544,0 2.7830173364,39.6568920985,0 2.7834210088,39.6572162995,0 2.7839011242,39.6576076100,0 2.7843856487,39.6580007459,0 2.7848711285,39.6583925682,0 2.7853525850,39.6587838721,0 2.7858347121,39.6591751738,0 2.7863141570,39.6595633759,0 2.7867976252,39.6599567381,0 2.7872831050,39.6603490655,0 2.7877625498,39.6607393259,0 2.7882399830,39.6611259706,0 2.7887314978,39.6615239698,0 2.7892136249,39.6619173208,0 2.7896930698,39.6623044751,0 2.7901745263,39.6626957568,0 2.7906553293,39.6630831505,0 2.7911411216,39.6634788654,0 2.7916205665,39.6638660109,0 2.7921020230,39.6642578000,0 2.7925868323,39.6646511355,0 2.7930709710,39.6650449848,0 2.7935349932,39.6654321216,0 2.7940063914,39.6658140945,0 2.7944938829,39.6662038078,0 2.7948927202,39.6665305852,0 2.7952878965,39.6668553799,0 2.7957341667,39.6672160456,0 2.7962149527,39.6676067833,0 2.7967118319,39.6679964866,0 2.7971965973,39.6683875999,0 2.7976805197,39.6687802042,0 2.7981624998,39.6691742981,0 2.7986385919,39.6695608956,0 2.7991220182,39.6699526498,0 2.7996020323,39.6703466818,0 2.8000888426,39.6707318923,0 2.8005664579,39.6711224174,0 2.8010526083,39.6715224235,0 2.8015327237,39.6719126208,0 2.8020176044,39.6723009285,0 2.8024159124,39.6726286700,0 2.8028106629,39.6729503848,0 2.8032176881,39.6732745104,0 2.8036233722,39.6736043118,0 2.8041008054,39.6739826266,0 2.8043878018,39.6742148789,0 2.8045782386,39.6743676489,0 2.8050583540,39.6747645396,0 2.8055331050,39.6751567830,0 2.8060185848,39.6755433470,0 2.8065000414,39.6759355860,0 2.8069888740,39.6763283388,0 2.8074683188,39.6767190251,0 2.8079142361,39.6770808078,0 2.8083722232,39.6774503301,0 2.8088543503,39.6778394617,0 2.8092466234,39.6781527265,0 2.8096388965,39.6784763116,0 2.8100620149,39.6788251832,0 2.8104737340,39.6791611510,0 2.8108693599,39.6794852475,0 2.8112897961,39.6798232764,0 2.8117296784,39.6801829786,0 2.8121253042,39.6805065542,0 2.8126034080,39.6808987650,0 2.8130479841,39.6812579455,0 2.8134228228,39.6815500364,0 2.8137996732,39.6818281925,0 2.8142134039,39.6820986066,0 2.8146217703,39.6823483774,0 2.8150502532,39.6825878263,0 2.8154814183,39.6828117928,0 2.8159306883,39.6830192450,0 2.8163933693,39.6832112152,0 2.8168667792,39.6833846071,0 2.8174052327,39.6835595468,0 2.8180033653,39.6837350020,0 2.8186457543,39.6839233579,0 2.8193149655,39.6841127453,0 2.8199647306,39.6843031643,0 2.8206198602,39.6844935828,0 2.8212830364,39.6846809045,0 2.8219334721,39.6848702899,0 2.8225946366,39.6850596747,0 2.8232444017,39.6852490590,0 2.8238995313,39.6854374108,0 2.8245526492,39.6856273101,0 2.8252037554,39.6858156608,0 2.8258615671,39.6860065911,0 2.8265280961,39.6861990690,0 2.8271684735,39.6863848380,0 2.8278249441,39.6865747347,0 2.8284887909,39.6867666950,0 2.8291284977,39.6869509145,0 2.8297842978,39.6871408096,0 2.8304394274,39.6873291562,0 2.8310952275,39.6875180183,0 2.8317550509,39.6877089439,0 2.8324095099,39.6878988370,0 2.8330626278,39.6880882135,0 2.8337137340,39.6882750094,0 2.8343681930,39.6884664490,0 2.8349703490,39.6886398277,0 2.8354571699,39.6887915338,0 2.8358843117,39.6889396275,0 2.8363516866,39.6891228091,0 2.8368136971,39.6893225023,0 2.8372562616,39.6895361270,0 2.8376820623,39.6897621350,0 2.8381011574,39.6900056861,0 2.8385061710,39.6902631683,0 2.8388836919,39.6905247775,0 2.8391981809,39.6907647140,0 2.8395140110,39.6910252893,0 2.8397963135,39.6912652241,0 2.8400035142,39.6914427237,0 2.8402844756,39.6916826570,0 2.8404869824,39.6918611875,0 2.8407766609,39.6921062792,0 2.8411588757,39.6924359907,0 2.8415008574,39.6927331940,0 2.8418770372,39.6930567108,0 2.8422277360,39.6933575233,0 2.8426106213,39.6936898086,0 2.8430779963,39.6940932958,0 2.8435467123,39.6944967806,0 2.8440147578,39.6949012950,0 2.8444834738,39.6953052911,0 2.8449481665,39.6957030933,0 2.8454162120,39.6961055369,0 2.8458835869,39.6965095259,0 2.8463489502,39.6969104168,0 2.8468143134,39.6973159490,0 2.8472810178,39.6977163193,0 2.8477490632,39.6981197830,0 2.8482150971,39.6985196327,0 2.8486804603,39.6989256713,0 2.8491478353,39.6993260323,0 2.8496145396,39.6997289707,0 2.8500825851,39.7001303589,0 2.8505439251,39.7005286492,0 2.8510113000,39.7009274532,0 2.8514826982,39.7013376049,0 2.8519487320,39.7017394997,0 2.8524107425,39.7021408762,0 2.8528774469,39.7025417344,0 2.8533454924,39.7029446540,0 2.8538128673,39.7033444758,0 2.8542789011,39.7037484224,0 2.8547476171,39.7041513349,0 2.8552116393,39.7045526974,0 2.8556776731,39.7049550893,0 2.8561470597,39.7053569630,0 2.8566110818,39.7057593502,0 2.8570824801,39.7061627668,0 2.8575518667,39.7065630858,0 2.8580165594,39.7069670136,0 2.8584906398,39.7073709391,0 2.8589432626,39.7077650607,0 2.8594113081,39.7081720767,0 2.8598820357,39.7085785743,0 2.8603453873,39.7089763001,0 2.8608194678,39.7093864040,0 2.8611990004,39.7097150012,0 2.8616113900,39.7100704209,0 2.8620995520,39.7104877401,0 2.8625622331,39.7108854548,0 2.8629933982,39.7112553120,0 2.8634567498,39.7116566331,0 2.8639214425,39.7120605311,0 2.8643874763,39.7124623634,0 2.8648568629,39.7128652250,0 2.8653282611,39.7132675685,0 2.8657587557,39.7136394761,0 2.8661932735,39.7140124134,0 2.8666123687,39.7143750324,0 2.8670790731,39.7147727247,0 2.8675156026,39.7151286342,0 2.8678891002,39.7154138763,0 2.8682679622,39.7156872536,0 2.8686723052,39.7159508296,0 2.8690940826,39.7162030570,0 2.8694340526,39.7163887453,0 2.8698826520,39.7166151811,0 2.8702668785,39.7167936471,0 2.8706785976,39.7169638600,0 2.8710943399,39.7171227249,0 2.8714691787,39.7172521892,0 2.8718453585,39.7173703058,0 2.8723482727,39.7175131803,0 2.8729081838,39.7176493491,0 2.8735820888,39.7177963493,0 2.8742633699,39.7179500544,0 2.8749433099,39.7181022118,0 2.8756058155,39.7182517900,0 2.8762777089,39.7184003362,0 2.8769368617,39.7185493979,0 2.8776174723,39.7187051645,0 2.8782873540,39.7188573202,0 2.8789666234,39.7190079283,0 2.8795855431,39.7191435784,0 2.8802091567,39.7192658180,0 2.8808367937,39.7193674263,0 2.8814718066,39.7194499507,0 2.8821068196,39.7195139071,0 2.8827438443,39.7195587796,0 2.8833855627,39.7195840527,0 2.8840252696,39.7195938524,0 2.8847179501,39.7195938524,0 2.8854213594,39.7195923051,0 2.8861093460,39.7195938524,0 2.8868100731,39.7195938524,0 2.8875114708,39.7195917893,0 2.8882135390,39.7195933366,0 2.8889109133,39.7195902420,0 2.8896129815,39.7195917893,0 2.8903070031,39.7195892104,0 2.8910144358,39.7195892104,0 2.8917151628,39.7195892104,0 2.8924098550,39.7195886947,0 2.8931099115,39.7195923051,0 2.8938139914,39.7195886947,0 2.8945127069,39.7195876631,0 2.8952161162,39.7195850842,0 2.8959134905,39.7195850842,0 2.8966162293,39.7195845685,0 2.8972613006,39.7195825054,0 2.8979023485,39.7195819896,0 2.8984843879,39.7195830211,0 2.8990074186,39.7195788949,0 2.8994285254,39.7195794107,0 2.9001031010,39.7195788949,0 2.9004853158,39.7195758003,0 2.9008561312,39.7195613585,0 2.9012517570,39.7195283488,0 2.9016326307,39.7194808974,0 2.9020094811,39.7194143621,0 2.9023829786,39.7193323535,0 2.9027470885,39.7192343555,0 2.9031011401,39.7191208841,0 2.9034478157,39.7189976127,0 2.9037864445,39.7188722779,0 2.9041907876,39.7187247642,0 2.9048016607,39.7184926617,0 2.9051785110,39.7183554629,0 2.9055795013,39.7182074323,0 2.9058787617,39.7181125011,0 2.9064091891,39.7179220864,0 2.9073339276,39.7175803104,0 2.9085000004,39.7171535218,0 2.9091112301,39.7169331868,0 2.9096344967,39.7167371401,0 2.9104374404,39.7164439365,0 2.9111343777,39.7161854305,0 2.9120861817,39.7158367061,0 2.9127583088,39.7155903426,0 2.9134935887,39.7153162187,0 2.9143867509,39.7149813697,0 2.9150295570,39.7147454129,0 2.9158392670,39.7144452609,0 2.9166038679,39.7141641925,0 2.9170910474,39.7139820179,0 2.9177112989,39.7137529978,0 2.9180270633,39.7136332824,0 2.9184556006,39.7134649865,0 2.9187555768,39.7133418006,0 2.9189991664,39.7132324946,0 2.9192946317,39.7130988982,0 2.9195562652,39.7129618314,0 2.9198787959,39.7127796536,0 2.9201584729,39.7126009455,0 2.9203637198,39.7124552026,0 2.9205306238,39.7123302798,0 2.9207809799,39.7121376901,0 2.9209726939,39.7119745957,0 2.9211869626,39.7117958855,0 2.9216899302,39.7113204793,0 2.9224271606,39.7105774640,0 2.9228804538,39.7101647879,0 2.9233417939,39.7097397290,0 2.9237736295,39.7093311748,0 2.9242081473,39.7089040473,0 2.9246319363,39.7084769172,0 2.9250396322,39.7080415306,0 2.9253641795,39.7076701086,0 2.9257048200,39.7073007481,0 2.9260427783,39.7069437665,0 2.9263941478,39.7065826561,0 2.9267589282,39.7062297978,0 2.9270834754,39.7059120174,0 2.9273704718,39.7056396331,0 2.9276735614,39.7053775653,0 2.9280142020,39.7051258142,0 2.9283870291,39.7048472362,0 2.9287598561,39.7045665934,0 2.9292024206,39.7042632503,0 2.9297281336,39.7038918080,0 2.9302297067,39.7035327452,0 2.9307688307,39.7031427266,0 2.9312891792,39.7027733418,0 2.9318202566,39.7023957006,0 2.9323513340,39.7020180573,0 2.9328582714,39.7016507302,0 2.9333276580,39.7013164195,0 2.9338480066,39.7009470250,0 2.9343549441,39.7005817558,0 2.9348672460,39.7002144211,0 2.9353661370,39.6998512117,0 2.9358757567,39.6994838730,0 2.9363987874,39.6991185962,0 2.9369084071,39.6987512536,0 2.9374180268,39.6983942277,0 2.9379115533,39.6980433913,0 2.9384292196,39.6976636605,0 2.9389338003,39.6973069831,0 2.9394401947,39.6969436149,0 2.9399598653,39.6965758667,0 2.9404624665,39.6962066573,0 2.9409764473,39.6958389052,0 2.9414923247,39.6954711512,0 2.9420063055,39.6951048546,0 2.9424747677,39.6947735807,0 2.9429128842,39.6944817081,0 2.9433775533,39.6942102654,0 2.9438517053,39.6939504967,0 2.9443467200,39.6937126178,0 2.9449232889,39.6934484691,0 2.9455226171,39.6931843193,0 2.9461238419,39.6929260062,0 2.9466700651,39.6926852049,0 2.9471404239,39.6924794286,0 2.9479123434,39.6921496015,0 2.9485230512,39.6918781497,0 2.9491508286,39.6915906431,0 2.9495187705,39.6914359437,0 2.9512634274,39.6907158182,0 2.9516491590,39.6904810848,0 2.9519254265,39.6903716940,0 2.9522258340,39.6902581751,0 2.9524980782,39.6901425921,0 2.9528789518,39.6899769571,0 2.9532859771,39.6898015177,0 2.9537392704,39.6896080178,0 2.9542327969,39.6894114214,0 2.9547591804,39.6891967644,0 2.9552346019,39.6889960388,0 2.9557381867,39.6887772524,0 2.9562571941,39.6885512412,0 2.9567762015,39.6883241972,0 2.9572938678,39.6881012806,0 2.9578095226,39.6878768152,0 2.9584096668,39.6876151960,0 2.9588468669,39.6874263342,0 2.9593692271,39.6871987705,0 2.9598862229,39.6869743022,0 2.9604052304,39.6867498331,0 2.9609202145,39.6865263954,0 2.9614413663,39.6863008016,0 2.9619650676,39.6860716861,0 2.9624344542,39.6858688873,0 2.9628703131,39.6856789887,0 2.9633437231,39.6854756727,0 2.9637836053,39.6852837088,0 2.9643039539,39.6850582022,0 2.9647652938,39.6848569486,0 2.9652246221,39.6846567264,0 2.9656350001,39.6844869499,0 2.9660567775,39.6843290419,0 2.9664919659,39.6841876469,0 2.9669345304,39.6840622489,0 2.9673824593,39.6839549121,0 2.9678391054,39.6838651206,0 2.9682957514,39.6837933906,0 2.9687503859,39.6837376578,0 2.9692707344,39.6836814090,0 2.9697951063,39.6836251601,0 2.9703121020,39.6835699433,0 2.9708351328,39.6835126622,0 2.9713561519,39.6834574453,0 2.9718892410,39.6833991321,0 2.9729279264,39.6832861177,0 2.9734489455,39.6832293525,0 2.9739652708,39.6831674267,0 2.9748678341,39.6830182885,0 2.9753345384,39.6829104341,0 2.9757576569,39.6827943227,0 2.9761982098,39.6826529245,0 2.9770089074,39.6823360677,0 2.9773984983,39.6821580286,0 2.9777921125,39.6819567665,0 2.9782264370,39.6817254772,0 2.9787075323,39.6814701898,0 2.9791903299,39.6812137070,0 2.9796704453,39.6809572232,0 2.9801579368,39.6807058991,0 2.9806219590,39.6804592187,0 2.9811215204,39.6802001518,0 2.9816027152,39.6799456923,0 2.9820258336,39.6797129432,0 2.9824454393,39.6794785250,0 2.9828343596,39.6792689979,0 2.9832655247,39.6790367626,0 2.9836779143,39.6788127838,0 2.9845060463,39.6783741136,0 2.9848466869,39.6781945161,0 2.9851350244,39.6780458833,0 2.9854340906,39.6778998306,0 2.9857479091,39.6777599706,0 2.9860127773,39.6776588171,0 2.9862830098,39.6775731462,0 2.9865633006,39.6774972809,0 2.9868429209,39.6774410270,0 2.9871325995,39.6773992236,0 2.9874249603,39.6773734190,0 2.9877421315,39.6773636133,0 2.9880418684,39.6773708386,0 2.9883248414,39.6773904500,0 2.9886741992,39.6774296730,0 2.9890711661,39.6774848947,0 2.9894654508,39.6775432130,0 2.9898671116,39.6776004990,0 2.9902761485,39.6776598493,0 2.9906825031,39.6777114583,0 2.9910680707,39.6777558419,0 2.9914730842,39.6777806142,0 2.9918780978,39.6777950647,0 2.9922817702,39.6777945486,0 2.9926820900,39.6777806142,0 2.9930301066,39.6777584224,0 2.9933727587,39.6777279731,0 2.9937180932,39.6776856538,0 2.9940600748,39.6776361092,0 2.9944550301,39.6775726301,0 2.9949076529,39.6774972809,0 2.9954011794,39.6774178029,0 2.9959128107,39.6773362604,0 2.9964324887,39.6772505891,0 2.9969461317,39.6771659498,0 2.9974577631,39.6770849232,0 2.9979754295,39.6770007998,0 2.9984796847,39.6769192568,0 2.9989423658,39.6768433908,0 2.9993379916,39.6767783627,0 2.9997383113,39.6767076575,0 3.0000883396,39.6766343717,0 3.0004229452,39.6765486995,0 3.0007374342,39.6764449638,0 3.0010472293,39.6763226483,0 3.0013422723,39.6761822691,0 3.0016218926,39.6760269226,0 3.0018874313,39.6758540283,0 3.0021348651,39.6756687471,0 3.0023708995,39.6754669499,0 3.0025848057,39.6752486367,0 3.0027718897,39.6750256779,0 3.0029381867,39.6747887834,0 3.0030836965,39.6745451785,0 3.0032043960,39.6742922828,0 3.0032996144,39.6740326766,0 3.0033693518,39.6737689404,0 3.0034130674,39.6734995690,0 3.0034331839,39.6732286051,0 3.0034425717,39.6729158340,0 3.0034419011,39.6725597069,0 3.0034472655,39.6721478357,0 3.0034506183,39.6717070587,0 3.0034518573,39.6712471312,0 3.0034491751,39.6707929288,0 3.0034538690,39.6703444009,0 3.0034567724,39.6698981253,0 3.0034637513,39.6694381911,0 3.0034674374,39.6689964700,0 3.0034660963,39.6685489628,0 3.0034722981,39.6680999334,0 3.0034722981,39.6676663568,0 3.0034616611,39.6672388940,0 3.0034322669,39.6668782360,0 3.0033866694,39.6665669847,0 3.0033269902,39.6662583129,0 3.0032391479,39.6659465426,0 3.0031298479,39.6656456107,0 3.0030017724,39.6653462261,0 3.0028616453,39.6650548505,0 3.0027168060,39.6647570118,0 3.0025491679,39.6644251034,0 3.0023868943,39.6640957744,0 3.0022239501,39.6637514742,0 3.0020623470,39.6634133667,0 3.0018980617,39.6630752574,0 3.0017599279,39.6627815399,0 3.0016150886,39.6624403303,0 3.0015024359,39.6621326725,0 3.0013975646,39.6617807077,0 3.0013110315,39.6614244764,0 3.0012500112,39.6610677738,0 3.0012144720,39.6607028099,0 3.0011975687,39.6603483364,0 3.0012036037,39.6599807875,0 3.0012230497,39.6596245937,0 3.0012426186,39.6592233287,0 3.0012714523,39.6588144754,0 3.0012989450,39.6584122228,0 3.0013331431,39.6580028485,0 3.0013636994,39.6575983121,0 3.0013956905,39.6571936617,0 3.0014258654,39.6568353885,0 3.0014875526,39.6564678862,0 3.0015626544,39.6561137393,0 3.0016593898,39.6557634064,0 3.0017747248,39.6554381662,0 3.0019369984,39.6550695587,0 3.0021026248,39.6547401851,0 3.0022736156,39.6544092612,0 3.0024251605,39.6541170555,0 3.0025941396,39.6537918075,0 3.0028145045,39.6533762549,0 3.0029962242,39.6530272548,0 3.0031920254,39.6526493415,0 3.0033791095,39.6522812355,0 3.0035661936,39.6519492672,0 3.0037452310,39.6516658280,0 3.0039437145,39.6513896156,0 3.0041663378,39.6511242442,0 3.0044117600,39.6508728116,0 3.0046793103,39.6506265410,0 3.0049582601,39.6503983397,0 3.0052620202,39.6501814962,0 3.0056422234,39.6499419350,0 3.0059540301,39.6497689754,0 3.0062933296,39.6495918850,0 3.0066862732,39.6493977562,0 3.0070805579,39.6492041432,0 3.0075787782,39.6489630297,0 3.0080776691,39.6487172686,0 3.0085631489,39.6484818327,0 3.0090526521,39.6482417493,0 3.0095367908,39.6480052792,0 3.0099867314,39.6477863630,0 3.0104775757,39.6475457608,0 3.0110254168,39.6472793420,0 3.0114686519,39.6470624888,0 3.0118823826,39.6468595754,0 3.0122726440,39.6466607921,0 3.0126018852,39.6464764652,0 3.0128620595,39.6463029806,0 3.0131121755,39.6461160711,0 3.0133415043,39.6459110897,0 3.0136251479,39.6456064563,0 3.0137324363,39.6454701453,0 3.0138806283,39.6452692926,0 3.0140127271,39.6450663740,0 3.0141401321,39.6448149194,0 3.0142507732,39.6445577841,0 3.0143533677,39.6442567591,0 3.0144526094,39.6439717393,0 3.0145666033,39.6436490253,0 3.0146906555,39.6432896492,0 3.0147630751,39.6430356064,0 3.0148348242,39.6428239033,0 3.0149474770,39.6425032494,0 3.0150697831,39.6421550168,0 3.0151931647,39.6418075091,0 3.0152917359,39.6415214466,0 3.0154204819,39.6411553467,0 3.0155512396,39.6407871794,0 3.0156685863,39.6404814907,0 3.0158000145,39.6401830298,0 3.0159435127,39.6399098698,0 3.0160950575,39.6396692402,0 3.0162700716,39.6394368718,0 3.0164678846,39.6392112156,0 3.0166844729,39.6390005335,0 3.0169238601,39.6387991457,0 3.0171847049,39.6386091176,0 3.0174562786,39.6384361297,0 3.0177861903,39.6382476498,0 3.0181268308,39.6380638169,0 3.0184352848,39.6378944423,0 3.0187705610,39.6376909857,0 3.0189898316,39.6375427821,0 3.0191889856,39.6373888980,0 3.0193827752,39.6372179726,0 3.0195557777,39.6370423992,0 3.0197200630,39.6368492679,0 3.0198588673,39.6366566526,0 3.0199842606,39.6364578399,0 3.0200928900,39.6362476659,0 3.0201800618,39.6360400732,0 3.0202500330,39.6358235586,0 3.0203030067,39.6355947921,0 3.0203331815,39.6353784186,0 3.0203445809,39.6351506835,0 3.0203385459,39.6349291445,0 3.0203050183,39.6346616442,0 3.0202527152,39.6343962086,0 3.0201904990,39.6341276602,0 3.0201254554,39.6338596405,0 3.0200644351,39.6336014317,0 3.0200121321,39.6333303113,0 3.0199806161,39.6331041187,0 3.0199645229,39.6328675969,0 3.0199678756,39.6326563791,0 3.0199906744,39.6324281186,0 3.0200315781,39.6322029559,0 3.0200892456,39.6319814074,0 3.0201831229,39.6317144122,0 3.0203038223,39.6314112656,0 3.0204446383,39.6310755820,0 3.0206042297,39.6306805062,0 3.0207571156,39.6303040201,0 3.0209173776,39.6299213346,0 3.0210810616,39.6295348879,0 3.0212399824,39.6291485830,0 3.0214002444,39.6287591772,0 3.0215605064,39.6283759667,0 3.0217408850,39.6279467891,0 3.0219185813,39.6275139935,0 3.0220976188,39.6270832611,0 3.0222719624,39.6266551084,0 3.0224516704,39.6262233377,0 3.0226266845,39.6257920809,0 3.0228003575,39.6253696014,0 3.0229807361,39.6249352403,0 3.0231597735,39.6245091403,0 3.0233173533,39.6241222908,0 3.0234796270,39.6237271753,0 3.0236579939,39.6233010678,0 3.0238357756,39.6228737325,0 3.0240121308,39.6224424547,0 3.0241770867,39.6220442306,0 3.0243534419,39.6216181127,0 3.0245110217,39.6212395113,0 3.0247101757,39.6207612205,0 3.0248523328,39.6204213532,0 3.0249841205,39.6201465926,0 3.0251618168,39.6198521761,0 3.0253442070,39.6196073446,0 3.0255393377,39.6193867889,0 3.0257458678,39.6191853440,0 3.0259651384,39.6189988777,0 3.0262276069,39.6188081738,0 3.0264904634,39.6186434009,0 3.0267855063,39.6184868920,0 3.0270973131,39.6183479449,0 3.0274178371,39.6182306919,0 3.0277437255,39.6181325505,0 3.0280857072,39.6180519712,0 3.0284303710,39.6179941193,0 3.0287803993,39.6179564122,0 3.0291304275,39.6179388500,0 3.0294838086,39.6179429823,0 3.0298251197,39.6179651933,0 3.0302321449,39.6180085822,0 3.0307042137,39.6180690168,0 3.0311508015,39.6181258356,0 3.0315437451,39.6181754229,0 3.0320842103,39.6182446383,0 3.0325945005,39.6183107546,0 3.0331684933,39.6183846187,0 3.0337391332,39.6184584828,0 3.0343124554,39.6185313137,0 3.0349005297,39.6186062107,0 3.0354718402,39.6186790415,0 3.0360465035,39.6187534217,0 3.0366285429,39.6188267689,0 3.0371857718,39.6189001160,0 3.0377503768,39.6189775952,0 3.0382774308,39.6190602396,0 3.0387367592,39.6191464995,0 3.0391887114,39.6192467056,0 3.0396332875,39.6193577586,0 3.0400691465,39.6194775923,0 3.0405807778,39.6196186032,0 3.0410602227,39.6197518660,0 3.0415490553,39.6198871946,0 3.0420445934,39.6200240726,0 3.0425367788,39.6201599172,0 3.0430370108,39.6202978276,0 3.0435097501,39.6204259239,0 3.0440830723,39.6205860440,0 3.0446161613,39.6207373830,0 3.0451733902,39.6208902711,0 3.0457299486,39.6210421260,0 3.0462818131,39.6211944969,0 3.0467934445,39.6213391199,0 3.0473305568,39.6214920068,0 3.0478200600,39.6216299145,0 3.0483296797,39.6217667890,0 3.0488265589,39.6219031467,0 3.0493355081,39.6220457022,0 3.0498893842,39.6222016865,0 3.0504385665,39.6223576705,0 3.0509408102,39.6225022911,0 3.0515201673,39.6226598238,0 3.0521169588,39.6228245872,0 3.0526352957,39.6229692068,0 3.0532180056,39.6231324200,0 3.0537068382,39.6232713575,0 3.0541111812,39.6233849865,0 3.0545014426,39.6234919008,0 3.0548957274,39.6235936501,0 3.0553034231,39.6236876518,0 3.0556950257,39.6237584113,0 3.0560343251,39.6237997306,0 3.0563454613,39.6238214233,0 3.0566726908,39.6238271047,0 3.0569878504,39.6238110934,0 3.0574344382,39.6237609937,0 3.0577086941,39.6237108940,0 3.0580439702,39.6236318706,0 3.0583812580,39.6235316709,0 3.0587044642,39.6234144267,0 3.0590095654,39.6232760060,0 3.0592878446,39.6231262220,0 3.0595621005,39.6229552614,0 3.0598209337,39.6227698383,0 3.0601092711,39.6225379297,0 3.0603761510,39.6223044707,0 3.0606477246,39.6220617139,0 3.0609092400,39.6218308359,0 3.0611948952,39.6215927260,0 3.0614912793,39.6213819903,0 3.0617635236,39.6212229051,0 3.0620116279,39.6211010083,0 3.0622523561,39.6209987389,0 3.0625031427,39.6209083491,0 3.0628303722,39.6208127941,0 3.0631649777,39.6207389325,0 3.0635083005,39.6206877976,0 3.0638529643,39.6206593892,0 3.0642096982,39.6206542241,0 3.0645637497,39.6206697195,0 3.0649070725,39.6207100077,0 3.0652503953,39.6207714729,0 3.0655876830,39.6208515326,0 3.0659705684,39.6209630995,0 3.0663943574,39.6211046239,0 3.0668697789,39.6212714571,0 3.0672372416,39.6214016176,0 3.0676140919,39.6215224808,0 3.0679963067,39.6216304311,0 3.0683255479,39.6217063577,0 3.0686628357,39.6217683386,0 3.0690088406,39.6218132746,0 3.0693541750,39.6218416825,0 3.0696934745,39.6218545952,0 3.0700374678,39.6218520126,0 3.0703908488,39.6218329019,0 3.0707335010,39.6217993290,0 3.0710734711,39.6217487113,0 3.0714724496,39.6216691692,0 3.0718546644,39.6215746482,0 3.0722167626,39.6214728959,0 3.0726197645,39.6213489336,0 3.0730918333,39.6211981125,0 3.0736349807,39.6210235315,0 3.0741808102,39.6208499831,0 3.0747138992,39.6206774673,0 3.0752597288,39.6205028849,0 3.0758001939,39.6203298517,0 3.0763386473,39.6201557850,0 3.0768764303,39.6199837840,0 3.0774122015,39.6198117825,0 3.0779553488,39.6196382311,0 3.0784911201,39.6194672618,0 3.0790309146,39.6192931929,0 3.0795700386,39.6191211898,0 3.0801071510,39.6189476366,0 3.0806442634,39.6187766656,0 3.0811867401,39.6186020785,0 3.0817238525,39.6184305901,0 3.0822703526,39.6182549690,0 3.0828094766,39.6180824467,0 3.0833452478,39.6179109571,0 3.0839125351,39.6177286197,0 3.0844214842,39.6175669434,0 3.0849585966,39.6173933863,0 3.0854286537,39.6172425566,0 3.0858645127,39.6171015408,0 3.0864083305,39.6169274660,0 3.0869481251,39.6167544239,0 3.0873819724,39.6166154733,0 3.0878191725,39.6164791052,0 3.0882550314,39.6163515181,0 3.0886962548,39.6162399437,0 3.0891508892,39.6161464485,0 3.0896095470,39.6160715488,0 3.0900682047,39.6160131787,0 3.0905429557,39.6159734044,0 3.0910083190,39.6159511927,0 3.0914803878,39.6159470603,0 3.0919450805,39.6159604906,0 3.0924674407,39.6159842519,0 3.0930481389,39.6160116291,0 3.0936248139,39.6160384897,0 3.0942162410,39.6160679330,0 3.0947989509,39.6160937605,0 3.0953481332,39.6161211376,0 3.0959455952,39.6161505809,0 3.0965215996,39.6161779579,0 3.0971116856,39.6162058516,0 3.0976970777,39.6162332286,0 3.0982797876,39.6162611222,0 3.0988705442,39.6162890158,0 3.0994532541,39.6163153597,0 3.1000312701,39.6163442864,0 3.1006119684,39.6163716634,0 3.1011202470,39.6163974908,0 3.1016882047,39.6164253843,0 3.1022782907,39.6164517282,0 3.1028683767,39.6164791052,0 3.1034410283,39.6165059656,0 3.1040572659,39.6165359253,0 3.1045977310,39.6165622691,0 3.1051174090,39.6165870633,0 3.1056431219,39.6166108244,0 3.1061131790,39.6166335524,0 3.1065919534,39.6166619624,0 3.1070003197,39.6167048356,0 3.1073335842,39.6167616555,0 3.1076748953,39.6168401702,0 3.1080175475,39.6169414127,0 3.1083347187,39.6170566017,0 3.1086988286,39.6172094980,0 3.1089972243,39.6173391496,0 3.1093204305,39.6174796484,0 3.1096731410,39.6176335768,0 3.1100982711,39.6178184971,0 3.1103591159,39.6179357508,0 3.1107111559,39.6180922609,0 3.1110766068,39.6182518698,0 3.1114487633,39.6184109619,0 3.1117485002,39.6185431940,0 3.1120562837,39.6186790415,0 3.1122950003,39.6187797648,0 3.1126363114,39.6189156118,0 3.1130004213,39.6190421611,0 3.1133672133,39.6191511483,0 3.1137286410,39.6192420569,0 3.1141524300,39.6193262506,0 3.1145721957,39.6193882336,0 3.1149718449,39.6194285225,0 3.1153822229,39.6194497000,0 3.1157939420,39.6194517661,0 3.1162049905,39.6194342042,0 3.1166039691,39.6193990806,0 3.1169989243,39.6193458785,0 3.1173905269,39.6192740815,0 3.1177781061,39.6191842060,0 3.1181636736,39.6190752189,0 3.1185351596,39.6189486696,0 3.1189019517,39.6188030086,0 3.1192492977,39.6186444340,0 3.1195879266,39.6184662308,0 3.1199064389,39.6182761469,0 3.1202182457,39.6180674672,0 3.1205153004,39.6178443239,0 3.1207835213,39.6176149815,0 3.1210430250,39.6173660097,0 3.1212448612,39.6171469965,0 3.1214265809,39.6169295322,0 3.1216465220,39.6166247711,0 3.1218389705,39.6163205252,0 3.1220535472,39.6159434444,0 3.1222560540,39.6155756596,0 3.1224632547,39.6152021906,0 3.1226939246,39.6147863618,0 3.1229225830,39.6143720802,0 3.1231525824,39.6139588292,0 3.1233758763,39.6135440261,0 3.1236038641,39.6131281873,0 3.1238331929,39.6127149289,0 3.1240610587,39.6122975306,0 3.1242870348,39.6118873668,0 3.1245163637,39.6114730678,0 3.1247463631,39.6110582498,0 3.1249723392,39.6106460122,0 3.1252004343,39.6102314148,0 3.1254317749,39.6098150395,0 3.1256611037,39.6093996949,0 3.1258662927,39.6090246429,0 3.1260465554,39.6086958768,0 3.1262001119,39.6083998618,0 3.1263375751,39.6080976462,0 3.1264307819,39.6078419243,0 3.1265011899,39.6075856848,0 3.1265454000,39.6073154447,0 3.1265635049,39.6070426716,0 3.1265534467,39.6067755801,0 3.1265138841,39.6064728408,0 3.1264421350,39.6061551181,0 3.1263469166,39.6058425602,0 3.1262456632,39.6055527325,0 3.1261336809,39.6052406885,0 3.1260284042,39.6049405257,0 3.1259358680,39.6046310621,0 3.1258641189,39.6043195306,0 3.1258265680,39.6040555285,0 3.1258102502,39.6037833346,0 3.1258142736,39.6035110642,0 3.1258431073,39.6032387927,0 3.1258927282,39.6029654868,0 3.1259611245,39.6027009629,0 3.1260509785,39.6024385046,0 3.1261602785,39.6021812118,0 3.1262954860,39.6019257829,0 3.1264450192,39.6016829546,0 3.1266428321,39.6014044760,0 3.1268775254,39.6010970633,0 3.1271524518,39.6007436661,0 3.1274521887,39.6003561672,0 3.1277479022,39.5999748661,0 3.1280509918,39.5995821961,0 3.1283413410,39.5992070908,0 3.1286511361,39.5988133831,0 3.1289374619,39.5984382737,0 3.1292432337,39.5980450783,0 3.1295322418,39.5976725481,0 3.1298279553,39.5972876154,0 3.1301303744,39.5968954469,0 3.1304394990,39.5964981092,0 3.1306849211,39.5961813741,0 3.1309497892,39.5958393193,0 3.1311925291,39.5955277482,0 3.1314252108,39.5952270266,0 3.1316668200,39.5949161096,0 3.1319149244,39.5946086681,0 3.1321818041,39.5943079424,0 3.1324620950,39.5940196166,0 3.1327584791,39.5937411072,0 3.1330744345,39.5934709369,0 3.1334050168,39.5932136109,0 3.1337483395,39.5929707520,0 3.1341090967,39.5927392603,0 3.1344819237,39.5925206859,0 3.1348668207,39.5923155457,0 3.1352986564,39.5921057543,0 3.1358143110,39.5918670254,0 3.1363024731,39.5916375969,0 3.1368174572,39.5913978329,0 3.1373103131,39.5911709865,0 3.1378085334,39.5909394887,0 3.1383027304,39.5907038563,0 3.1387989391,39.5904728737,0 3.1393085588,39.5902346559,0 3.1398094613,39.5900041885,0 3.1403016467,39.5897747538,0 3.1408032198,39.5895380839,0 3.1412612070,39.5893241501,0 3.1417547334,39.5890921294,0 3.1422502716,39.5888601080,0 3.1427471508,39.5886291192,0 3.1432440300,39.5883939956,0 3.1437362154,39.5881630053,0 3.1442491878,39.5879263299,0 3.1447413732,39.5876953381,0 3.1452369113,39.5874622784,0 3.1457384844,39.5872281844,0 3.1462360342,39.5869956399,0 3.1467349250,39.5867620611,0 3.1472371687,39.5865279647,0 3.1477353890,39.5862933508,0 3.1482329388,39.5860633871,0 3.1487418879,39.5858282548,0 3.1492394377,39.5855951888,0 3.1497410108,39.5853610885,0 3.1502298434,39.5851306049,0 3.1507253815,39.5848959863,0 3.1512222607,39.5846634339,0 3.1517198105,39.5844288137,0 3.1522133369,39.5841988438,0 3.1527310033,39.5839600876,0 3.1532359291,39.5837249482,0 3.1537187268,39.5834960095,0 3.1542182882,39.5832608686,0 3.1547265668,39.5830272772,0 3.1552442331,39.5827905842,0 3.1561964173,39.5823414855,0 3.1572283972,39.5818680941,0 3.1577111949,39.5816396661,0 3.1582221557,39.5814009011,0 3.1587632914,39.5811440470,0 3.1592139025,39.5809311210,0 3.1595967878,39.5807486862,0 3.1600433756,39.5805357589,0 3.1603987683,39.5803693444,0 3.1608580966,39.5801590001,0 3.1613663752,39.5799269487,0 3.1618444790,39.5796948965,0 3.1623239238,39.5794623268,0 3.1628067215,39.5792375086,0 3.1633196939,39.5789946008,0 3.1638138909,39.5787625455,0 3.1643054057,39.5785284221,0 3.1648264248,39.5782927474,0 3.1653414090,39.5780560383,0 3.1658456643,39.5778239799,0 3.1663311441,39.5775908870,0 3.1668206472,39.5773577933,0 3.1673081387,39.5771277999,0 3.1678150762,39.5768916036,0 3.1683200021,39.5766574739,0 3.1688182224,39.5764254108,0 3.1693171133,39.5761912796,0 3.1698213686,39.5759586980,0 3.1703262944,39.5757266326,0 3.1708171387,39.5754904315,0 3.1712643970,39.5752795555,0 3.1716667284,39.5750934879,0 3.1720469315,39.5749053524,0 3.1724398751,39.5746975757,0 3.1728153844,39.5744810119,0 3.1731788237,39.5742525595,0 3.1734933127,39.5740354774,0 3.1739191134,39.5737186396,0 3.1742617656,39.5734715775,0 3.1746433098,39.5731981542,0 3.1750255246,39.5729242129,0 3.1754104216,39.5726456187,0 3.1757456977,39.5724016541,0 3.1760910322,39.5721494185,0 3.1764732469,39.5718728887,0 3.1769030709,39.5715627605,0 3.1773235072,39.5712567660,0 3.1777454226,39.5709483113,0 3.1781685410,39.5706402465,0 3.1785956828,39.5703301128,0 3.1790233534,39.5700241822,0 3.1794464718,39.5697155964,0 3.1798642259,39.5694116614,0 3.1802886855,39.5691041067,0 3.1807159573,39.5687952028,0 3.1811430991,39.5684845439,0 3.1815729231,39.5681733668,0 3.1819953710,39.5678642558,0 3.1824158073,39.5675608296,0 3.1828033865,39.5672801462,0 3.1831413448,39.5670351288,0 3.1834390700,39.5668206086,0 3.1837173492,39.5666303830,0 3.1839848996,39.5664639351,0 3.1842625082,39.5663109268,0 3.1845635862,39.5661610196,0 3.1848660052,39.5660328229,0 3.1851838470,39.5659154814,0 3.1855110765,39.5658131304,0 3.1858396471,39.5657268040,0 3.1861822993,39.5656554683,0 3.1865296454,39.5656011911,0 3.1868776620,39.5655650063,0 3.1872142792,39.5655443293,0 3.1875777185,39.5655391600,0 3.1879324407,39.5655515662,0 3.1882811279,39.5655815479,0 3.1886311561,39.5656265205,0 3.1889657617,39.5656864839,0 3.1892996967,39.5657650565,0 3.1896591127,39.5658643059,0 3.1900145054,39.5659769953,0 3.1904436589,39.5661227674,0 3.1909170688,39.5662855977,0 3.1914494873,39.5664696212,0 3.1919624597,39.5666464075,0 3.1925103009,39.5668350823,0 3.1930480838,39.5670206552,0 3.1935845256,39.5672062275,0 3.1941169441,39.5673886979,0 3.1946466804,39.5675706509,0 3.1951904983,39.5677562218,0 3.1957168818,39.5679392076,0 3.1962459475,39.5681201254,0 3.1967776955,39.5683046610,0 3.1972490937,39.5684659354,0 3.1976775766,39.5686117023,0 3.1981087417,39.5687605703,0 3.1984835804,39.5688877282,0 3.1989864946,39.5690614069,0 3.1994605750,39.5692247471,0 3.1999373377,39.5693896377,0 3.2011342735,39.5698041884,0 3.2014843017,39.5699277261,0 3.2020509184,39.5701892737,0 3.2023359031,39.5703417566,0 3.2027261645,39.5705376579,0 3.2030849100,39.5707211533,0</coordinates>
      </LineString>
    </Placemark>
    <Folder><name>Estaciones / puntos singulares</name>
      <Placemark>
        <name>Palma  PK 0+000.0</name>
        <description>Palma (PMI) · PK 0+000.0</description>
        <styleUrl>#st-Estacion</styleUrl>
        <Point><coordinates>2.6543697515,39.5761133614,0</coordinates></Point>
      </Placemark>
      <Placemark>
        <name>Jacint Verdaguer  PK 0+618.0</name>
        <description>Jacint Verdaguer (jcv) · PK 0+618.0</description>
        <styleUrl>#st-Estacion</styleUrl>
        <Point><coordinates>2.6604221562,39.5804268368,0</coordinates></Point>
      </Placemark>
      <Placemark>
        <name>Son Costa  PK 1+100.0</name>
        <description>Son Costa (cos) · PK 1+100.0</description>
        <styleUrl>#st-Estacion</styleUrl>
        <Point><coordinates>2.6661812139,39.5843675809,0</coordinates></Point>
      </Placemark>
      <Placemark>
        <name>Son Fuster  PK 2+300.0</name>
        <description>Son Fuster (FUS) · PK 2+300.0</description>
        <styleUrl>#st-Estacion</styleUrl>
        <Point><coordinates>2.6750996208,39.5905449187,0</coordinates></Point>
      </Placemark>
      <Placemark>
        <name>Son Cladera  PK 2+700.0</name>
        <description>Son Cladera (cla) · PK 2+700.0</description>
        <styleUrl>#st-Estacion</styleUrl>
        <Point><coordinates>2.6794578487,39.5935885833,0</coordinates></Point>
      </Placemark>
      <Placemark>
        <name>Son Rullán  PK 3+300.0</name>
        <description>Son Rullán (RLL) · PK 3+300.0</description>
        <styleUrl>#st-Estacion</styleUrl>
        <Point><coordinates>2.6828327381,39.5956507710,0</coordinates></Point>
      </Placemark>
      <Placemark>
        <name>V.Lluc  PK 3+595.0</name>
        <description>V.Lluc (llc) · PK 3+595.0</description>
        <styleUrl>#st-Estacion</styleUrl>
        <Point><coordinates>2.6864865774,39.5968035232,0</coordinates></Point>
      </Placemark>
      <Placemark>
        <name>Pont d'Inca  PK 4+020.0</name>
        <description>Pont d'Inca (pdi) · PK 4+020.0</description>
        <styleUrl>#st-Estacion</styleUrl>
        <Point><coordinates>2.6911381984,39.5979722735,0</coordinates></Point>
      </Placemark>
      <Placemark>
        <name>Pont d'Inca Nou  PK 5+200.0</name>
        <description>Pont d'Inca Nou (pdn) · PK 5+200.0</description>
        <styleUrl>#st-Estacion</styleUrl>
        <Point><coordinates>2.7017590755,39.6046438993,0</coordinates></Point>
      </Placemark>
      <Placemark>
        <name>Pol.Marratxí  PK 7+000.0</name>
        <description>Pol.Marratxí (pol) · PK 7+000.0</description>
        <styleUrl>#st-Estacion</styleUrl>
        <Point><coordinates>2.7168542385,39.6155740034,0</coordinates></Point>
      </Placemark>
      <Placemark>
        <name>Marratxí  PK 8+400.0</name>
        <description>Marratxí (MTX) · PK 8+400.0</description>
        <styleUrl>#st-Estacion</styleUrl>
        <Point><coordinates>2.7254554122,39.6251037537,0</coordinates></Point>
      </Placemark>
      <Placemark>
        <name>Es caülls  PK 9+550.0</name>
        <description>Es caülls (caü) · PK 9+550.0</description>
        <styleUrl>#st-Estacion</styleUrl>
        <Point><coordinates>2.7365483582,39.6320919196,0</coordinates></Point>
      </Placemark>
      <Placemark>
        <name>Sta.Maria  PK 14+450.0</name>
        <description>Sta.Maria (STM) · PK 14+450.0</description>
        <styleUrl>#st-Estacion</styleUrl>
        <Point><coordinates>2.7743082037,39.6532664168,0</coordinates></Point>
      </Placemark>
      <Placemark>
        <name>Consell-Alaró  PK 18+440.0</name>
        <description>Consell-Alaró (CON) · PK 18+440.0</description>
        <styleUrl>#st-Estacion</styleUrl>
        <Point><coordinates>2.8083722232,39.6774503301,0</coordinates></Point>
      </Placemark>
      <Placemark>
        <name>Binnisalem  PK 21+780.0</name>
        <description>Binnisalem (BIN) · PK 21+780.0</description>
        <styleUrl>#st-Estacion</styleUrl>
        <Point><coordinates>2.8411588757,39.6924359907,0</coordinates></Point>
      </Placemark>
      <Placemark>
        <name>Lloseta  PK 25+325.0</name>
        <description>Lloseta (lls) · PK 25+325.0</description>
        <styleUrl>#st-Estacion</styleUrl>
        <Point><coordinates>2.8690940826,39.7162030570,0</coordinates></Point>
      </Placemark>
      <Placemark>
        <name>Inca  PK 28+550.0</name>
        <description>Inca (INC) · PK 28+550.0</description>
        <styleUrl>#st-Estacion</styleUrl>
        <Point><coordinates>2.9058787617,39.7181125011,0</coordinates></Point>
      </Placemark>
      <Placemark>
        <name>Constància  PK 29+400.0</name>
        <description>Constància (ico) · PK 29+400.0</description>
        <styleUrl>#st-Estacion</styleUrl>
        <Point><coordinates>2.9150295570,39.7147454129,0</coordinates></Point>
      </Placemark>
      <Placemark>
        <name>Enllaç  PK 33+573.0</name>
        <description>Enllaç (ELÇ) · PK 33+573.0</description>
        <styleUrl>#st-Estacion</styleUrl>
        <Point><coordinates>2.9512634274,39.6907158182,0</coordinates></Point>
      </Placemark>
      <Placemark>
        <name>Sineu  PK 42+473.0</name>
        <description>Sineu (SIN) · PK 42+473.0</description>
        <styleUrl>#st-Estacion</styleUrl>
        <Point><coordinates>3.0144526094,39.6439717393,0</coordinates></Point>
      </Placemark>
      <Placemark>
        <name>Sant Joan  PK 45+240.0</name>
        <description>Sant Joan (sjn) · PK 45+240.0</description>
        <styleUrl>#st-Estacion</styleUrl>
        <Point><coordinates>3.0247101757,39.6207612205,0</coordinates></Point>
      </Placemark>
      <Placemark>
        <name>Paet SJ  PK 47+700.0</name>
        <description>Paet SJ (PSJ) · PK 47+700.0</description>
        <styleUrl>#st-Estacion</styleUrl>
        <Point><coordinates>3.0515201673,39.6226598238,0</coordinates></Point>
      </Placemark>
      <Placemark>
        <name>Petra  PK 53+173.0</name>
        <description>Petra (PET) · PK 53+173.0</description>
        <styleUrl>#st-Estacion</styleUrl>
        <Point><coordinates>3.1110766068,39.6182518698,0</coordinates></Point>
      </Placemark>
      <Placemark>
        <name>Manacor  PK 64+185.0</name>
        <description>Manacor (MAN) · PK 64+185.0</description>
        <styleUrl>#st-Estacion</styleUrl>
        <Point><coordinates>3.2030849100,39.5707211533,0</coordinates></Point>
      </Placemark>
    </Folder>
    <Folder><name>Señales T3</name>
      <Placemark>
        <name>R-2  v2  PK 0+620.0  Retroceso</name>
        <description>R-2 · PK 0+620.0 · vía 2 · Retroceso · 39.580443, 2.660446</description>
        <styleUrl>#st-Retroceso</styleUrl>
        <Point><coordinates>2.6604464148,39.5804430084,0</coordinates></Point>
      </Placemark>
      <Placemark>
        <name>E-2  v2  PK 1+200.0  Entrada</name>
        <description>E-2 · PK 1+200.0 · vía 2 · Entrada · 39.584890, 2.666916</description>
        <styleUrl>#st-Entrada</styleUrl>
        <Point><coordinates>2.6669157592,39.5848896539,0</coordinates></Point>
      </Placemark>
      <Placemark>
        <name>E-SF3  v1  PK 1+835.0  Entrada</name>
        <description>E-SF3 · PK 1+835.0 · vía 1 · Entrada · 39.588151, 2.671644</description>
        <styleUrl>#st-Entrada</styleUrl>
        <Point><coordinates>2.6716439507,39.5881506841,0</coordinates></Point>
      </Placemark>
      <Placemark>
        <name>A-PA22  v2  PK 1+850.0  Avanzada</name>
        <description>A-PA22 · PK 1+850.0 · vía 2 · Avanzada · 39.588228, 2.671755</description>
        <styleUrl>#st-Avanzada</styleUrl>
        <Point><coordinates>2.6717552310,39.5882280838,0</coordinates></Point>
      </Placemark>
      <Placemark>
        <name>S-SF6  v2  PK 2+200.0  Salida</name>
        <description>S-SF6 · PK 2+200.0 · vía 2 · Salida · 39.590031, 2.674355</description>
        <styleUrl>#st-Salida</styleUrl>
        <Point><coordinates>2.6743552064,39.5900310923,0</coordinates></Point>
      </Placemark>
      <Placemark>
        <name>S-SF9  v1  PK 2+300.0  Salida</name>
        <description>S-SF9 · PK 2+300.0 · vía 1 · Salida · 39.590545, 2.675100</description>
        <styleUrl>#st-Salida</styleUrl>
        <Point><coordinates>2.6750996208,39.5905449187,0</coordinates></Point>
      </Placemark>
      <Placemark>
        <name>E-SF10  v2  PK 2+490.0  Entrada</name>
        <description>E-SF10 · PK 2+490.0 · vía 2 · Entrada · 39.591995, 2.677165</description>
        <styleUrl>#st-Entrada</styleUrl>
        <Point><coordinates>2.6771650700,39.5919945692,0</coordinates></Point>
      </Placemark>
      <Placemark>
        <name>E-SR1  v1  PK 2+760.0  Entrada</name>
        <description>E-SR1 · PK 2+760.0 · vía 1 · Entrada · 39.593811, 2.679778</description>
        <styleUrl>#st-Entrada</styleUrl>
        <Point><coordinates>2.6797776659,39.5938111933,0</coordinates></Point>
      </Placemark>
      <Placemark>
        <name>A-SF12  v2  PK 3+000.0  Avanzada</name>
        <description>A-SF12 · PK 3+000.0 · vía 2 · Avanzada · 39.594648, 2.681116</description>
        <styleUrl>#st-Avanzada</styleUrl>
        <Point><coordinates>2.6811156347,39.5946484682,0</coordinates></Point>
      </Placemark>
      <Placemark>
        <name>R-SR4  v2  PK 3+710.0  Retroceso</name>
        <description>R-SR4 · PK 3+710.0 · vía 2 · Retroceso · 39.597118, 2.687746</description>
        <styleUrl>#st-Retroceso</styleUrl>
        <Point><coordinates>2.6877460572,39.5971178342,0</coordinates></Point>
      </Placemark>
      <Placemark>
        <name>E-SR6  v2  PK 3+980.0  Entrada</name>
        <description>E-SR6 · PK 3+980.0 · vía 2 · Entrada · 39.597864, 2.690700</description>
        <styleUrl>#st-Entrada</styleUrl>
        <Point><coordinates>2.6906996981,39.5978639174,0</coordinates></Point>
      </Placemark>
      <Placemark>
        <name>S-SR11  v1  PK 4+100.0  Salida</name>
        <description>S-SR11 · PK 4+100.0 · vía 1 · Salida · 39.598219, 2.692018</description>
        <styleUrl>#st-Salida</styleUrl>
        <Point><coordinates>2.6920183731,39.5982189101,0</coordinates></Point>
      </Placemark>
      <Placemark>
        <name>A-SR10  v2  PK 4+720.0  Avanzada</name>
        <description>A-SR10 · PK 4+720.0 · vía 2 · Avanzada · 39.601678, 2.697662</description>
        <styleUrl>#st-Avanzada</styleUrl>
        <Point><coordinates>2.6976620126,39.6016782955,0</coordinates></Point>
      </Placemark>
      <Placemark>
        <name>60/1  v1  PK 6+000.0  Hito / otra</name>
        <description>60/1 · PK 6+000.0 · vía 1 · Hito / otra · 39.609502, 2.708467</description>
        <styleUrl>#st-Hitootra</styleUrl>
        <Point><coordinates>2.7084674982,39.6095019575,0</coordinates></Point>
      </Placemark>
      <Placemark>
        <name>60/4  v2  PK 6+050.0  Hito / otra</name>
        <description>60/4 · PK 6+050.0 · vía 2 · Hito / otra · 39.609804, 2.708889</description>
        <styleUrl>#st-Hitootra</styleUrl>
        <Point><coordinates>2.7088888496,39.6098038924,0</coordinates></Point>
      </Placemark>
      <Placemark>
        <name>A-MA1  v1  PK 7+280.0  Avanzada</name>
        <description>A-MA1 · PK 7+280.0 · vía 1 · Avanzada · 39.617199, 2.719103</description>
        <styleUrl>#st-Avanzada</styleUrl>
        <Point><coordinates>2.7191032190,39.6171985090,0</coordinates></Point>
      </Placemark>
      <Placemark>
        <name>E-MA3  v1  PK 8+000.0  Entrada</name>
        <description>E-MA3 · PK 8+000.0 · vía 1 · Entrada · 39.621901, 2.724001</description>
        <styleUrl>#st-Entrada</styleUrl>
        <Point><coordinates>2.7240007912,39.6219013124,0</coordinates></Point>
      </Placemark>
      <Placemark>
        <name>S-MA10  v2  PK 8+380.0  Salida</name>
        <description>S-MA10 · PK 8+380.0 · vía 2 · Salida · 39.624943, 2.725383</description>
        <styleUrl>#st-Salida</styleUrl>
        <Point><coordinates>2.7253832764,39.6249434699,0</coordinates></Point>
      </Placemark>
      <Placemark>
        <name>S-MA9  v1  PK 8+500.0  Salida</name>
        <description>S-MA9 · PK 8+500.0 · vía 1 · Salida · 39.626056, 2.725889</description>
        <styleUrl>#st-Salida</styleUrl>
        <Point><coordinates>2.7258891851,39.6260558686,0</coordinates></Point>
      </Placemark>
      <Placemark>
        <name>E-MA14  v2  PK 8+580.0  Entrada</name>
        <description>E-MA14 · PK 8+580.0 · vía 2 · Entrada · 39.626797, 2.726299</description>
        <styleUrl>#st-Entrada</styleUrl>
        <Point><coordinates>2.7262993827,39.6267972494,0</coordinates></Point>
      </Placemark>
      <Placemark>
        <name>A-MA16  v2  PK 9+300.0  Avanzada</name>
        <description>A-MA16 · PK 9+300.0 · vía 2 · Avanzada · 39.630208, 2.734392</description>
        <styleUrl>#st-Avanzada</styleUrl>
        <Point><coordinates>2.7343921024,39.6302080382,0</coordinates></Point>
      </Placemark>
      <Placemark>
        <name>108/4  v2  PK 10+900.0  Hito / otra</name>
        <description>108/4 · PK 10+900.0 · vía 2 · Hito / otra · 39.643093, 2.742679</description>
        <styleUrl>#st-Hitootra</styleUrl>
        <Point><coordinates>2.7426789634,39.6430926405,0</coordinates></Point>
      </Placemark>
      <Placemark>
        <name>108/1  v1  PK 10+950.0  Hito / otra</name>
        <description>108/1 · PK 10+950.0 · vía 1 · Hito / otra · 39.643502, 2.742900</description>
        <styleUrl>#st-Hitootra</styleUrl>
        <Point><coordinates>2.7429003756,39.6435021597,0</coordinates></Point>
      </Placemark>
      <Placemark>
        <name>A-SM1  v1  PK 13+400.0  Avanzada</name>
        <description>A-SM1 · PK 13+400.0 · vía 1 · Avanzada · 39.652918, 2.762867</description>
        <styleUrl>#st-Avanzada</styleUrl>
        <Point><coordinates>2.7628667039,39.6529180616,0</coordinates></Point>
      </Placemark>
      <Placemark>
        <name>E-SM3  v1  PK 14+150.0  Entrada</name>
        <description>E-SM3 · PK 14+150.0 · vía 1 · Entrada · 39.652161, 2.771164</description>
        <styleUrl>#st-Entrada</styleUrl>
        <Point><coordinates>2.7711638042,39.6521611309,0</coordinates></Point>
      </Placemark>
      <Placemark>
        <name>S-SM8  v2  PK 14+400.0  Salida</name>
        <description>S-SM8 · PK 14+400.0 · vía 2 · Salida · 39.653077, 2.773787</description>
        <styleUrl>#st-Salida</styleUrl>
        <Point><coordinates>2.7737874109,39.6530767039,0</coordinates></Point>
      </Placemark>
      <Placemark>
        <name>S-SM9  v1  PK 14+500.0  Salida</name>
        <description>S-SM9 · PK 14+500.0 · vía 1 · Salida · 39.653456, 2.774840</description>
        <styleUrl>#st-Salida</styleUrl>
        <Point><coordinates>2.7748403965,39.6534555525,0</coordinates></Point>
      </Placemark>
      <Placemark>
        <name>R-SM14  v2  PK 14+800.0  Retroceso</name>
        <description>R-SM14 · PK 14+800.0 · vía 2 · Retroceso · 39.654595, 2.778030</description>
        <styleUrl>#st-Retroceso</styleUrl>
        <Point><coordinates>2.7780304831,39.6545954328,0</coordinates></Point>
      </Placemark>
      <Placemark>
        <name>E-SM16  v2  PK 15+040.0  Entrada</name>
        <description>E-SM16 · PK 15+040.0 · vía 2 · Entrada · 39.655516, 2.780577</description>
        <styleUrl>#st-Entrada</styleUrl>
        <Point><coordinates>2.7805774696,39.6555155376,0</coordinates></Point>
      </Placemark>
      <Placemark>
        <name>A-SM18  v2  PK 15+750.0  Avanzada</name>
        <description>A-SM18 · PK 15+750.0 · vía 2 · Avanzada · 39.659842, 2.786656</description>
        <styleUrl>#st-Avanzada</styleUrl>
        <Point><coordinates>2.7866564456,39.6598418707,0</coordinates></Point>
      </Placemark>
      <Placemark>
        <name>A-CO1  v1  PK 17+250.0  Avanzada</name>
        <description>A-CO1 · PK 17+250.0 · vía 1 · Avanzada · 39.669662, 2.798763</description>
        <styleUrl>#st-Avanzada</styleUrl>
        <Point><coordinates>2.7987633135,39.6696619662,0</coordinates></Point>
      </Placemark>
      <Placemark>
        <name>E-CO3  v1  PK 18+000.0  Entrada</name>
        <description>E-CO3 · PK 18+000.0 · vía 1 · Entrada · 39.674569, 2.804822</description>
        <styleUrl>#st-Entrada</styleUrl>
        <Point><coordinates>2.8048216086,39.6745688323,0</coordinates></Point>
      </Placemark>
      <Placemark>
        <name>S-CO6  v2  PK 18+370.0  Salida</name>
        <description>S-CO6 · PK 18+370.0 · vía 2 · Salida · 39.676993, 2.807806</description>
        <styleUrl>#st-Salida</styleUrl>
        <Point><coordinates>2.8078059253,39.6769929328,0</coordinates></Point>
      </Placemark>
      <Placemark>
        <name>S-CO7  v1  PK 18+500.0  Salida</name>
        <description>S-CO7 · PK 18+500.0 · vía 1 · Salida · 39.677840, 2.808855</description>
        <styleUrl>#st-Salida</styleUrl>
        <Point><coordinates>2.8088546153,39.6778396733,0</coordinates></Point>
      </Placemark>
      <Placemark>
        <name>E-CO10  v2  PK 18+650.0  Entrada</name>
        <description>E-CO10 · PK 18+650.0 · vía 2 · Entrada · 39.678818, 2.810054</description>
        <styleUrl>#st-Entrada</styleUrl>
        <Point><coordinates>2.8100535026,39.6788181646,0</coordinates></Point>
      </Placemark>
      <Placemark>
        <name>A-CO12  v2  PK 19+450.0  Avanzada</name>
        <description>A-CO12 · PK 19+450.0 · vía 2 · Avanzada · 39.683449, 2.817066</description>
        <styleUrl>#st-Avanzada</styleUrl>
        <Point><coordinates>2.8170659121,39.6834493040,0</coordinates></Point>
      </Placemark>
      <Placemark>
        <name>A-BI1  v1  PK 20+750.0  Avanzada</name>
        <description>A-BI1 · PK 20+750.0 · vía 1 · Avanzada · 39.687560, 2.831239</description>
        <styleUrl>#st-Avanzada</styleUrl>
        <Point><coordinates>2.8312393599,39.6875597242,0</coordinates></Point>
      </Placemark>
      <Placemark>
        <name>E-BI3  v1  PK 21+400.0  Entrada</name>
        <description>E-BI3 · PK 21+400.0 · vía 1 · Entrada · 39.689994, 2.838081</description>
        <styleUrl>#st-Entrada</styleUrl>
        <Point><coordinates>2.8380807970,39.6899938540,0</coordinates></Point>
      </Placemark>
      <Placemark>
        <name>S-BI9  v1  PK 21+890.0  Salida</name>
        <description>S-BI9 · PK 21+890.0 · vía 1 · Salida · 39.693179, 2.842019</description>
        <styleUrl>#st-Salida</styleUrl>
        <Point><coordinates>2.8420190255,39.6931785016,0</coordinates></Point>
      </Placemark>
      <Placemark>
        <name>E-BI14  v2  PK 22+050.0  Entrada</name>
        <description>E-BI14 · PK 22+050.0 · vía 2 · Entrada · 39.694259, 2.843270</description>
        <styleUrl>#st-Entrada</styleUrl>
        <Point><coordinates>2.8432700376,39.6942586108,0</coordinates></Point>
      </Placemark>
      <Placemark>
        <name>A-BI16  v2  PK 22+750.0  Avanzada</name>
        <description>A-BI16 · PK 22+750.0 · vía 2 · Avanzada · 39.698982, 2.848746</description>
        <styleUrl>#st-Avanzada</styleUrl>
        <Point><coordinates>2.8487463275,39.6989820943,0</coordinates></Point>
      </Placemark>
      <Placemark>
        <name>S-BI8  v2  PK 22+750.0  Salida</name>
        <description>S-BI8 · PK 22+750.0 · vía 2 · Salida · 39.698982, 2.848746</description>
        <styleUrl>#st-Salida</styleUrl>
        <Point><coordinates>2.8487463275,39.6989820943,0</coordinates></Point>
      </Placemark>
      <Placemark>
        <name>253/4  v2  PK 25+200.0  Hito / otra</name>
        <description>253/4 · PK 25+200.0 · vía 2 · Hito / otra · 39.715474, 2.867972</description>
        <styleUrl>#st-Hitootra</styleUrl>
        <Point><coordinates>2.8679724421,39.7154740137,0</coordinates></Point>
      </Placemark>
      <Placemark>
        <name>254/1  v1  PK 25+410.0  Hito / otra</name>
        <description>254/1 · PK 25+410.0 · vía 1 · Hito / otra · 39.716634, 2.869923</description>
        <styleUrl>#st-Hitootra</styleUrl>
        <Point><coordinates>2.8699226535,39.7166337611,0</coordinates></Point>
      </Placemark>
      <Placemark>
        <name>A-IN1  v1  PK 27+150.0  Avanzada</name>
        <description>A-IN1 · PK 27+150.0 · vía 1 · Avanzada · 39.719591, 2.889782</description>
        <styleUrl>#st-Avanzada</styleUrl>
        <Point><coordinates>2.8897815350,39.7195911630,0</coordinates></Point>
      </Placemark>
      <Placemark>
        <name>E-IN3  v1  PK 27+850.0  Entrada</name>
        <description>E-IN3 · PK 27+850.0 · vía 1 · Entrada · 39.719582, 2.898019</description>
        <styleUrl>#st-Entrada</styleUrl>
        <Point><coordinates>2.8980191732,39.7195821966,0</coordinates></Point>
      </Placemark>
      <Placemark>
        <name>S-IN8  v2  PK 28+470.0  Salida</name>
        <description>S-IN8 · PK 28+470.0 · vía 2 · Salida · 39.718412, 2.905022</description>
        <styleUrl>#st-Salida</styleUrl>
        <Point><coordinates>2.9050221943,39.7184123726,0</coordinates></Point>
      </Placemark>
      <Placemark>
        <name>S-IN11  v1  PK 28+600.0  Salida</name>
        <description>S-IN11 · PK 28+600.0 · vía 1 · Salida · 39.717918, 2.906419</description>
        <styleUrl>#st-Salida</styleUrl>
        <Point><coordinates>2.9064194359,39.7179182993,0</coordinates></Point>
      </Placemark>
      <Placemark>
        <name>R-IN12  v2  PK 28+800.0  Retroceso</name>
        <description>R-IN12 · PK 28+800.0 · vía 2 · Retroceso · 39.717127, 2.908573</description>
        <styleUrl>#st-Retroceso</styleUrl>
        <Point><coordinates>2.9085732811,39.7171271057,0</coordinates></Point>
      </Placemark>
      <Placemark>
        <name>E-IN14  v2  PK 29+000.0  Entrada</name>
        <description>E-IN14 · PK 29+000.0 · vía 2 · Entrada · 39.716336, 2.910727</description>
        <styleUrl>#st-Entrada</styleUrl>
        <Point><coordinates>2.9107273678,39.7163363974,0</coordinates></Point>
      </Placemark>
      <Placemark>
        <name>A-IN16  v2  PK 29+650.0  Avanzada</name>
        <description>A-IN16 · PK 29+650.0 · vía 2 · Avanzada · 39.713778, 2.917642</description>
        <styleUrl>#st-Avanzada</styleUrl>
        <Point><coordinates>2.9176422821,39.7137784814,0</coordinates></Point>
      </Placemark>
      <Placemark>
        <name>A-ELL1  v1  PK 32+300.0  Avanzada</name>
        <description>A-ELL1 · PK 32+300.0 · vía 1 · Avanzada · 39.697127, 2.939185</description>
        <styleUrl>#st-Avanzada</styleUrl>
        <Point><coordinates>2.9391849119,39.6971267955,0</coordinates></Point>
      </Placemark>
      <Placemark>
        <name>E-ELL3  v1  PK 33+000.0  Entrada</name>
        <description>E-ELL3 · PK 33+000.0 · vía 1 · Entrada · 39.693210, 2.945465</description>
        <styleUrl>#st-Entrada</styleUrl>
        <Point><coordinates>2.9454651695,39.6932096390,0</coordinates></Point>
      </Placemark>
      <Placemark>
        <name>R-ELL5  v1  PK 33+170.0  Retroceso</name>
        <description>R-ELL5 · PK 33+170.0 · vía 1 · Retroceso · 39.692462, 2.947180</description>
        <styleUrl>#st-Retroceso</styleUrl>
        <Point><coordinates>2.9471802766,39.6924624003,0</coordinates></Point>
      </Placemark>
      <Placemark>
        <name>S-ELL8  v2  PK 33+350.0  Salida</name>
        <description>S-ELL8 · PK 33+350.0 · vía 2 · Salida · 39.691664, 2.948991</description>
        <styleUrl>#st-Salida</styleUrl>
        <Point><coordinates>2.9489907387,39.6916639603,0</coordinates></Point>
      </Placemark>
      <Placemark>
        <name>S-ELL11  v1  PK 33+490.0  Salida</name>
        <description>S-ELL11 · PK 33+490.0 · vía 1 · Salida · 39.691066, 2.950415</description>
        <styleUrl>#st-Salida</styleUrl>
        <Point><coordinates>2.9504154472,39.6910658309,0</coordinates></Point>
      </Placemark>
      <Placemark>
        <name>R-ELL17  v2  PK 33+730.0  Retroceso</name>
        <description>R-ELL17 · PK 33+730.0 · vía 2 · Retroceso · 39.690001, 2.952824</description>
        <styleUrl>#st-Retroceso</styleUrl>
        <Point><coordinates>2.9528238755,39.6900009087,0</coordinates></Point>
      </Placemark>
      <Placemark>
        <name>E-ELL19  v2  PK 33+900.0  Entrada</name>
        <description>E-ELL19 · PK 33+900.0 · vía 2 · Entrada · 39.689278, 2.954559</description>
        <styleUrl>#st-Entrada</styleUrl>
        <Point><coordinates>2.9545590921,39.6892783596,0</coordinates></Point>
      </Placemark>
      <Placemark>
        <name>A-ELL21  v2  PK 34+600.0  Avanzada</name>
        <description>A-ELL21 · PK 34+600.0 · vía 2 · Avanzada · 39.686214, 2.961641</description>
        <styleUrl>#st-Avanzada</styleUrl>
        <Point><coordinates>2.9616405313,39.6862136684,0</coordinates></Point>
      </Placemark>
      <Placemark>
        <name>A-SN1  v1  PK 41+900.0  Avanzada</name>
        <description>A-SN1 · PK 41+900.0 · vía 1 · Avanzada · 39.647664, 3.010237</description>
        <styleUrl>#st-Avanzada</styleUrl>
        <Point><coordinates>3.0102366803,39.6476638430,0</coordinates></Point>
      </Placemark>
      <Placemark>
        <name>E-SN2  v1  PK 42+150.0  Entrada</name>
        <description>E-SN2 · PK 42+150.0 · vía 1 · Entrada · 39.646438, 3.012659</description>
        <styleUrl>#st-Entrada</styleUrl>
        <Point><coordinates>3.0126591456,39.6464382839,0</coordinates></Point>
      </Placemark>
      <Placemark>
        <name>R-SN3  v1  PK 42+300.0  Retroceso</name>
        <description>R-SN3 · PK 42+300.0 · vía 1 · Retroceso · 39.645418, 3.013771</description>
        <styleUrl>#st-Retroceso</styleUrl>
        <Point><coordinates>3.0137708688,39.6454180557,0</coordinates></Point>
      </Placemark>
      <Placemark>
        <name>S-SN5  v2  PK 42+300.0  Salida</name>
        <description>S-SN5 · PK 42+300.0 · vía 2 · Salida · 39.645418, 3.013771</description>
        <styleUrl>#st-Salida</styleUrl>
        <Point><coordinates>3.0137708688,39.6454180557,0</coordinates></Point>
      </Placemark>
      <Placemark>
        <name>R-SN8  v2  PK 42+600.0  Retroceso</name>
        <description>R-SN8 · PK 42+600.0 · vía 2 · Retroceso · 39.642849, 3.014826</description>
        <styleUrl>#st-Retroceso</styleUrl>
        <Point><coordinates>3.0148263048,39.6428490406,0</coordinates></Point>
      </Placemark>
      <Placemark>
        <name>S-SN6  v1  PK 42+600.0  Salida</name>
        <description>S-SN6 · PK 42+600.0 · vía 1 · Salida · 39.642849, 3.014826</description>
        <styleUrl>#st-Salida</styleUrl>
        <Point><coordinates>3.0148263048,39.6428490406,0</coordinates></Point>
      </Placemark>
      <Placemark>
        <name>E-SN9  v2  PK 42+700.0  Entrada</name>
        <description>E-SN9 · PK 42+700.0 · vía 2 · Entrada · 39.641968, 3.015136</description>
        <styleUrl>#st-Entrada</styleUrl>
        <Point><coordinates>3.0151361731,39.6419680275,0</coordinates></Point>
      </Placemark>
      <Placemark>
        <name>A-SN10  v2  PK 43+400.0  Avanzada</name>
        <description>A-SN10 · PK 43+400.0 · vía 2 · Avanzada · 39.636881, 3.019693</description>
        <styleUrl>#st-Avanzada</styleUrl>
        <Point><coordinates>3.0196931201,39.6368809416,0</coordinates></Point>
      </Placemark>
      <Placemark>
        <name>A-PS1  v1  PK 46+800.0  Avanzada</name>
        <description>A-PS1 · PK 46+800.0 · vía 1 · Avanzada · 39.619838, 3.041372</description>
        <styleUrl>#st-Avanzada</styleUrl>
        <Point><coordinates>3.0413719895,39.6198381756,0</coordinates></Point>
      </Placemark>
      <Placemark>
        <name>E-PS2  v1  PK 47+400.0  Entrada</name>
        <description>E-PS2 · PK 47+400.0 · vía 1 · Entrada · 39.621716, 3.048139</description>
        <styleUrl>#st-Entrada</styleUrl>
        <Point><coordinates>3.0481391370,39.6217156128,0</coordinates></Point>
      </Placemark>
      <Placemark>
        <name>R-PS3  v1  PK 47+620.0  Retroceso</name>
        <description>R-PS3 · PK 47+620.0 · vía 1 · Retroceso · 39.622409, 3.050618</description>
        <styleUrl>#st-Retroceso</styleUrl>
        <Point><coordinates>3.0506179638,39.6224093278,0</coordinates></Point>
      </Placemark>
      <Placemark>
        <name>S-PS4  v2  PK 47+700.0  Salida</name>
        <description>S-PS4 · PK 47+700.0 · vía 2 · Salida · 39.622660, 3.051520</description>
        <styleUrl>#st-Salida</styleUrl>
        <Point><coordinates>3.0515201673,39.6226598238,0</coordinates></Point>
      </Placemark>
      <Placemark>
        <name>R-PS8  v2  PK 47+900.0  Retroceso</name>
        <description>R-PS8 · PK 47+900.0 · vía 2 · Retroceso · 39.623269, 3.053699</description>
        <styleUrl>#st-Retroceso</styleUrl>
        <Point><coordinates>3.0536985905,39.6232690133,0</coordinates></Point>
      </Placemark>
      <Placemark>
        <name>S-PS6  v1  PK 47+900.0  Salida</name>
        <description>S-PS6 · PK 47+900.0 · vía 1 · Salida · 39.623269, 3.053699</description>
        <styleUrl>#st-Salida</styleUrl>
        <Point><coordinates>3.0536985905,39.6232690133,0</coordinates></Point>
      </Placemark>
      <Placemark>
        <name>E-PS9  v2  PK 48+100.0  Entrada</name>
        <description>E-PS9 · PK 48+100.0 · vía 2 · Entrada · 39.623785, 3.055913</description>
        <styleUrl>#st-Entrada</styleUrl>
        <Point><coordinates>3.0559128575,39.6237849385,0</coordinates></Point>
      </Placemark>
      <Placemark>
        <name>A-PS10  v2  PK 48+500.0  Avanzada</name>
        <description>A-PS10 · PK 48+500.0 · vía 2 · Avanzada · 39.622573, 3.060066</description>
        <styleUrl>#st-Avanzada</styleUrl>
        <Point><coordinates>3.0600659160,39.6225728000,0</coordinates></Point>
      </Placemark>
      <Placemark>
        <name>A-PE1  v1  PK 52+200.0  Avanzada</name>
        <description>A-PE1 · PK 52+200.0 · vía 1 · Avanzada · 39.616357, 3.100308</description>
        <styleUrl>#st-Avanzada</styleUrl>
        <Point><coordinates>3.1003084090,39.6163573521,0</coordinates></Point>
      </Placemark>
      <Placemark>
        <name>E-PE2  v1  PK 52+900.0  Entrada</name>
        <description>E-PE2 · PK 52+900.0 · vía 1 · Entrada · 39.617052, 3.108323</description>
        <styleUrl>#st-Entrada</styleUrl>
        <Point><coordinates>3.1083232821,39.6170524482,0</coordinates></Point>
      </Placemark>
      <Placemark>
        <name>S-PE5  v2  PK 53+100.0  Salida</name>
        <description>S-PE5 · PK 53+100.0 · vía 2 · Salida · 39.617928, 3.110342</description>
        <styleUrl>#st-Salida</styleUrl>
        <Point><coordinates>3.1103424609,39.6179282641,0</coordinates></Point>
      </Placemark>
      <Placemark>
        <name>S-PE6  v1  PK 53+250.0  Salida</name>
        <description>S-PE6 · PK 53+250.0 · vía 1 · Salida · 39.618592, 3.111858</description>
        <styleUrl>#st-Salida</styleUrl>
        <Point><coordinates>3.1118583496,39.6185916786,0</coordinates></Point>
      </Placemark>
      <Placemark>
        <name>R-PE8  v2  PK 53+300.0  Retroceso</name>
        <description>R-PE8 · PK 53+300.0 · vía 2 · Retroceso · 39.618809, 3.112368</description>
        <styleUrl>#st-Retroceso</styleUrl>
        <Point><coordinates>3.1123683648,39.6188089650,0</coordinates></Point>
      </Placemark>
      <Placemark>
        <name>E-PE9  v1  PK 53+500.0  Entrada</name>
        <description>E-PE9 · PK 53+500.0 · vía 1 · Entrada · 39.619387, 3.114564</description>
        <styleUrl>#st-Entrada</styleUrl>
        <Point><coordinates>3.1145644274,39.6193870865,0</coordinates></Point>
      </Placemark>
      <Placemark>
        <name>A-PE10  v2  PK 54+150.0  Avanzada</name>
        <description>A-PE10 · PK 54+150.0 · vía 2 · Avanzada · 39.617220, 3.121178</description>
        <styleUrl>#st-Avanzada</styleUrl>
        <Point><coordinates>3.1211775971,39.6172199851,0</coordinates></Point>
      </Placemark>
      <Placemark>
        <name>A-MN1  v1  PK 63+150.0  Avanzada</name>
        <description>A-MN1 · PK 63+150.0 · vía 1 · Avanzada · 39.566733, 3.192215</description>
        <styleUrl>#st-Avanzada</styleUrl>
        <Point><coordinates>3.1922150292,39.5667333916,0</coordinates></Point>
      </Placemark>
      <Placemark>
        <name>E-MN2  v1  PK 63+850.0  Entrada</name>
        <description>E-MN2 · PK 63+850.0 · vía 1 · Entrada · 39.569294, 3.199662</description>
        <styleUrl>#st-Entrada</styleUrl>
        <Point><coordinates>3.1996619727,39.5692944014,0</coordinates></Point>
      </Placemark>
      <Placemark>
        <name>S-MN4  v2  PK 63+950.0  Salida</name>
        <description>S-MN4 · PK 63+950.0 · vía 2 · Salida · 39.569662, 3.200725</description>
        <styleUrl>#st-Salida</styleUrl>
        <Point><coordinates>3.2007246532,39.5696623191,0</coordinates></Point>
      </Placemark>
    </Folder>
  </Document>
</kml>