<?xml version="1.0" encoding="UTF-8"?>
<gpx version="1.1" creator="topo_to_markers"
     xmlns="http://www.topografix.com/GPX/1/1">
  <trk><name>Eje T3 Palma-Manacor</name><trkseg>
    <trkpt lat="39.57611336" lon="2.65436975"></trkpt>
    <trkpt lat="39.57617021" lon="2.65447838"></trkpt>
    <trkpt lat="39.57620536" lon="2.65454275"></trkpt>
    <trkpt lat="39.57623844" lon="2.65460042"></trkpt>
    <trkpt lat="39.57626738" lon="2.65464870"></trkpt>
    <trkpt lat="39.57629943" lon="2.65468625"></trkpt>
    <trkpt lat="39.57711707" lon="2.65587581"></trkpt>
    <trkpt lat="39.57749540" lon="2.65637336"></trkpt>
    <trkpt lat="39.57775485" lon="2.65673948"></trkpt>
    <trkpt lat="39.57798019" lon="2.65705732"></trkpt>
    <trkpt lat="39.57811457" lon="2.65724910"></trkpt>
    <trkpt lat="39.57827995" lon="2.65749989"></trkpt>
    <trkpt lat="39.57860452" lon="2.65796391"></trkpt>
    <trkpt lat="39.57898594" lon="2.65840782"></trkpt>
    <trkpt lat="39.57921334" lon="2.65870286"></trkpt>
    <trkpt lat="39.57936322" lon="2.65890403"></trkpt>
    <trkpt lat="39.57983663" lon="2.65953569"></trkpt>
    <trkpt lat="39.57999891" lon="2.65976367"></trkpt>
    <trkpt lat="39.58030900" lon="2.66023977"></trkpt>
    <trkpt lat="39.58042684" lon="2.66042216"></trkpt>
    <trkpt lat="39.58073796" lon="2.66088886"></trkpt>
    <trkpt lat="39.58098706" lon="2.66124828"></trkpt>
    <trkpt lat="39.58119585" lon="2.66154332"></trkpt>
    <trkpt lat="39.58139948" lon="2.66182361"></trkpt>
    <trkpt lat="39.58158243" lon="2.66209317"></trkpt>
    <trkpt lat="39.58176848" lon="2.66236005"></trkpt>
    <trkpt lat="39.58199174" lon="2.66268326"></trkpt>
    <trkpt lat="39.58217882" lon="2.66294477"></trkpt>
    <trkpt lat="39.58257365" lon="2.66352681"></trkpt>
    <trkpt lat="39.58275557" lon="2.66379638"></trkpt>
    <trkpt lat="39.58300983" lon="2.66413836"></trkpt>
    <trkpt lat="39.58321655" lon="2.66435562"></trkpt>
    <trkpt lat="39.58344497" lon="2.66460774"></trkpt>
    <trkpt lat="39.58371784" lon="2.66508920"></trkpt>
    <trkpt lat="39.58396797" lon="2.66563503"></trkpt>
    <trkpt lat="39.58405169" lon="2.66570208"></trkpt>
    <trkpt lat="39.58436758" lon="2.66618121"></trkpt>
    <trkpt lat="39.58480515" lon="2.66679045"></trkpt>
    <trkpt lat="39.58518372" lon="2.66735183"></trkpt>
    <trkpt lat="39.58560162" lon="2.66798340"></trkpt>
    <trkpt lat="39.58594823" lon="2.66848418"></trkpt>
    <trkpt lat="39.58630712" lon="2.66899772"></trkpt>
    <trkpt lat="39.58668077" lon="2.66954316"></trkpt>
    <trkpt lat="39.58712078" lon="2.67014920"></trkpt>
    <trkpt lat="39.58742559" lon="2.67059576"></trkpt>
    <trkpt lat="39.58804504" lon="2.67149207"></trkpt>
    <trkpt lat="39.58856862" lon="2.67224484"></trkpt>
    <trkpt lat="39.58898404" lon="2.67284450"></trkpt>
    <trkpt lat="39.58943387" lon="2.67348244"></trkpt>
    <trkpt lat="39.58994761" lon="2.67423521"></trkpt>
    <trkpt lat="39.59026716" lon="2.67469453"></trkpt>
    <trkpt lat="39.59054492" lon="2.67509962"></trkpt>
    <trkpt lat="39.59070007" lon="2.67530914"></trkpt>
    <trkpt lat="39.59081014" lon="2.67546404"></trkpt>
    <trkpt lat="39.59113362" lon="2.67592672"></trkpt>
    <trkpt lat="39.59149378" lon="2.67644707"></trkpt>
    <trkpt lat="39.59185343" lon="2.67696138"></trkpt>
    <trkpt lat="39.59221307" lon="2.67748039"></trkpt>
    <trkpt lat="39.59257013" lon="2.67799604"></trkpt>
    <trkpt lat="39.59292822" lon="2.67851371"></trkpt>
    <trkpt lat="39.59328630" lon="2.67902400"></trkpt>
    <trkpt lat="39.59358858" lon="2.67945785"></trkpt>
    <trkpt lat="39.59385883" lon="2.67984610"></trkpt>
    <trkpt lat="39.59405983" lon="2.68015522"></trkpt>
    <trkpt lat="39.59426186" lon="2.68047642"></trkpt>
    <trkpt lat="39.59445305" lon="2.68079292"></trkpt>
    <trkpt lat="39.59461013" lon="2.68105309"></trkpt>
    <trkpt lat="39.59474085" lon="2.68126633"></trkpt>
    <trkpt lat="39.59490000" lon="2.68152717"></trkpt>
    <trkpt lat="39.59510203" lon="2.68186044"></trkpt>
    <trkpt lat="39.59529786" lon="2.68218901"></trkpt>
    <trkpt lat="39.59548388" lon="2.68251356"></trkpt>
    <trkpt lat="39.59565077" lon="2.68283274"></trkpt>
    <trkpt lat="39.59581715" lon="2.68319215"></trkpt>
    <trkpt lat="39.59596182" lon="2.68354084"></trkpt>
    <trkpt lat="39.59610082" lon="2.68390965"></trkpt>
    <trkpt lat="39.59622637" lon="2.68428448"></trkpt>
    <trkpt lat="39.59634883" lon="2.68470224"></trkpt>
    <trkpt lat="39.59645475" lon="2.68510993"></trkpt>
    <trkpt lat="39.59657256" lon="2.68557060"></trkpt>
    <trkpt lat="39.59668468" lon="2.68601183"></trkpt>
    <trkpt lat="39.59680352" lon="2.68648658"></trkpt>
    <trkpt lat="39.59690324" lon="2.68687416"></trkpt>
    <trkpt lat="39.59698798" lon="2.68721748"></trkpt>
    <trkpt lat="39.59706135" lon="2.68751588"></trkpt>
    <trkpt lat="39.59714609" lon="2.68786121"></trkpt>
    <trkpt lat="39.59726493" lon="2.68831987"></trkpt>
    <trkpt lat="39.59740754" lon="2.68887643"></trkpt>
    <trkpt lat="39.59754136" lon="2.68941220"></trkpt>
    <trkpt lat="39.59767931" lon="2.68996808"></trkpt>
    <trkpt lat="39.59781933" lon="2.69051928"></trkpt>
    <trkpt lat="39.59797227" lon="2.69113820"></trkpt>
    <trkpt lat="39.59811074" lon="2.69165989"></trkpt>
    <trkpt lat="39.59818463" lon="2.69191470"></trkpt>
    <trkpt lat="39.59830192" lon="2.69226942"></trkpt>
    <trkpt lat="39.59843419" lon="2.69263822"></trkpt>
    <trkpt lat="39.59857473" lon="2.69298892"></trkpt>
    <trkpt lat="39.59875866" lon="2.69338790"></trkpt>
    <trkpt lat="39.59895707" lon="2.69377548"></trkpt>
    <trkpt lat="39.59917097" lon="2.69415635"></trkpt>
    <trkpt lat="39.59939521" lon="2.69450236"></trkpt>
    <trkpt lat="39.59963184" lon="2.69484367"></trkpt>
    <trkpt lat="39.59990155" lon="2.69521516"></trkpt>
    <trkpt lat="39.60021258" lon="2.69564163"></trkpt>
    <trkpt lat="39.60057786" lon="2.69614789"></trkpt>
    <trkpt lat="39.60095245" lon="2.69666154"></trkpt>
    <trkpt lat="39.60132651" lon="2.69717719"></trkpt>
    <trkpt lat="39.60168559" lon="2.69767206"></trkpt>
    <trkpt lat="39.60205396" lon="2.69818101"></trkpt>
    <trkpt lat="39.60241613" lon="2.69867990"></trkpt>
    <trkpt lat="39.60278657" lon="2.69919287"></trkpt>
    <trkpt lat="39.60315804" lon="2.69970652"></trkpt>
    <trkpt lat="39.60352951" lon="2.70021681"></trkpt>
    <trkpt lat="39.60389168" lon="2.70071570"></trkpt>
    <trkpt lat="39.60425797" lon="2.70122532"></trkpt>
    <trkpt lat="39.60464390" lon="2.70175908"></trkpt>
    <trkpt lat="39.60498488" lon="2.70223450"></trkpt>
    <trkpt lat="39.60535737" lon="2.70274546"></trkpt>
    <trkpt lat="39.60573089" lon="2.70325977"></trkpt>
    <trkpt lat="39.60610648" lon="2.70378079"></trkpt>
    <trkpt lat="39.60647431" lon="2.70428974"></trkpt>
    <trkpt lat="39.60685093" lon="2.70481076"></trkpt>
    <trkpt lat="39.60723116" lon="2.70533245"></trkpt>
    <trkpt lat="39.60760312" lon="2.70584542"></trkpt>
    <trkpt lat="39.60797663" lon="2.70636577"></trkpt>
    <trkpt lat="39.60835272" lon="2.70688008"></trkpt>
    <trkpt lat="39.60872425" lon="2.70739638"></trkpt>
    <trkpt lat="39.60909605" lon="2.70791054"></trkpt>
    <trkpt lat="39.60946852" lon="2.70842083"></trkpt>
    <trkpt lat="39.60983995" lon="2.70893917"></trkpt>
    <trkpt lat="39.61021758" lon="2.70945952"></trkpt>
    <trkpt lat="39.61058754" lon="2.70997303"></trkpt>
    <trkpt lat="39.61095638" lon="2.71047393"></trkpt>
    <trkpt lat="39.61132367" lon="2.71098422"></trkpt>
    <trkpt lat="39.61176948" lon="2.71160918"></trkpt>
    <trkpt lat="39.61200556" lon="2.71192568"></trkpt>
    <trkpt lat="39.61234444" lon="2.71239574"></trkpt>
    <trkpt lat="39.61271482" lon="2.71290871"></trkpt>
    <trkpt lat="39.61307901" lon="2.71341229"></trkpt>
    <trkpt lat="39.61345094" lon="2.71392325"></trkpt>
    <trkpt lat="39.61382080" lon="2.71443556"></trkpt>
    <trkpt lat="39.61418756" lon="2.71494384"></trkpt>
    <trkpt lat="39.61452384" lon="2.71540853"></trkpt>
    <trkpt lat="39.61486684" lon="2.71587993"></trkpt>
    <trkpt lat="39.61520157" lon="2.71634261"></trkpt>
    <trkpt lat="39.61557400" lon="2.71685424"></trkpt>
    <trkpt lat="39.61589840" lon="2.71730485"></trkpt>
    <trkpt lat="39.61617733" lon="2.71768841"></trkpt>
    <trkpt lat="39.61645420" lon="2.71806995"></trkpt>
    <trkpt lat="39.61676103" lon="2.71849374"></trkpt>
    <trkpt lat="39.61712726" lon="2.71900537"></trkpt>
    <trkpt lat="39.61750175" lon="2.71951968"></trkpt>
    <trkpt lat="39.61786953" lon="2.72002528"></trkpt>
    <trkpt lat="39.61824195" lon="2.72054161"></trkpt>
    <trkpt lat="39.61861127" lon="2.72105391"></trkpt>
    <trkpt lat="39.61891499" lon="2.72147636"></trkpt>
    <trkpt lat="39.61916499" lon="2.72180962"></trkpt>
    <trkpt lat="39.61943255" lon="2.72213216"></trkpt>
    <trkpt lat="39.61970734" lon="2.72243323"></trkpt>
    <trkpt lat="39.61999246" lon="2.72271688"></trkpt>
    <trkpt lat="39.62028946" lon="2.72298040"></trkpt>
    <trkpt lat="39.62058955" lon="2.72322046"></trkpt>
    <trkpt lat="39.62090721" lon="2.72344644"></trkpt>
    <trkpt lat="39.62123365" lon="2.72365163"></trkpt>
    <trkpt lat="39.62156008" lon="2.72383603"></trkpt>
    <trkpt lat="39.62189426" lon="2.72399763"></trkpt>
    <trkpt lat="39.62231934" lon="2.72418807"></trkpt>
    <trkpt lat="39.62270878" lon="2.72436442"></trkpt>
    <trkpt lat="39.62304606" lon="2.72452066"></trkpt>
    <trkpt lat="39.62342517" lon="2.72469232"></trkpt>
    <trkpt lat="39.62374333" lon="2.72483381"></trkpt>
    <trkpt lat="39.62397523" lon="2.72494110"></trkpt>
    <trkpt lat="39.62427841" lon="2.72507856"></trkpt>
    <trkpt lat="39.62455731" lon="2.72520798"></trkpt>
    <trkpt lat="39.62478044" lon="2.72530990"></trkpt>
    <trkpt lat="39.62510375" lon="2.72545541"></trkpt>
    <trkpt lat="39.62550248" lon="2.72563780"></trkpt>
    <trkpt lat="39.62580152" lon="2.72577594"></trkpt>
    <trkpt lat="39.62615995" lon="2.72593553"></trkpt>
    <trkpt lat="39.62645279" lon="2.72607970"></trkpt>
    <trkpt lat="39.62670225" lon="2.72622990"></trkpt>
    <trkpt lat="39.62693879" lon="2.72640290"></trkpt>
    <trkpt lat="39.62716552" lon="2.72660675"></trkpt>
    <trkpt lat="39.62734628" lon="2.72680188"></trkpt>
    <trkpt lat="39.62753273" lon="2.72703724"></trkpt>
    <trkpt lat="39.62771607" lon="2.72730748"></trkpt>
    <trkpt lat="39.62787359" lon="2.72758442"></trkpt>
    <trkpt lat="39.62801562" lon="2.72788549"></trkpt>
    <trkpt lat="39.62813854" lon="2.72820132"></trkpt>
    <trkpt lat="39.62823925" lon="2.72852721"></trkpt>
    <trkpt lat="39.62834150" lon="2.72897447"></trkpt>
    <trkpt lat="39.62846029" lon="2.72953706"></trkpt>
    <trkpt lat="39.62859095" lon="2.73015531"></trkpt>
    <trkpt lat="39.62872420" lon="2.73077222"></trkpt>
    <trkpt lat="39.62885331" lon="2.73127111"></trkpt>
    <trkpt lat="39.62899740" lon="2.73176330"></trkpt>
    <trkpt lat="39.62915750" lon="2.73224140"></trkpt>
    <trkpt lat="39.62934084" lon="2.73271079"></trkpt>
    <trkpt lat="39.62953813" lon="2.73316207"></trkpt>
    <trkpt lat="39.62973076" lon="2.73355635"></trkpt>
    <trkpt lat="39.62990739" lon="2.73387554"></trkpt>
    <trkpt lat="39.63012481" lon="2.73425105"></trkpt>
    <trkpt lat="39.63024153" lon="2.73444886"></trkpt>
    <trkpt lat="39.63050853" lon="2.73484113"></trkpt>
    <trkpt lat="39.63079102" lon="2.73522066"></trkpt>
    <trkpt lat="39.63108487" lon="2.73557472"></trkpt>
    <trkpt lat="39.63139370" lon="2.73590999"></trkpt>
    <trkpt lat="39.63171389" lon="2.73622381"></trkpt>
    <trkpt lat="39.63194370" lon="2.73642632"></trkpt>
    <trkpt lat="39.63209192" lon="2.73654836"></trkpt>
    <trkpt lat="39.63268348" lon="2.73698899"></trkpt>
    <trkpt lat="39.63308681" lon="2.73724850"></trkpt>
    <trkpt lat="39.63350150" lon="2.73749459"></trkpt>
    <trkpt lat="39.63392083" lon="2.73772392"></trkpt>
    <trkpt lat="39.63436701" lon="2.73797135"></trkpt>
    <trkpt lat="39.63487981" lon="2.73824695"></trkpt>
    <trkpt lat="39.63538124" lon="2.73851584"></trkpt>
    <trkpt lat="39.63588060" lon="2.73878540"></trkpt>
    <trkpt lat="39.63637479" lon="2.73905094"></trkpt>
    <trkpt lat="39.63687415" lon="2.73931983"></trkpt>
    <trkpt lat="39.63736885" lon="2.73958872"></trkpt>
    <trkpt lat="39.63787300" lon="2.73986149"></trkpt>
    <trkpt lat="39.63837441" lon="2.74012904"></trkpt>
    <trkpt lat="39.63887309" lon="2.74039893"></trkpt>
    <trkpt lat="39.63936726" lon="2.74066581"></trkpt>
    <trkpt lat="39.63982258" lon="2.74091147"></trkpt>
    <trkpt lat="39.64028370" lon="2.74116092"></trkpt>
    <trkpt lat="39.64073449" lon="2.74140500"></trkpt>
    <trkpt lat="39.64118734" lon="2.74165042"></trkpt>
    <trkpt lat="39.64156273" lon="2.74185091"></trkpt>
    <trkpt lat="39.64218288" lon="2.74218619"></trkpt>
    <trkpt lat="39.64268219" lon="2.74245508"></trkpt>
    <trkpt lat="39.64318253" lon="2.74272800"></trkpt>
    <trkpt lat="39.64368236" lon="2.74299756"></trkpt>
    <trkpt lat="39.64419250" lon="2.74327315"></trkpt>
    <trkpt lat="39.64467889" lon="2.74353467"></trkpt>
    <trkpt lat="39.64509506" lon="2.74376199"></trkpt>
    <trkpt lat="39.64542757" lon="2.74394304"></trkpt>
    <trkpt lat="39.64567076" lon="2.74409190"></trkpt>
    <trkpt lat="39.64590415" lon="2.74426222"></trkpt>
    <trkpt lat="39.64613546" lon="2.74446540"></trkpt>
    <trkpt lat="39.64633941" lon="2.74468936"></trkpt>
    <trkpt lat="39.64653096" lon="2.74493545"></trkpt>
    <trkpt lat="39.64670496" lon="2.74520904"></trkpt>
    <trkpt lat="39.64688722" lon="2.74554834"></trkpt>
    <trkpt lat="39.64707310" lon="2.74594933"></trkpt>
    <trkpt lat="39.64730234" lon="2.74645157"></trkpt>
    <trkpt lat="39.64748822" lon="2.74685592"></trkpt>
    <trkpt lat="39.64763795" lon="2.74714090"></trkpt>
    <trkpt lat="39.64780214" lon="2.74741180"></trkpt>
    <trkpt lat="39.64798439" lon="2.74767064"></trkpt>
    <trkpt lat="39.64818162" lon="2.74790332"></trkpt>
    <trkpt lat="39.64839899" lon="2.74811722"></trkpt>
    <trkpt lat="39.64862152" lon="2.74829961"></trkpt>
    <trkpt lat="39.64886005" lon="2.74845988"></trkpt>
    <trkpt lat="39.64910839" lon="2.74858594"></trkpt>
    <trkpt lat="39.64936448" lon="2.74869189"></trkpt>
    <trkpt lat="39.64962573" lon="2.74878778"></trkpt>
    <trkpt lat="39.64988749" lon="2.74887428"></trkpt>
    <trkpt lat="39.65023599" lon="2.74899565"></trkpt>
    <trkpt lat="39.65066761" lon="2.74915524"></trkpt>
    <trkpt lat="39.65101130" lon="2.74928051"></trkpt>
    <trkpt lat="39.65130972" lon="2.74941596"></trkpt>
    <trkpt lat="39.65156476" lon="2.74955879"></trkpt>
    <trkpt lat="39.65184924" lon="2.74974051"></trkpt>
    <trkpt lat="39.65212390" lon="2.74994235"></trkpt>
    <trkpt lat="39.65238927" lon="2.75017168"></trkpt>
    <trkpt lat="39.65263966" lon="2.75041777"></trkpt>
    <trkpt lat="39.65288231" lon="2.75068666"></trkpt>
    <trkpt lat="39.65311360" lon="2.75096896"></trkpt>
    <trkpt lat="39.65332372" lon="2.75126266"></trkpt>
    <trkpt lat="39.65353591" lon="2.75158453"></trkpt>
    <trkpt lat="39.65372590" lon="2.75190371"></trkpt>
    <trkpt lat="39.65389833" lon="2.75224569"></trkpt>
    <trkpt lat="39.65405786" lon="2.75260243"></trkpt>
    <trkpt lat="39.65420138" lon="2.75297123"></trkpt>
    <trkpt lat="39.65432580" lon="2.75334205"></trkpt>
    <trkpt lat="39.65443473" lon="2.75372627"></trkpt>
    <trkpt lat="39.65452508" lon="2.75412190"></trkpt>
    <trkpt lat="39.65459787" lon="2.75452356"></trkpt>
    <trkpt lat="39.65464950" lon="2.75490846"></trkpt>
    <trkpt lat="39.65468512" lon="2.75530274"></trkpt>
    <trkpt lat="39.65470628" lon="2.75570775"></trkpt>
    <trkpt lat="39.65470835" lon="2.75611411"></trkpt>
    <trkpt lat="39.65468925" lon="2.75653991"></trkpt>
    <trkpt lat="39.65465414" lon="2.75695029"></trkpt>
    <trkpt lat="39.65459684" lon="2.75735731"></trkpt>
    <trkpt lat="39.65452508" lon="2.75775227"></trkpt>
    <trkpt lat="39.65443473" lon="2.75813985"></trkpt>
    <trkpt lat="39.65430876" lon="2.75858979"></trkpt>
    <trkpt lat="39.65414975" lon="2.75908801"></trkpt>
    <trkpt lat="39.65395564" lon="2.75968279"></trkpt>
    <trkpt lat="39.65374397" lon="2.76033389"></trkpt>
    <trkpt lat="39.65353746" lon="2.76097628"></trkpt>
    <trkpt lat="39.65333095" lon="2.76160057"></trkpt>
    <trkpt lat="39.65311463" lon="2.76226576"></trkpt>
    <trkpt lat="39.65289573" lon="2.76293497"></trkpt>
    <trkpt lat="39.65269697" lon="2.76354048"></trkpt>
    <trkpt lat="39.65249097" lon="2.76417012"></trkpt>
    <trkpt lat="39.65229737" lon="2.76476692"></trkpt>
    <trkpt lat="39.65214455" lon="2.76524569"></trkpt>
    <trkpt lat="39.65202374" lon="2.76568825"></trkpt>
    <trkpt lat="39.65192461" lon="2.76611808"></trkpt>
    <trkpt lat="39.65184201" lon="2.76660289"></trkpt>
    <trkpt lat="39.65178160" lon="2.76704344"></trkpt>
    <trkpt lat="39.65174185" lon="2.76750679"></trkpt>
    <trkpt lat="39.65172017" lon="2.76797081"></trkpt>
    <trkpt lat="39.65172223" lon="2.76843685"></trkpt>
    <trkpt lat="39.65174546" lon="2.76890825"></trkpt>
    <trkpt lat="39.65178625" lon="2.76937696"></trkpt>
    <trkpt lat="39.65184924" lon="2.76982556"></trkpt>
    <trkpt lat="39.65192048" lon="2.77022253"></trkpt>
    <trkpt lat="39.65201496" lon="2.77064766"></trkpt>
    <trkpt lat="39.65210118" lon="2.77097355"></trkpt>
    <trkpt lat="39.65221993" lon="2.77135040"></trkpt>
    <trkpt lat="39.65234641" lon="2.77172322"></trkpt>
    <trkpt lat="39.65249459" lon="2.77214232"></trkpt>
    <trkpt lat="39.65273672" lon="2.77283567"></trkpt>
    <trkpt lat="39.65291535" lon="2.77332987"></trkpt>
    <trkpt lat="39.65311257" lon="2.77388911"></trkpt>
    <trkpt lat="39.65326642" lon="2.77430820"></trkpt>
    <trkpt lat="39.65343420" lon="2.77478027"></trkpt>
    <trkpt lat="39.65358134" lon="2.77519467"></trkpt>
    <trkpt lat="39.65380076" lon="2.77579884"></trkpt>
    <trkpt lat="39.65400933" lon="2.77637350"></trkpt>
    <trkpt lat="39.65413685" lon="2.77673292"></trkpt>
    <trkpt lat="39.65429482" lon="2.77718554"></trkpt>
    <trkpt lat="39.65444867" lon="2.77761537"></trkpt>
    <trkpt lat="39.65462884" lon="2.77812499"></trkpt>
    <trkpt lat="39.65473571" lon="2.77841467"></trkpt>
    <trkpt lat="39.65487304" lon="2.77880090"></trkpt>
    <trkpt lat="39.65504082" lon="2.77927364"></trkpt>
    <trkpt lat="39.65521067" lon="2.77975041"></trkpt>
    <trkpt lat="39.65538000" lon="2.78022583"></trkpt>
    <trkpt lat="39.65558289" lon="2.78075221"></trkpt>
    <trkpt lat="39.65577803" lon="2.78119947"></trkpt>
    <trkpt lat="39.65597111" lon="2.78159308"></trkpt>
    <trkpt lat="39.65617864" lon="2.78197262"></trkpt>
    <trkpt lat="39.65639805" lon="2.78233069"></trkpt>
    <trkpt lat="39.65663965" lon="2.78268541"></trkpt>
    <trkpt lat="39.65689210" lon="2.78301734"></trkpt>
    <trkpt lat="39.65721630" lon="2.78342101"></trkpt>
    <trkpt lat="39.65760761" lon="2.78390112"></trkpt>
    <trkpt lat="39.65800075" lon="2.78438565"></trkpt>
    <trkpt lat="39.65839257" lon="2.78487113"></trkpt>
    <trkpt lat="39.65878387" lon="2.78535259"></trkpt>
    <trkpt lat="39.65917517" lon="2.78583471"></trkpt>
    <trkpt lat="39.65956338" lon="2.78631416"></trkpt>
    <trkpt lat="39.65995674" lon="2.78679763"></trkpt>
    <trkpt lat="39.66034907" lon="2.78728310"></trkpt>
    <trkpt lat="39.66073933" lon="2.78776255"></trkpt>
    <trkpt lat="39.66112597" lon="2.78823998"></trkpt>
    <trkpt lat="39.66152397" lon="2.78873150"></trkpt>
    <trkpt lat="39.66191732" lon="2.78921362"></trkpt>
    <trkpt lat="39.66230448" lon="2.78969307"></trkpt>
    <trkpt lat="39.66269576" lon="2.79017453"></trkpt>
    <trkpt lat="39.66308315" lon="2.79065533"></trkpt>
    <trkpt lat="39.66347887" lon="2.79114112"></trkpt>
    <trkpt lat="39.66386601" lon="2.79162057"></trkpt>
    <trkpt lat="39.66425780" lon="2.79210202"></trkpt>
    <trkpt lat="39.66465114" lon="2.79258683"></trkpt>
    <trkpt lat="39.66504498" lon="2.79307097"></trkpt>
    <trkpt lat="39.66543212" lon="2.79353499"></trkpt>
    <trkpt lat="39.66581409" lon="2.79400639"></trkpt>
    <trkpt lat="39.66620381" lon="2.79449388"></trkpt>
    <trkpt lat="39.66653059" lon="2.79489272"></trkpt>
    <trkpt lat="39.66685538" lon="2.79528790"></trkpt>
    <trkpt lat="39.66721605" lon="2.79573417"></trkpt>
    <trkpt lat="39.66760678" lon="2.79621495"></trkpt>
    <trkpt lat="39.66799649" lon="2.79671183"></trkpt>
    <trkpt lat="39.66838760" lon="2.79719660"></trkpt>
    <trkpt lat="39.66878020" lon="2.79768052"></trkpt>
    <trkpt lat="39.66917430" lon="2.79816250"></trkpt>
    <trkpt lat="39.66956090" lon="2.79863859"></trkpt>
    <trkpt lat="39.66995265" lon="2.79912202"></trkpt>
    <trkpt lat="39.67034668" lon="2.79960203"></trkpt>
    <trkpt lat="39.67073189" lon="2.80008884"></trkpt>
    <trkpt lat="39.67112242" lon="2.80056646"></trkpt>
    <trkpt lat="39.67152242" lon="2.80105261"></trkpt>
    <trkpt lat="39.67191262" lon="2.80153272"></trkpt>
    <trkpt lat="39.67230093" lon="2.80201760"></trkpt>
    <trkpt lat="39.67262867" lon="2.80241591"></trkpt>
    <trkpt lat="39.67295038" lon="2.80281066"></trkpt>
    <trkpt lat="39.67327451" lon="2.80321769"></trkpt>
    <trkpt lat="39.67360431" lon="2.80362337"></trkpt>
    <trkpt lat="39.67398263" lon="2.80410081"></trkpt>
    <trkpt lat="39.67421488" lon="2.80438780"></trkpt>
    <trkpt lat="39.67436765" lon="2.80457824"></trkpt>
    <trkpt lat="39.67476454" lon="2.80505835"></trkpt>
    <trkpt lat="39.67515678" lon="2.80553311"></trkpt>
    <trkpt lat="39.67554335" lon="2.80601858"></trkpt>
    <trkpt lat="39.67593559" lon="2.80650004"></trkpt>
    <trkpt lat="39.67632834" lon="2.80698887"></trkpt>
    <trkpt lat="39.67671903" lon="2.80746832"></trkpt>
    <trkpt lat="39.67708081" lon="2.80791424"></trkpt>
    <trkpt lat="39.67745033" lon="2.80837222"></trkpt>
    <trkpt lat="39.67783946" lon="2.80885435"></trkpt>
    <trkpt lat="39.67815273" lon="2.80924662"></trkpt>
    <trkpt lat="39.67847631" lon="2.80963890"></trkpt>
    <trkpt lat="39.67882518" lon="2.81006201"></trkpt>
    <trkpt lat="39.67916115" lon="2.81047373"></trkpt>
    <trkpt lat="39.67948525" lon="2.81086936"></trkpt>
    <trkpt lat="39.67982328" lon="2.81128980"></trkpt>
    <trkpt lat="39.68018298" lon="2.81172968"></trkpt>
    <trkpt lat="39.68050655" lon="2.81212530"></trkpt>
    <trkpt lat="39.68089876" lon="2.81260341"></trkpt>
    <trkpt lat="39.68125795" lon="2.81304798"></trkpt>
    <trkpt lat="39.68155004" lon="2.81342282"></trkpt>
    <trkpt lat="39.68182819" lon="2.81379967"></trkpt>
    <trkpt lat="39.68209861" lon="2.81421340"></trkpt>
    <trkpt lat="39.68234838" lon="2.81462177"></trkpt>
    <trkpt lat="39.68258783" lon="2.81505025"></trkpt>
    <trkpt lat="39.68281179" lon="2.81548142"></trkpt>
    <trkpt lat="39.68301925" lon="2.81593069"></trkpt>
    <trkpt lat="39.68321122" lon="2.81639337"></trkpt>
    <trkpt lat="39.68338461" lon="2.81686678"></trkpt>
    <trkpt lat="39.68355955" lon="2.81740523"></trkpt>
    <trkpt lat="39.68373500" lon="2.81800337"></trkpt>
    <trkpt lat="39.68392336" lon="2.81864575"></trkpt>
    <trkpt lat="39.68411275" lon="2.81931497"></trkpt>
    <trkpt lat="39.68430316" lon="2.81996473"></trkpt>
    <trkpt lat="39.68449358" lon="2.82061986"></trkpt>
    <trkpt lat="39.68468090" lon="2.82128304"></trkpt>
    <trkpt lat="39.68487029" lon="2.82193347"></trkpt>
    <trkpt lat="39.68505967" lon="2.82259464"></trkpt>
    <trkpt lat="39.68524906" lon="2.82324440"></trkpt>
    <trkpt lat="39.68543741" lon="2.82389953"></trkpt>
    <trkpt lat="39.68562731" lon="2.82455265"></trkpt>
    <trkpt lat="39.68581566" lon="2.82520376"></trkpt>
    <trkpt lat="39.68600659" lon="2.82586157"></trkpt>
    <trkpt lat="39.68619907" lon="2.82652810"></trkpt>
    <trkpt lat="39.68638484" lon="2.82716847"></trkpt>
    <trkpt lat="39.68657473" lon="2.82782494"></trkpt>
    <trkpt lat="39.68676670" lon="2.82848879"></trkpt>
    <trkpt lat="39.68695091" lon="2.82912850"></trkpt>
    <trkpt lat="39.68714081" lon="2.82978430"></trkpt>
    <trkpt lat="39.68732916" lon="2.83043943"></trkpt>
    <trkpt lat="39.68751802" lon="2.83109523"></trkpt>
    <trkpt lat="39.68770894" lon="2.83175505"></trkpt>
    <trkpt lat="39.68789884" lon="2.83240951"></trkpt>
    <trkpt lat="39.68808821" lon="2.83306263"></trkpt>
    <trkpt lat="39.68827501" lon="2.83371373"></trkpt>
    <trkpt lat="39.68846645" lon="2.83436819"></trkpt>
    <trkpt lat="39.68863983" lon="2.83497035"></trkpt>
    <trkpt lat="39.68879153" lon="2.83545717"></trkpt>
    <trkpt lat="39.68893963" lon="2.83588431"></trkpt>
    <trkpt lat="39.68912281" lon="2.83635169"></trkpt>
    <trkpt lat="39.68932250" lon="2.83681370"></trkpt>
    <trkpt lat="39.68953613" lon="2.83725626"></trkpt>
    <trkpt lat="39.68976213" lon="2.83768206"></trkpt>
    <trkpt lat="39.69000569" lon="2.83810116"></trkpt>
    <trkpt lat="39.69026317" lon="2.83850617"></trkpt>
    <trkpt lat="39.69052478" lon="2.83888369"></trkpt>
    <trkpt lat="39.69076471" lon="2.83919818"></trkpt>
    <trkpt lat="39.69102529" lon="2.83951401"></trkpt>
    <trkpt lat="39.69126522" lon="2.83979631"></trkpt>
    <trkpt lat="39.69144272" lon="2.84000351"></trkpt>
    <trkpt lat="39.69168266" lon="2.84028448"></trkpt>
    <trkpt lat="39.69186119" lon="2.84048698"></trkpt>
    <trkpt lat="39.69210628" lon="2.84077666"></trkpt>
    <trkpt lat="39.69243599" lon="2.84115888"></trkpt>
    <trkpt lat="39.69273319" lon="2.84150086"></trkpt>
    <trkpt lat="39.69305671" lon="2.84187704"></trkpt>
    <trkpt lat="39.69335752" lon="2.84222774"></trkpt>
    <trkpt lat="39.69368981" lon="2.84261062"></trkpt>
    <trkpt lat="39.69409330" lon="2.84307800"></trkpt>
    <trkpt lat="39.69449678" lon="2.84354671"></trkpt>
    <trkpt lat="39.69490130" lon="2.84401476"></trkpt>
    <trkpt lat="39.69530529" lon="2.84448347"></trkpt>
    <trkpt lat="39.69570309" lon="2.84494817"></trkpt>
    <trkpt lat="39.69610554" lon="2.84541621"></trkpt>
    <trkpt lat="39.69650953" lon="2.84588359"></trkpt>
    <trkpt lat="39.69691042" lon="2.84634895"></trkpt>
    <trkpt lat="39.69731595" lon="2.84681431"></trkpt>
    <trkpt lat="39.69771632" lon="2.84728102"></trkpt>
    <trkpt lat="39.69811978" lon="2.84774906"></trkpt>
    <trkpt lat="39.69851963" lon="2.84821510"></trkpt>
    <trkpt lat="39.69892567" lon="2.84868046"></trkpt>
    <trkpt lat="39.69932603" lon="2.84914784"></trkpt>
    <trkpt lat="39.69972897" lon="2.84961454"></trkpt>
    <trkpt lat="39.70013036" lon="2.85008259"></trkpt>
    <trkpt lat="39.70052865" lon="2.85054393"></trkpt>
    <trkpt lat="39.70092745" lon="2.85101130"></trkpt>
    <trkpt lat="39.70133760" lon="2.85148270"></trkpt>
    <trkpt lat="39.70173950" lon="2.85194873"></trkpt>
    <trkpt lat="39.70214088" lon="2.85241074"></trkpt>
    <trkpt lat="39.70254173" lon="2.85287745"></trkpt>
    <trkpt lat="39.70294465" lon="2.85334549"></trkpt>
    <trkpt lat="39.70334448" lon="2.85381287"></trkpt>
    <trkpt lat="39.70374842" lon="2.85427890"></trkpt>
    <trkpt lat="39.70415133" lon="2.85474762"></trkpt>
    <trkpt lat="39.70455270" lon="2.85521164"></trkpt>
    <trkpt lat="39.70495509" lon="2.85567767"></trkpt>
    <trkpt lat="39.70535696" lon="2.85614706"></trkpt>
    <trkpt lat="39.70575935" lon="2.85661108"></trkpt>
    <trkpt lat="39.70616277" lon="2.85708248"></trkpt>
    <trkpt lat="39.70656309" lon="2.85755187"></trkpt>
    <trkpt lat="39.70696701" lon="2.85801656"></trkpt>
    <trkpt lat="39.70737094" lon="2.85849064"></trkpt>
    <trkpt lat="39.70776506" lon="2.85894326"></trkpt>
    <trkpt lat="39.70817208" lon="2.85941131"></trkpt>
    <trkpt lat="39.70857857" lon="2.85988204"></trkpt>
    <trkpt lat="39.70897630" lon="2.86034539"></trkpt>
    <trkpt lat="39.70938640" lon="2.86081947"></trkpt>
    <trkpt lat="39.70971500" lon="2.86119900"></trkpt>
    <trkpt lat="39.71007042" lon="2.86161139"></trkpt>
    <trkpt lat="39.71048774" lon="2.86209955"></trkpt>
    <trkpt lat="39.71088545" lon="2.86256223"></trkpt>
    <trkpt lat="39.71125531" lon="2.86299340"></trkpt>
    <trkpt lat="39.71165663" lon="2.86345675"></trkpt>
    <trkpt lat="39.71206053" lon="2.86392144"></trkpt>
    <trkpt lat="39.71246236" lon="2.86438748"></trkpt>
    <trkpt lat="39.71286523" lon="2.86485686"></trkpt>
    <trkpt lat="39.71326757" lon="2.86532826"></trkpt>
    <trkpt lat="39.71363948" lon="2.86575876"></trkpt>
    <trkpt lat="39.71401241" lon="2.86619327"></trkpt>
    <trkpt lat="39.71437503" lon="2.86661237"></trkpt>
    <trkpt lat="39.71477272" lon="2.86707907"></trkpt>
    <trkpt lat="39.71512863" lon="2.86751560"></trkpt>
    <trkpt lat="39.71541388" lon="2.86788910"></trkpt>
    <trkpt lat="39.71568725" lon="2.86826796"></trkpt>
    <trkpt lat="39.71595083" lon="2.86867231"></trkpt>
    <trkpt lat="39.71620306" lon="2.86909408"></trkpt>
    <trkpt lat="39.71638875" lon="2.86943405"></trkpt>
    <trkpt lat="39.71661518" lon="2.86988265"></trkpt>
    <trkpt lat="39.71679365" lon="2.87026688"></trkpt>
    <trkpt lat="39.71696386" lon="2.87067860"></trkpt>
    <trkpt lat="39.71712272" lon="2.87109434"></trkpt>
    <trkpt lat="39.71725219" lon="2.87146918"></trkpt>
    <trkpt lat="39.71737031" lon="2.87184536"></trkpt>
    <trkpt lat="39.71751318" lon="2.87234827"></trkpt>
    <trkpt lat="39.71764935" lon="2.87290818"></trkpt>
    <trkpt lat="39.71779635" lon="2.87358209"></trkpt>
    <trkpt lat="39.71795005" lon="2.87426337"></trkpt>
    <trkpt lat="39.71810221" lon="2.87494331"></trkpt>
    <trkpt lat="39.71825179" lon="2.87560582"></trkpt>
    <trkpt lat="39.71840034" lon="2.87627771"></trkpt>
    <trkpt lat="39.71854940" lon="2.87693686"></trkpt>
    <trkpt lat="39.71870516" lon="2.87761747"></trkpt>
    <trkpt lat="39.71885732" lon="2.87828735"></trkpt>
    <trkpt lat="39.71900793" lon="2.87896662"></trkpt>
    <trkpt lat="39.71914358" lon="2.87958554"></trkpt>
    <trkpt lat="39.71926582" lon="2.88020916"></trkpt>
    <trkpt lat="39.71936743" lon="2.88083679"></trkpt>
    <trkpt lat="39.71944995" lon="2.88147181"></trkpt>
    <trkpt lat="39.71951391" lon="2.88210682"></trkpt>
    <trkpt lat="39.71955878" lon="2.88274384"></trkpt>
    <trkpt lat="39.71958405" lon="2.88338556"></trkpt>
    <trkpt lat="39.71959385" lon="2.88402527"></trkpt>
    <trkpt lat="39.71959385" lon="2.88471795"></trkpt>
    <trkpt lat="39.71959231" lon="2.88542136"></trkpt>
    <trkpt lat="39.71959385" lon="2.88610935"></trkpt>
    <trkpt lat="39.71959385" lon="2.88681007"></trkpt>
    <trkpt lat="39.71959179" lon="2.88751147"></trkpt>
    <trkpt lat="39.71959334" lon="2.88821354"></trkpt>
    <trkpt lat="39.71959024" lon="2.88891091"></trkpt>
    <trkpt lat="39.71959179" lon="2.88961298"></trkpt>
    <trkpt lat="39.71958921" lon="2.89030700"></trkpt>
    <trkpt lat="39.71958921" lon="2.89101444"></trkpt>
    <trkpt lat="39.71958921" lon="2.89171516"></trkpt>
    <trkpt lat="39.71958869" lon="2.89240986"></trkpt>
    <trkpt lat="39.71959231" lon="2.89310991"></trkpt>
    <trkpt lat="39.71958869" lon="2.89381399"></trkpt>
    <trkpt lat="39.71958766" lon="2.89451271"></trkpt>
    <trkpt lat="39.71958508" lon="2.89521612"></trkpt>
    <trkpt lat="39.71958508" lon="2.89591349"></trkpt>
    <trkpt lat="39.71958457" lon="2.89661623"></trkpt>
    <trkpt lat="39.71958251" lon="2.89726130"></trkpt>
    <trkpt lat="39.71958199" lon="2.89790235"></trkpt>
    <trkpt lat="39.71958302" lon="2.89848439"></trkpt>
    <trkpt lat="39.71957889" lon="2.89900742"></trkpt>
    <trkpt lat="39.71957941" lon="2.89942853"></trkpt>
    <trkpt lat="39.71957889" lon="2.90010310"></trkpt>
    <trkpt lat="39.71957580" lon="2.90048532"></trkpt>
    <trkpt lat="39.71956136" lon="2.90085613"></trkpt>
    <trkpt lat="39.71952835" lon="2.90125176"></trkpt>
    <trkpt lat="39.71948090" lon="2.90163263"></trkpt>
    <trkpt lat="39.71941436" lon="2.90200948"></trkpt>
    <trkpt lat="39.71933235" lon="2.90238298"></trkpt>
    <trkpt lat="39.71923436" lon="2.90274709"></trkpt>
    <trkpt lat="39.71912088" lon="2.90310114"></trkpt>
    <trkpt lat="39.71899761" lon="2.90344782"></trkpt>
    <trkpt lat="39.71887228" lon="2.90378644"></trkpt>
    <trkpt lat="39.71872476" lon="2.90419079"></trkpt>
    <trkpt lat="39.71849266" lon="2.90480166"></trkpt>
    <trkpt lat="39.71835546" lon="2.90517851"></trkpt>
    <trkpt lat="39.71820743" lon="2.90557950"></trkpt>
    <trkpt lat="39.71811250" lon="2.90587876"></trkpt>
    <trkpt lat="39.71792209" lon="2.90640919"></trkpt>
    <trkpt lat="39.71758031" lon="2.90733393"></trkpt>
    <trkpt lat="39.71715352" lon="2.90850000"></trkpt>
    <trkpt lat="39.71693319" lon="2.90911123"></trkpt>
    <trkpt lat="39.71673714" lon="2.90963450"></trkpt>
    <trkpt lat="39.71644394" lon="2.91043744"></trkpt>
    <trkpt lat="39.71618543" lon="2.91113438"></trkpt>
    <trkpt lat="39.71583671" lon="2.91208618"></trkpt>
    <trkpt lat="39.71559034" lon="2.91275831"></trkpt>
    <trkpt lat="39.71531622" lon="2.91349359"></trkpt>
    <trkpt lat="39.71498137" lon="2.91438675"></trkpt>
    <trkpt lat="39.71474541" lon="2.91502956"></trkpt>
    <trkpt lat="39.71444526" lon="2.91583927"></trkpt>
    <trkpt lat="39.71416419" lon="2.91660387"></trkpt>
    <trkpt lat="39.71398202" lon="2.91709105"></trkpt>
    <trkpt lat="39.71375300" lon="2.91771130"></trkpt>
    <trkpt lat="39.71363328" lon="2.91802706"></trkpt>
    <trkpt lat="39.71346499" lon="2.91845560"></trkpt>
    <trkpt lat="39.71334180" lon="2.91875558"></trkpt>
    <trkpt lat="39.71323249" lon="2.91899917"></trkpt>
    <trkpt lat="39.71309890" lon="2.91929463"></trkpt>
    <trkpt lat="39.71296183" lon="2.91955627"></trkpt>
    <trkpt lat="39.71277965" lon="2.91987880"></trkpt>
    <trkpt lat="39.71260095" lon="2.92015847"></trkpt>
    <trkpt lat="39.71245520" lon="2.92036372"></trkpt>
    <trkpt lat="39.71233028" lon="2.92053062"></trkpt>
    <trkpt lat="39.71213769" lon="2.92078098"></trkpt>
    <trkpt lat="39.71197460" lon="2.92097269"></trkpt>
    <trkpt lat="39.71179589" lon="2.92118696"></trkpt>
    <trkpt lat="39.71132048" lon="2.92168993"></trkpt>
    <trkpt lat="39.71057746" lon="2.92242716"></trkpt>
    <trkpt lat="39.71016479" lon="2.92288045"></trkpt>
    <trkpt lat="39.70973973" lon="2.92334179"></trkpt>
    <trkpt lat="39.70933117" lon="2.92377363"></trkpt>
    <trkpt lat="39.70890405" lon="2.92420815"></trkpt>
    <trkpt lat="39.70847692" lon="2.92463194"></trkpt>
    <trkpt lat="39.70804153" lon="2.92503963"></trkpt>
    <trkpt lat="39.70767011" lon="2.92536418"></trkpt>
    <trkpt lat="39.70730075" lon="2.92570482"></trkpt>
    <trkpt lat="39.70694377" lon="2.92604278"></trkpt>
    <trkpt lat="39.70658266" lon="2.92639415"></trkpt>
    <trkpt lat="39.70622980" lon="2.92675893"></trkpt>
    <trkpt lat="39.70591202" lon="2.92708348"></trkpt>
    <trkpt lat="39.70563963" lon="2.92737047"></trkpt>
    <trkpt lat="39.70537757" lon="2.92767356"></trkpt>
    <trkpt lat="39.70512581" lon="2.92801420"></trkpt>
    <trkpt lat="39.70484724" lon="2.92838703"></trkpt>
    <trkpt lat="39.70456659" lon="2.92875986"></trkpt>
    <trkpt lat="39.70426325" lon="2.92920242"></trkpt>
    <trkpt lat="39.70389181" lon="2.92972813"></trkpt>
    <trkpt lat="39.70353275" lon="2.93022971"></trkpt>
    <trkpt lat="39.70314273" lon="2.93076883"></trkpt>
    <trkpt lat="39.70277334" lon="2.93128918"></trkpt>
    <trkpt lat="39.70239570" lon="2.93182026"></trkpt>
    <trkpt lat="39.70201806" lon="2.93235133"></trkpt>
    <trkpt lat="39.70165073" lon="2.93285827"></trkpt>
    <trkpt lat="39.70131642" lon="2.93332766"></trkpt>
    <trkpt lat="39.70094702" lon="2.93384801"></trkpt>
    <trkpt lat="39.70058176" lon="2.93435494"></trkpt>
    <trkpt lat="39.70021442" lon="2.93486725"></trkpt>
    <trkpt lat="39.69985121" lon="2.93536614"></trkpt>
    <trkpt lat="39.69948387" lon="2.93587576"></trkpt>
    <trkpt lat="39.69911860" lon="2.93639879"></trkpt>
    <trkpt lat="39.69875125" lon="2.93690841"></trkpt>
    <trkpt lat="39.69839423" lon="2.93741803"></trkpt>
    <trkpt lat="39.69804339" lon="2.93791155"></trkpt>
    <trkpt lat="39.69766366" lon="2.93842922"></trkpt>
    <trkpt lat="39.69730698" lon="2.93893380"></trkpt>
    <trkpt lat="39.69694361" lon="2.93944019"></trkpt>
    <trkpt lat="39.69657587" lon="2.93995987"></trkpt>
    <trkpt lat="39.69620666" lon="2.94046247"></trkpt>
    <trkpt lat="39.69583891" lon="2.94097645"></trkpt>
    <trkpt lat="39.69547115" lon="2.94149232"></trkpt>
    <trkpt lat="39.69510485" lon="2.94200631"></trkpt>
    <trkpt lat="39.69477358" lon="2.94247477"></trkpt>
    <trkpt lat="39.69448171" lon="2.94291288"></trkpt>
    <trkpt lat="39.69421027" lon="2.94337755"></trkpt>
    <trkpt lat="39.69395050" lon="2.94385171"></trkpt>
    <trkpt lat="39.69371262" lon="2.94434672"></trkpt>
    <trkpt lat="39.69344847" lon="2.94492329"></trkpt>
    <trkpt lat="39.69318432" lon="2.94552262"></trkpt>
    <trkpt lat="39.69292601" lon="2.94612384"></trkpt>
    <trkpt lat="39.69268520" lon="2.94667007"></trkpt>
    <trkpt lat="39.69247943" lon="2.94714042"></trkpt>
    <trkpt lat="39.69214960" lon="2.94791234"></trkpt>
    <trkpt lat="39.69187815" lon="2.94852305"></trkpt>
    <trkpt lat="39.69159064" lon="2.94915083"></trkpt>
    <trkpt lat="39.69143594" lon="2.94951877"></trkpt>
    <trkpt lat="39.69071582" lon="2.95126343"></trkpt>
    <trkpt lat="39.69048108" lon="2.95164916"></trkpt>
    <trkpt lat="39.69037169" lon="2.95192543"></trkpt>
    <trkpt lat="39.69025818" lon="2.95222583"></trkpt>
    <trkpt lat="39.69014259" lon="2.95249808"></trkpt>
    <trkpt lat="39.68997696" lon="2.95287895"></trkpt>
    <trkpt lat="39.68980152" lon="2.95328598"></trkpt>
    <trkpt lat="39.68960802" lon="2.95373927"></trkpt>
    <trkpt lat="39.68941142" lon="2.95423280"></trkpt>
    <trkpt lat="39.68919676" lon="2.95475918"></trkpt>
    <trkpt lat="39.68899604" lon="2.95523460"></trkpt>
    <trkpt lat="39.68877725" lon="2.95573819"></trkpt>
    <trkpt lat="39.68855124" lon="2.95625719"></trkpt>
    <trkpt lat="39.68832420" lon="2.95677620"></trkpt>
    <trkpt lat="39.68810128" lon="2.95729387"></trkpt>
    <trkpt lat="39.68787682" lon="2.95780952"></trkpt>
    <trkpt lat="39.68761520" lon="2.95840967"></trkpt>
    <trkpt lat="39.68742633" lon="2.95884687"></trkpt>
    <trkpt lat="39.68719877" lon="2.95936923"></trkpt>
    <trkpt lat="39.68697430" lon="2.95988622"></trkpt>
    <trkpt lat="39.68674983" lon="2.96040523"></trkpt>
    <trkpt lat="39.68652640" lon="2.96092021"></trkpt>
    <trkpt lat="39.68630080" lon="2.96144137"></trkpt>
    <trkpt lat="39.68607169" lon="2.96196507"></trkpt>
    <trkpt lat="39.68586889" lon="2.96243445"></trkpt>
    <trkpt lat="39.68567899" lon="2.96287031"></trkpt>
    <trkpt lat="39.68547567" lon="2.96334372"></trkpt>
    <trkpt lat="39.68528371" lon="2.96378361"></trkpt>
    <trkpt lat="39.68505820" lon="2.96430395"></trkpt>
    <trkpt lat="39.68485695" lon="2.96476529"></trkpt>
    <trkpt lat="39.68465673" lon="2.96522462"></trkpt>
    <trkpt lat="39.68448695" lon="2.96563500"></trkpt>
    <trkpt lat="39.68432904" lon="2.96605678"></trkpt>
    <trkpt lat="39.68418765" lon="2.96649197"></trkpt>
    <trkpt lat="39.68406225" lon="2.96693453"></trkpt>
    <trkpt lat="39.68395491" lon="2.96738246"></trkpt>
    <trkpt lat="39.68386512" lon="2.96783911"></trkpt>
    <trkpt lat="39.68379339" lon="2.96829575"></trkpt>
    <trkpt lat="39.68373766" lon="2.96875039"></trkpt>
    <trkpt lat="39.68368141" lon="2.96927073"></trkpt>
    <trkpt lat="39.68362516" lon="2.96979511"></trkpt>
    <trkpt lat="39.68356994" lon="2.97031210"></trkpt>
    <trkpt lat="39.68351266" lon="2.97083513"></trkpt>
    <trkpt lat="39.68345745" lon="2.97135615"></trkpt>
    <trkpt lat="39.68339913" lon="2.97188924"></trkpt>
    <trkpt lat="39.68328612" lon="2.97292793"></trkpt>
    <trkpt lat="39.68322935" lon="2.97344895"></trkpt>
    <trkpt lat="39.68316743" lon="2.97396527"></trkpt>
    <trkpt lat="39.68301829" lon="2.97486783"></trkpt>
    <trkpt lat="39.68291043" lon="2.97533454"></trkpt>
    <trkpt lat="39.68279432" lon="2.97575766"></trkpt>
    <trkpt lat="39.68265292" lon="2.97619821"></trkpt>
    <trkpt lat="39.68233607" lon="2.97700891"></trkpt>
    <trkpt lat="39.68215803" lon="2.97739850"></trkpt>
    <trkpt lat="39.68195677" lon="2.97779211"></trkpt>
    <trkpt lat="39.68172548" lon="2.97822644"></trkpt>
    <trkpt lat="39.68147019" lon="2.97870753"></trkpt>
    <trkpt lat="39.68121371" lon="2.97919033"></trkpt>
    <trkpt lat="39.68095722" lon="2.97967045"></trkpt>
    <trkpt lat="39.68070590" lon="2.98015794"></trkpt>
    <trkpt lat="39.68045922" lon="2.98062196"></trkpt>
    <trkpt lat="39.68020015" lon="2.98112152"></trkpt>
    <trkpt lat="39.67994569" lon="2.98160272"></trkpt>
    <trkpt lat="39.67971294" lon="2.98202583"></trkpt>
    <trkpt lat="39.67947853" lon="2.98244544"></trkpt>
    <trkpt lat="39.67926900" lon="2.98283436"></trkpt>
    <trkpt lat="39.67903676" lon="2.98326552"></trkpt>
    <trkpt lat="39.67881278" lon="2.98367791"></trkpt>
    <trkpt lat="39.67837411" lon="2.98450605"></trkpt>
    <trkpt lat="39.67819452" lon="2.98484669"></trkpt>
    <trkpt lat="39.67804588" lon="2.98513502"></trkpt>
    <trkpt lat="39.67789983" lon="2.98543409"></trkpt>
    <trkpt lat="39.67775997" lon="2.98574791"></trkpt>
    <trkpt lat="39.67765882" lon="2.98601278"></trkpt>
    <trkpt lat="39.67757315" lon="2.98628301"></trkpt>
    <trkpt lat="39.67749728" lon="2.98656330"></trkpt>
    <trkpt lat="39.67744103" lon="2.98684292"></trkpt>
    <trkpt lat="39.67739922" lon="2.98713260"></trkpt>
    <trkpt lat="39.67737342" lon="2.98742496"></trkpt>
    <trkpt lat="39.67736361" lon="2.98774213"></trkpt>
    <trkpt lat="39.67737084" lon="2.98804187"></trkpt>
    <trkpt lat="39.67739045" lon="2.98832484"></trkpt>
    <trkpt lat="39.67742967" lon="2.98867420"></trkpt>
    <trkpt lat="39.67748489" lon="2.98907117"></trkpt>
    <trkpt lat="39.67754321" lon="2.98946545"></trkpt>
    <trkpt lat="39.67760050" lon="2.98986711"></trkpt>
    <trkpt lat="39.67765985" lon="2.99027615"></trkpt>
    <trkpt lat="39.67771146" lon="2.99068250"></trkpt>
    <trkpt lat="39.67775584" lon="2.99106807"></trkpt>
    <trkpt lat="39.67778061" lon="2.99147308"></trkpt>
    <trkpt lat="39.67779506" lon="2.99187810"></trkpt>
    <trkpt lat="39.67779455" lon="2.99228177"></trkpt>
    <trkpt lat="39.67778061" lon="2.99268209"></trkpt>
    <trkpt lat="39.67775842" lon="2.99303011"></trkpt>
    <trkpt lat="39.67772797" lon="2.99337276"></trkpt>
    <trkpt lat="39.67768565" lon="2.99371809"></trkpt>
    <trkpt lat="39.67763611" lon="2.99406007"></trkpt>
    <trkpt lat="39.67757263" lon="2.99445503"></trkpt>
    <trkpt lat="39.67749728" lon="2.99490765"></trkpt>
    <trkpt lat="39.67741780" lon="2.99540118"></trkpt>
    <trkpt lat="39.67733626" lon="2.99591281"></trkpt>
    <trkpt lat="39.67725059" lon="2.99643249"></trkpt>
    <trkpt lat="39.67716595" lon="2.99694613"></trkpt>
    <trkpt lat="39.67708492" lon="2.99745776"></trkpt>
    <trkpt lat="39.67700080" lon="2.99797543"></trkpt>
    <trkpt lat="39.67691926" lon="2.99847968"></trkpt>
    <trkpt lat="39.67684339" lon="2.99894237"></trkpt>
    <trkpt lat="39.67677836" lon="2.99933799"></trkpt>
    <trkpt lat="39.67670766" lon="2.99973831"></trkpt>
    <trkpt lat="39.67663437" lon="3.00008834"></trkpt>
    <trkpt lat="39.67654870" lon="3.00042295"></trkpt>
    <trkpt lat="39.67644496" lon="3.00073743"></trkpt>
    <trkpt lat="39.67632265" lon="3.00104723"></trkpt>
    <trkpt lat="39.67618227" lon="3.00134227"></trkpt>
    <trkpt lat="39.67602692" lon="3.00162189"></trkpt>
    <trkpt lat="39.67585403" lon="3.00188743"></trkpt>
    <trkpt lat="39.67566875" lon="3.00213487"></trkpt>
    <trkpt lat="39.67546695" lon="3.00237090"></trkpt>
    <trkpt lat="39.67524864" lon="3.00258481"></trkpt>
    <trkpt lat="39.67502568" lon="3.00277189"></trkpt>
    <trkpt lat="39.67478878" lon="3.00293819"></trkpt>
    <trkpt lat="39.67454518" lon="3.00308370"></trkpt>
    <trkpt lat="39.67429228" lon="3.00320440"></trkpt>
    <trkpt lat="39.67403268" lon="3.00329961"></trkpt>
    <trkpt lat="39.67376894" lon="3.00336935"></trkpt>
    <trkpt lat="39.67349957" lon="3.00341307"></trkpt>
    <trkpt lat="39.67322861" lon="3.00343318"></trkpt>
    <trkpt lat="39.67291583" lon="3.00344257"></trkpt>
    <trkpt lat="39.67255971" lon="3.00344190"></trkpt>
    <trkpt lat="39.67214784" lon="3.00344727"></trkpt>
    <trkpt lat="39.67170706" lon="3.00345062"></trkpt>
    <trkpt lat="39.67124713" lon="3.00345186"></trkpt>
    <trkpt lat="39.67079293" lon="3.00344918"></trkpt>
    <trkpt lat="39.67034440" lon="3.00345387"></trkpt>
    <trkpt lat="39.66989813" lon="3.00345677"></trkpt>
    <trkpt lat="39.66943819" lon="3.00346375"></trkpt>
    <trkpt lat="39.66899647" lon="3.00346744"></trkpt>
    <trkpt lat="39.66854896" lon="3.00346610"></trkpt>
    <trkpt lat="39.66809993" lon="3.00347230"></trkpt>
    <trkpt lat="39.66766636" lon="3.00347230"></trkpt>
    <trkpt lat="39.66723889" lon="3.00346166"></trkpt>
    <trkpt lat="39.66687824" lon="3.00343227"></trkpt>
    <trkpt lat="39.66656698" lon="3.00338667"></trkpt>
    <trkpt lat="39.66625831" lon="3.00332699"></trkpt>
    <trkpt lat="39.66594654" lon="3.00323915"></trkpt>
    <trkpt lat="39.66564561" lon="3.00312985"></trkpt>
    <trkpt lat="39.66534623" lon="3.00300177"></trkpt>
    <trkpt lat="39.66505485" lon="3.00286165"></trkpt>
    <trkpt lat="39.66475701" lon="3.00271681"></trkpt>
    <trkpt lat="39.66442510" lon="3.00254917"></trkpt>
    <trkpt lat="39.66409577" lon="3.00238689"></trkpt>
    <trkpt lat="39.66375147" lon="3.00222395"></trkpt>
    <trkpt lat="39.66341337" lon="3.00206235"></trkpt>
    <trkpt lat="39.66307526" lon="3.00189806"></trkpt>
    <trkpt lat="39.66278154" lon="3.00175993"></trkpt>
    <trkpt lat="39.66244033" lon="3.00161509"></trkpt>
    <trkpt lat="39.66213267" lon="3.00150244"></trkpt>
    <trkpt lat="39.66178071" lon="3.00139756"></trkpt>
    <trkpt lat="39.66142448" lon="3.00131103"></trkpt>
    <trkpt lat="39.66106777" lon="3.00125001"></trkpt>
    <trkpt lat="39.66070281" lon="3.00121447"></trkpt>
    <trkpt lat="39.66034834" lon="3.00119757"></trkpt>
    <trkpt lat="39.65998079" lon="3.00120360"></trkpt>
    <trkpt lat="39.65962459" lon="3.00122305"></trkpt>
    <trkpt lat="39.65922333" lon="3.00124262"></trkpt>
    <trkpt lat="39.65881448" lon="3.00127145"></trkpt>
    <trkpt lat="39.65841222" lon="3.00129894"></trkpt>
    <trkpt lat="39.65800285" lon="3.00133314"></trkpt>
    <trkpt lat="39.65759831" lon="3.00136370"></trkpt>
    <trkpt lat="39.65719366" lon="3.00139569"></trkpt>
    <trkpt lat="39.65683539" lon="3.00142587"></trkpt>
    <trkpt lat="39.65646789" lon="3.00148755"></trkpt>
    <trkpt lat="39.65611374" lon="3.00156265"></trkpt>
    <trkpt lat="39.65576341" lon="3.00165939"></trkpt>
    <trkpt lat="39.65543817" lon="3.00177472"></trkpt>
    <trkpt lat="39.65506956" lon="3.00193700"></trkpt>
    <trkpt lat="39.65474019" lon="3.00210262"></trkpt>
    <trkpt lat="39.65440926" lon="3.00227362"></trkpt>
    <trkpt lat="39.65411706" lon="3.00242516"></trkpt>
    <trkpt lat="39.65379181" lon="3.00259414"></trkpt>
    <trkpt lat="39.65337625" lon="3.00281450"></trkpt>
    <trkpt lat="39.65302725" lon="3.00299622"></trkpt>
    <trkpt lat="39.65264934" lon="3.00319203"></trkpt>
    <trkpt lat="39.65228124" lon="3.00337911"></trkpt>
    <trkpt lat="39.65194927" lon="3.00356619"></trkpt>
    <trkpt lat="39.65166583" lon="3.00374523"></trkpt>
    <trkpt lat="39.65138962" lon="3.00394371"></trkpt>
    <trkpt lat="39.65112424" lon="3.00416634"></trkpt>
    <trkpt lat="39.65087281" lon="3.00441176"></trkpt>
    <trkpt lat="39.65062654" lon="3.00467931"></trkpt>
    <trkpt lat="39.65039834" lon="3.00495826"></trkpt>
    <trkpt lat="39.65018150" lon="3.00526202"></trkpt>
    <trkpt lat="39.64994194" lon="3.00564222"></trkpt>
    <trkpt lat="39.64976898" lon="3.00595403"></trkpt>
    <trkpt lat="39.64959189" lon="3.00629333"></trkpt>
    <trkpt lat="39.64939776" lon="3.00668627"></trkpt>
    <trkpt lat="39.64920414" lon="3.00708056"></trkpt>
    <trkpt lat="39.64896303" lon="3.00757878"></trkpt>
    <trkpt lat="39.64871727" lon="3.00807767"></trkpt>
    <trkpt lat="39.64848183" lon="3.00856315"></trkpt>
    <trkpt lat="39.64824175" lon="3.00905265"></trkpt>
    <trkpt lat="39.64800528" lon="3.00953679"></trkpt>
    <trkpt lat="39.64778636" lon="3.00998673"></trkpt>
    <trkpt lat="39.64754576" lon="3.01047758"></trkpt>
    <trkpt lat="39.64727934" lon="3.01102542"></trkpt>
    <trkpt lat="39.64706249" lon="3.01146865"></trkpt>
    <trkpt lat="39.64685958" lon="3.01188238"></trkpt>
    <trkpt lat="39.64666079" lon="3.01227264"></trkpt>
    <trkpt lat="39.64647647" lon="3.01260189"></trkpt>
    <trkpt lat="39.64630298" lon="3.01286206"></trkpt>
    <trkpt lat="39.64611607" lon="3.01311218"></trkpt>
    <trkpt lat="39.64591109" lon="3.01334150"></trkpt>
    <trkpt lat="39.64560646" lon="3.01362515"></trkpt>
    <trkpt lat="39.64547015" lon="3.01373244"></trkpt>
    <trkpt lat="39.64526929" lon="3.01388063"></trkpt>
    <trkpt lat="39.64506637" lon="3.01401273"></trkpt>
    <trkpt lat="39.64481492" lon="3.01414013"></trkpt>
    <trkpt lat="39.64455778" lon="3.01425077"></trkpt>
    <trkpt lat="39.64425676" lon="3.01435337"></trkpt>
    <trkpt lat="39.64397174" lon="3.01445261"></trkpt>
    <trkpt lat="39.64364903" lon="3.01456660"></trkpt>
    <trkpt lat="39.64328965" lon="3.01469066"></trkpt>
    <trkpt lat="39.64303561" lon="3.01476308"></trkpt>
    <trkpt lat="39.64282390" lon="3.01483482"></trkpt>
    <trkpt lat="39.64250325" lon="3.01494748"></trkpt>
    <trkpt lat="39.64215502" lon="3.01506978"></trkpt>
    <trkpt lat="39.64180751" lon="3.01519316"></trkpt>
    <trkpt lat="39.64152145" lon="3.01529174"></trkpt>
    <trkpt lat="39.64115535" lon="3.01542048"></trkpt>
    <trkpt lat="39.64078718" lon="3.01555124"></trkpt>
    <trkpt lat="39.64048149" lon="3.01566859"></trkpt>
    <trkpt lat="39.64018303" lon="3.01580001"></trkpt>
    <trkpt lat="39.63990987" lon="3.01594351"></trkpt>
    <trkpt lat="39.63966924" lon="3.01609506"></trkpt>
    <trkpt lat="39.63943687" lon="3.01627007"></trkpt>
    <trkpt lat="39.63921122" lon="3.01646788"></trkpt>
    <trkpt lat="39.63900053" lon="3.01668447"></trkpt>
    <trkpt lat="39.63879915" lon="3.01692386"></trkpt>
    <trkpt lat="39.63860912" lon="3.01718470"></trkpt>
    <trkpt lat="39.63843613" lon="3.01745628"></trkpt>
    <trkpt lat="39.63824765" lon="3.01778619"></trkpt>
    <trkpt lat="39.63806382" lon="3.01812683"></trkpt>
    <trkpt lat="39.63789444" lon="3.01843528"></trkpt>
    <trkpt lat="39.63769099" lon="3.01877056"></trkpt>
    <trkpt lat="39.63754278" lon="3.01898983"></trkpt>
    <trkpt lat="39.63738890" lon="3.01918899"></trkpt>
    <trkpt lat="39.63721797" lon="3.01938278"></trkpt>
    <trkpt lat="39.63704240" lon="3.01955578"></trkpt>
    <trkpt lat="39.63684927" lon="3.01972006"></trkpt>
    <trkpt lat="39.63665665" lon="3.01985887"></trkpt>
    <trkpt lat="39.63645784" lon="3.01998426"></trkpt>
    <trkpt lat="39.63624767" lon="3.02009289"></trkpt>
    <trkpt lat="39.63604007" lon="3.02018006"></trkpt>
    <trkpt lat="39.63582356" lon="3.02025003"></trkpt>
    <trkpt lat="39.63559479" lon="3.02030301"></trkpt>
    <trkpt lat="39.63537842" lon="3.02033318"></trkpt>
    <trkpt lat="39.63515068" lon="3.02034458"></trkpt>
    <trkpt lat="39.63492914" lon="3.02033855"></trkpt>
    <trkpt lat="39.63466164" lon="3.02030502"></trkpt>
    <trkpt lat="39.63439621" lon="3.02025272"></trkpt>
    <trkpt lat="39.63412766" lon="3.02019050"></trkpt>
    <trkpt lat="39.63385964" lon="3.02012546"></trkpt>
    <trkpt lat="39.63360143" lon="3.02006444"></trkpt>
    <trkpt lat="39.63333031" lon="3.02001213"></trkpt>
    <trkpt lat="39.63310412" lon="3.01998062"></trkpt>
    <trkpt lat="39.63286760" lon="3.01996452"></trkpt>
    <trkpt lat="39.63265638" lon="3.01996788"></trkpt>
    <trkpt lat="39.63242812" lon="3.01999067"></trkpt>
    <trkpt lat="39.63220296" lon="3.02003158"></trkpt>
    <trkpt lat="39.63198141" lon="3.02008925"></trkpt>
    <trkpt lat="39.63171441" lon="3.02018312"></trkpt>
    <trkpt lat="39.63141127" lon="3.02030382"></trkpt>
    <trkpt lat="39.63107558" lon="3.02044464"></trkpt>
    <trkpt lat="39.63068051" lon="3.02060423"></trkpt>
    <trkpt lat="39.63030402" lon="3.02075712"></trkpt>
    <trkpt lat="39.62992133" lon="3.02091738"></trkpt>
    <trkpt lat="39.62953489" lon="3.02108106"></trkpt>
    <trkpt lat="39.62914858" lon="3.02123998"></trkpt>
    <trkpt lat="39.62875918" lon="3.02140024"></trkpt>
    <trkpt lat="39.62837597" lon="3.02156051"></trkpt>
    <trkpt lat="39.62794679" lon="3.02174088"></trkpt>
    <trkpt lat="39.62751399" lon="3.02191858"></trkpt>
    <trkpt lat="39.62708326" lon="3.02209762"></trkpt>
    <trkpt lat="39.62665511" lon="3.02227196"></trkpt>
    <trkpt lat="39.62622334" lon="3.02245167"></trkpt>
    <trkpt lat="39.62579208" lon="3.02262668"></trkpt>
    <trkpt lat="39.62536960" lon="3.02280036"></trkpt>
    <trkpt lat="39.62493524" lon="3.02298074"></trkpt>
    <trkpt lat="39.62450914" lon="3.02315977"></trkpt>
    <trkpt lat="39.62412229" lon="3.02331735"></trkpt>
    <trkpt lat="39.62372718" lon="3.02347963"></trkpt>
    <trkpt lat="39.62330107" lon="3.02365799"></trkpt>
    <trkpt lat="39.62287373" lon="3.02383578"></trkpt>
    <trkpt lat="39.62244245" lon="3.02401213"></trkpt>
    <trkpt lat="39.62204423" lon="3.02417709"></trkpt>
    <trkpt lat="39.62161811" lon="3.02435344"></trkpt>
    <trkpt lat="39.62123951" lon="3.02451102"></trkpt>
    <trkpt lat="39.62076122" lon="3.02471018"></trkpt>
    <trkpt lat="39.62042135" lon="3.02485233"></trkpt>
    <trkpt lat="39.62014659" lon="3.02498412"></trkpt>
    <trkpt lat="39.61985218" lon="3.02516182"></trkpt>
    <trkpt lat="39.61960734" lon="3.02534421"></trkpt>
    <trkpt lat="39.61938679" lon="3.02553934"></trkpt>
    <trkpt lat="39.61918534" lon="3.02574587"></trkpt>
    <trkpt lat="39.61899888" lon="3.02596514"></trkpt>
    <trkpt lat="39.61880817" lon="3.02622761"></trkpt>
    <trkpt lat="39.61864340" lon="3.02649046"></trkpt>
    <trkpt lat="39.61848689" lon="3.02678551"></trkpt>
    <trkpt lat="39.61834794" lon="3.02709731"></trkpt>
    <trkpt lat="39.61823069" lon="3.02741784"></trkpt>
    <trkpt lat="39.61813255" lon="3.02774373"></trkpt>
    <trkpt lat="39.61805197" lon="3.02808571"></trkpt>
    <trkpt lat="39.61799412" lon="3.02843037"></trkpt>
    <trkpt lat="39.61795641" lon="3.02878040"></trkpt>
    <trkpt lat="39.61793885" lon="3.02913043"></trkpt>
    <trkpt lat="39.61794298" lon="3.02948381"></trkpt>
    <trkpt lat="39.61796519" lon="3.02982512"></trkpt>
    <trkpt lat="39.61800858" lon="3.03023214"></trkpt>
    <trkpt lat="39.61806902" lon="3.03070421"></trkpt>
    <trkpt lat="39.61812584" lon="3.03115080"></trkpt>
    <trkpt lat="39.61817542" lon="3.03154375"></trkpt>
    <trkpt lat="39.61824464" lon="3.03208421"></trkpt>
    <trkpt lat="39.61831075" lon="3.03259450"></trkpt>
    <trkpt lat="39.61838462" lon="3.03316849"></trkpt>
    <trkpt lat="39.61845848" lon="3.03373913"></trkpt>
    <trkpt lat="39.61853131" lon="3.03431246"></trkpt>
    <trkpt lat="39.61860621" lon="3.03490053"></trkpt>
    <trkpt lat="39.61867904" lon="3.03547184"></trkpt>
    <trkpt lat="39.61875342" lon="3.03604650"></trkpt>
    <trkpt lat="39.61882677" lon="3.03662854"></trkpt>
    <trkpt lat="39.61890012" lon="3.03718577"></trkpt>
    <trkpt lat="39.61897760" lon="3.03775038"></trkpt>
    <trkpt lat="39.61906024" lon="3.03827743"></trkpt>
    <trkpt lat="39.61914650" lon="3.03873676"></trkpt>
    <trkpt lat="39.61924671" lon="3.03918871"></trkpt>
    <trkpt lat="39.61935776" lon="3.03963329"></trkpt>
    <trkpt lat="39.61947759" lon="3.04006915"></trkpt>
    <trkpt lat="39.61961860" lon="3.04058078"></trkpt>
    <trkpt lat="39.61975187" lon="3.04106022"></trkpt>
    <trkpt lat="39.61988719" lon="3.04154906"></trkpt>
    <trkpt lat="39.62002407" lon="3.04204459"></trkpt>
    <trkpt lat="39.62015992" lon="3.04253678"></trkpt>
    <trkpt lat="39.62029783" lon="3.04303701"></trkpt>
    <trkpt lat="39.62042592" lon="3.04350975"></trkpt>
    <trkpt lat="39.62058604" lon="3.04408307"></trkpt>
    <trkpt lat="39.62073738" lon="3.04461616"></trkpt>
    <trkpt lat="39.62089027" lon="3.04517339"></trkpt>
    <trkpt lat="39.62104213" lon="3.04572995"></trkpt>
    <trkpt lat="39.62119450" lon="3.04628181"></trkpt>
    <trkpt lat="39.62133912" lon="3.04679344"></trkpt>
    <trkpt lat="39.62149201" lon="3.04733056"></trkpt>
    <trkpt lat="39.62162991" lon="3.04782006"></trkpt>
    <trkpt lat="39.62176679" lon="3.04832968"></trkpt>
    <trkpt lat="39.62190315" lon="3.04882656"></trkpt>
    <trkpt lat="39.62204570" lon="3.04933551"></trkpt>
    <trkpt lat="39.62220169" lon="3.04988938"></trkpt>
    <trkpt lat="39.62235767" lon="3.05043857"></trkpt>
    <trkpt lat="39.62250229" lon="3.05094081"></trkpt>
    <trkpt lat="39.62265982" lon="3.05152017"></trkpt>
    <trkpt lat="39.62282459" lon="3.05211696"></trkpt>
    <trkpt lat="39.62296921" lon="3.05263530"></trkpt>
    <trkpt lat="39.62313242" lon="3.05321801"></trkpt>
    <trkpt lat="39.62327136" lon="3.05370684"></trkpt>
    <trkpt lat="39.62338499" lon="3.05411118"></trkpt>
    <trkpt lat="39.62349190" lon="3.05450144"></trkpt>
    <trkpt lat="39.62359365" lon="3.05489573"></trkpt>
    <trkpt lat="39.62368765" lon="3.05530342"></trkpt>
    <trkpt lat="39.62375841" lon="3.05569503"></trkpt>
    <trkpt lat="39.62379973" lon="3.05603433"></trkpt>
    <trkpt lat="39.62382142" lon="3.05634546"></trkpt>
    <trkpt lat="39.62382710" lon="3.05667269"></trkpt>
    <trkpt lat="39.62381109" lon="3.05698785"></trkpt>
    <trkpt lat="39.62376099" lon="3.05743444"></trkpt>
    <trkpt lat="39.62371089" lon="3.05770869"></trkpt>
    <trkpt lat="39.62363187" lon="3.05804397"></trkpt>
    <trkpt lat="39.62353167" lon="3.05838126"></trkpt>
    <trkpt lat="39.62341443" lon="3.05870446"></trkpt>
    <trkpt lat="39.62327601" lon="3.05900957"></trkpt>
    <trkpt lat="39.62312622" lon="3.05928784"></trkpt>
    <trkpt lat="39.62295526" lon="3.05956210"></trkpt>
    <trkpt lat="39.62276984" lon="3.05982093"></trkpt>
    <trkpt lat="39.62253793" lon="3.06010927"></trkpt>
    <trkpt lat="39.62230447" lon="3.06037615"></trkpt>
    <trkpt lat="39.62206171" lon="3.06064772"></trkpt>
    <trkpt lat="39.62183084" lon="3.06090924"></trkpt>
    <trkpt lat="39.62159273" lon="3.06119490"></trkpt>
    <trkpt lat="39.62138199" lon="3.06149128"></trkpt>
    <trkpt lat="39.62122291" lon="3.06176352"></trkpt>
    <trkpt lat="39.62110101" lon="3.06201163"></trkpt>
    <trkpt lat="39.62099874" lon="3.06225236"></trkpt>
    <trkpt lat="39.62090835" lon="3.06250314"></trkpt>
    <trkpt lat="39.62081279" lon="3.06283037"></trkpt>
    <trkpt lat="39.62073893" lon="3.06316498"></trkpt>
    <trkpt lat="39.62068780" lon="3.06350830"></trkpt>
    <trkpt lat="39.62065939" lon="3.06385296"></trkpt>
    <trkpt lat="39.62065422" lon="3.06420970"></trkpt>
    <trkpt lat="39.62066972" lon="3.06456375"></trkpt>
    <trkpt lat="39.62071001" lon="3.06490707"></trkpt>
    <trkpt lat="39.62077147" lon="3.06525040"></trkpt>
    <trkpt lat="39.62085153" lon="3.06558768"></trkpt>
    <trkpt lat="39.62096310" lon="3.06597057"></trkpt>
    <trkpt lat="39.62110462" lon="3.06639436"></trkpt>
    <trkpt lat="39.62127146" lon="3.06686978"></trkpt>
    <trkpt lat="39.62140162" lon="3.06723724"></trkpt>
    <trkpt lat="39.62152248" lon="3.06761409"></trkpt>
    <trkpt lat="39.62163043" lon="3.06799631"></trkpt>
    <trkpt lat="39.62170636" lon="3.06832555"></trkpt>
    <trkpt lat="39.62176834" lon="3.06866284"></trkpt>
    <trkpt lat="39.62181327" lon="3.06900884"></trkpt>
    <trkpt lat="39.62184168" lon="3.06935418"></trkpt>
    <trkpt lat="39.62185460" lon="3.06969347"></trkpt>
    <trkpt lat="39.62185201" lon="3.07003747"></trkpt>
    <trkpt lat="39.62183290" lon="3.07039085"></trkpt>
    <trkpt lat="39.62179933" lon="3.07073350"></trkpt>
    <trkpt lat="39.62174871" lon="3.07107347"></trkpt>
    <trkpt lat="39.62166917" lon="3.07147245"></trkpt>
    <trkpt lat="39.62157465" lon="3.07185466"></trkpt>
    <trkpt lat="39.62147290" lon="3.07221676"></trkpt>
    <trkpt lat="39.62134893" lon="3.07261976"></trkpt>
    <trkpt lat="39.62119811" lon="3.07309183"></trkpt>
    <trkpt lat="39.62102353" lon="3.07363498"></trkpt>
    <trkpt lat="39.62084998" lon="3.07418081"></trkpt>
    <trkpt lat="39.62067747" lon="3.07471390"></trkpt>
    <trkpt lat="39.62050288" lon="3.07525973"></trkpt>
    <trkpt lat="39.62032985" lon="3.07580019"></trkpt>
    <trkpt lat="39.62015579" lon="3.07633865"></trkpt>
    <trkpt lat="39.61998378" lon="3.07687643"></trkpt>
    <trkpt lat="39.61981178" lon="3.07741220"></trkpt>
    <trkpt lat="39.61963823" lon="3.07795535"></trkpt>
    <trkpt lat="39.61946726" lon="3.07849112"></trkpt>
    <trkpt lat="39.61929319" lon="3.07903091"></trkpt>
    <trkpt lat="39.61912119" lon="3.07957004"></trkpt>
    <trkpt lat="39.61894764" lon="3.08010715"></trkpt>
    <trkpt lat="39.61877667" lon="3.08064426"></trkpt>
    <trkpt lat="39.61860208" lon="3.08118674"></trkpt>
    <trkpt lat="39.61843059" lon="3.08172385"></trkpt>
    <trkpt lat="39.61825497" lon="3.08227035"></trkpt>
    <trkpt lat="39.61808245" lon="3.08280948"></trkpt>
    <trkpt lat="39.61791096" lon="3.08334525"></trkpt>
    <trkpt lat="39.61772862" lon="3.08391254"></trkpt>
    <trkpt lat="39.61756694" lon="3.08442148"></trkpt>
    <trkpt lat="39.61739339" lon="3.08495860"></trkpt>
    <trkpt lat="39.61724256" lon="3.08542865"></trkpt>
    <trkpt lat="39.61710154" lon="3.08586451"></trkpt>
    <trkpt lat="39.61692747" lon="3.08640833"></trkpt>
    <trkpt lat="39.61675442" lon="3.08694813"></trkpt>
    <trkpt lat="39.61661547" lon="3.08738197"></trkpt>
    <trkpt lat="39.61647911" lon="3.08781917"></trkpt>
    <trkpt lat="39.61635152" lon="3.08825503"></trkpt>
    <trkpt lat="39.61623994" lon="3.08869625"></trkpt>
    <trkpt lat="39.61614645" lon="3.08915089"></trkpt>
    <trkpt lat="39.61607155" lon="3.08960955"></trkpt>
    <trkpt lat="39.61601318" lon="3.09006820"></trkpt>
    <trkpt lat="39.61597340" lon="3.09054296"></trkpt>
    <trkpt lat="39.61595119" lon="3.09100832"></trkpt>
    <trkpt lat="39.61594706" lon="3.09148039"></trkpt>
    <trkpt lat="39.61596049" lon="3.09194508"></trkpt>
    <trkpt lat="39.61598425" lon="3.09246744"></trkpt>
    <trkpt lat="39.61601163" lon="3.09304814"></trkpt>
    <trkpt lat="39.61603849" lon="3.09362481"></trkpt>
    <trkpt lat="39.61606793" lon="3.09421624"></trkpt>
    <trkpt lat="39.61609376" lon="3.09479895"></trkpt>
    <trkpt lat="39.61612114" lon="3.09534813"></trkpt>
    <trkpt lat="39.61615058" lon="3.09594560"></trkpt>
    <trkpt lat="39.61617796" lon="3.09652160"></trkpt>
    <trkpt lat="39.61620585" lon="3.09711169"></trkpt>
    <trkpt lat="39.61623323" lon="3.09769708"></trkpt>
    <trkpt lat="39.61626112" lon="3.09827979"></trkpt>
    <trkpt lat="39.61628902" lon="3.09887054"></trkpt>
    <trkpt lat="39.61631536" lon="3.09945325"></trkpt>
    <trkpt lat="39.61634429" lon="3.10003127"></trkpt>
    <trkpt lat="39.61637166" lon="3.10061197"></trkpt>
    <trkpt lat="39.61639749" lon="3.10112025"></trkpt>
    <trkpt lat="39.61642538" lon="3.10168820"></trkpt>
    <trkpt lat="39.61645173" lon="3.10227829"></trkpt>
    <trkpt lat="39.61647911" lon="3.10286838"></trkpt>
    <trkpt lat="39.61650597" lon="3.10344103"></trkpt>
    <trkpt lat="39.61653593" lon="3.10405727"></trkpt>
    <trkpt lat="39.61656227" lon="3.10459773"></trkpt>
    <trkpt lat="39.61658706" lon="3.10511741"></trkpt>
    <trkpt lat="39.61661082" lon="3.10564312"></trkpt>
    <trkpt lat="39.61663355" lon="3.10611318"></trkpt>
    <trkpt lat="39.61666196" lon="3.10659195"></trkpt>
    <trkpt lat="39.61670484" lon="3.10700032"></trkpt>
    <trkpt lat="39.61676166" lon="3.10733358"></trkpt>
    <trkpt lat="39.61684017" lon="3.10767490"></trkpt>
    <trkpt lat="39.61694141" lon="3.10801755"></trkpt>
    <trkpt lat="39.61705660" lon="3.10833472"></trkpt>
    <trkpt lat="39.61720950" lon="3.10869883"></trkpt>
    <trkpt lat="39.61733915" lon="3.10899722"></trkpt>
    <trkpt lat="39.61747965" lon="3.10932043"></trkpt>
    <trkpt lat="39.61763358" lon="3.10967314"></trkpt>
    <trkpt lat="39.61781850" lon="3.11009827"></trkpt>
    <trkpt lat="39.61793575" lon="3.11035912"></trkpt>
    <trkpt lat="39.61809226" lon="3.11071116"></trkpt>
    <trkpt lat="39.61825187" lon="3.11107661"></trkpt>
    <trkpt lat="39.61841096" lon="3.11144876"></trkpt>
    <trkpt lat="39.61854319" lon="3.11174850"></trkpt>
    <trkpt lat="39.61867904" lon="3.11205628"></trkpt>
    <trkpt lat="39.61877976" lon="3.11229500"></trkpt>
    <trkpt lat="39.61891561" lon="3.11263631"></trkpt>
    <trkpt lat="39.61904216" lon="3.11300042"></trkpt>
    <trkpt lat="39.61915115" lon="3.11336721"></trkpt>
    <trkpt lat="39.61924206" lon="3.11372864"></trkpt>
    <trkpt lat="39.61932625" lon="3.11415243"></trkpt>
    <trkpt lat="39.61938823" lon="3.11457220"></trkpt>
    <trkpt lat="39.61942852" lon="3.11497184"></trkpt>
    <trkpt lat="39.61944970" lon="3.11538222"></trkpt>
    <trkpt lat="39.61945177" lon="3.11579394"></trkpt>
    <trkpt lat="39.61943420" lon="3.11620499"></trkpt>
    <trkpt lat="39.61939908" lon="3.11660397"></trkpt>
    <trkpt lat="39.61934588" lon="3.11699892"></trkpt>
    <trkpt lat="39.61927408" lon="3.11739053"></trkpt>
    <trkpt lat="39.61918421" lon="3.11777811"></trkpt>
    <trkpt lat="39.61907522" lon="3.11816367"></trkpt>
    <trkpt lat="39.61894867" lon="3.11853516"></trkpt>
    <trkpt lat="39.61880301" lon="3.11890195"></trkpt>
    <trkpt lat="39.61864443" lon="3.11924930"></trkpt>
    <trkpt lat="39.61846623" lon="3.11958793"></trkpt>
    <trkpt lat="39.61827615" lon="3.11990644"></trkpt>
    <trkpt lat="39.61806747" lon="3.12021825"></trkpt>
    <trkpt lat="39.61784432" lon="3.12051530"></trkpt>
    <trkpt lat="39.61761498" lon="3.12078352"></trkpt>
    <trkpt lat="39.61736601" lon="3.12104302"></trkpt>
    <trkpt lat="39.61714700" lon="3.12124486"></trkpt>
    <trkpt lat="39.61692953" lon="3.12142658"></trkpt>
    <trkpt lat="39.61662477" lon="3.12164652"></trkpt>
    <trkpt lat="39.61632053" lon="3.12183897"></trkpt>
    <trkpt lat="39.61594344" lon="3.12205355"></trkpt>
    <trkpt lat="39.61557566" lon="3.12225605"></trkpt>
    <trkpt lat="39.61520219" lon="3.12246325"></trkpt>
    <trkpt lat="39.61478636" lon="3.12269392"></trkpt>
    <trkpt lat="39.61437208" lon="3.12292258"></trkpt>
    <trkpt lat="39.61395883" lon="3.12315258"></trkpt>
    <trkpt lat="39.61354403" lon="3.12337588"></trkpt>
    <trkpt lat="39.61312819" lon="3.12360386"></trkpt>
    <trkpt lat="39.61271493" lon="3.12383319"></trkpt>
    <trkpt lat="39.61229753" lon="3.12406106"></trkpt>
    <trkpt lat="39.61188737" lon="3.12428703"></trkpt>
    <trkpt lat="39.61147307" lon="3.12451636"></trkpt>
    <trkpt lat="39.61105825" lon="3.12474636"></trkpt>
    <trkpt lat="39.61064601" lon="3.12497234"></trkpt>
    <trkpt lat="39.61023141" lon="3.12520043"></trkpt>
    <trkpt lat="39.60981504" lon="3.12543177"></trkpt>
    <trkpt lat="39.60939969" lon="3.12566110"></trkpt>
    <trkpt lat="39.60902464" lon="3.12586629"></trkpt>
    <trkpt lat="39.60869588" lon="3.12604656"></trkpt>
    <trkpt lat="39.60839986" lon="3.12620011"></trkpt>
    <trkpt lat="39.60809765" lon="3.12633758"></trkpt>
    <trkpt lat="39.60784192" lon="3.12643078"></trkpt>
    <trkpt lat="39.60758568" lon="3.12650119"></trkpt>
    <trkpt lat="39.60731544" lon="3.12654540"></trkpt>
    <trkpt lat="39.60704267" lon="3.12656350"></trkpt>
    <trkpt lat="39.60677558" lon="3.12655345"></trkpt>
    <trkpt lat="39.60647284" lon="3.12651388"></trkpt>
    <trkpt lat="39.60615512" lon="3.12644213"></trkpt>
    <trkpt lat="39.60584256" lon="3.12634692"></trkpt>
    <trkpt lat="39.60555273" lon="3.12624566"></trkpt>
    <trkpt lat="39.60524069" lon="3.12613368"></trkpt>
    <trkpt lat="39.60494053" lon="3.12602840"></trkpt>
    <trkpt lat="39.60463106" lon="3.12593587"></trkpt>
    <trkpt lat="39.60431953" lon="3.12586412"></trkpt>
    <trkpt lat="39.60405553" lon="3.12582657"></trkpt>
    <trkpt lat="39.60378333" lon="3.12581025"></trkpt>
    <trkpt lat="39.60351106" lon="3.12581427"></trkpt>
    <trkpt lat="39.60323879" lon="3.12584311"></trkpt>
    <trkpt lat="39.60296549" lon="3.12589273"></trkpt>
    <trkpt lat="39.60270096" lon="3.12596112"></trkpt>
    <trkpt lat="39.60243850" lon="3.12605098"></trkpt>
    <trkpt lat="39.60218121" lon="3.12616028"></trkpt>
    <trkpt lat="39.60192578" lon="3.12629549"></trkpt>
    <trkpt lat="39.60168295" lon="3.12644502"></trkpt>
    <trkpt lat="39.60140448" lon="3.12664283"></trkpt>
    <trkpt lat="39.60109706" lon="3.12687753"></trkpt>
    <trkpt lat="39.60074367" lon="3.12715245"></trkpt>
    <trkpt lat="39.60035617" lon="3.12745219"></trkpt>
    <trkpt lat="39.59997487" lon="3.12774790"></trkpt>
    <trkpt lat="39.59958220" lon="3.12805099"></trkpt>
    <trkpt lat="39.59920709" lon="3.12834134"></trkpt>
    <trkpt lat="39.59881338" lon="3.12865114"></trkpt>
    <trkpt lat="39.59843827" lon="3.12893746"></trkpt>
    <trkpt lat="39.59804508" lon="3.12924323"></trkpt>
    <trkpt lat="39.59767255" lon="3.12953224"></trkpt>
    <trkpt lat="39.59728762" lon="3.12982796"></trkpt>
    <trkpt lat="39.59689545" lon="3.13013037"></trkpt>
    <trkpt lat="39.59649811" lon="3.13043950"></trkpt>
    <trkpt lat="39.59618137" lon="3.13068492"></trkpt>
    <trkpt lat="39.59583932" lon="3.13094979"></trkpt>
    <trkpt lat="39.59552775" lon="3.13119253"></trkpt>
    <trkpt lat="39.59522703" lon="3.13142521"></trkpt>
    <trkpt lat="39.59491611" lon="3.13166682"></trkpt>
    <trkpt lat="39.59460867" lon="3.13191492"></trkpt>
    <trkpt lat="39.59430794" lon="3.13218180"></trkpt>
    <trkpt lat="39.59401962" lon="3.13246209"></trkpt>
    <trkpt lat="39.59374111" lon="3.13275848"></trkpt>
    <trkpt lat="39.59347094" lon="3.13307443"></trkpt>
    <trkpt lat="39.59321361" lon="3.13340502"></trkpt>
    <trkpt lat="39.59297075" lon="3.13374834"></trkpt>
    <trkpt lat="39.59273926" lon="3.13410910"></trkpt>
    <trkpt lat="39.59252069" lon="3.13448192"></trkpt>
    <trkpt lat="39.59231555" lon="3.13486682"></trkpt>
    <trkpt lat="39.59210575" lon="3.13529866"></trkpt>
    <trkpt lat="39.59186703" lon="3.13581431"></trkpt>
    <trkpt lat="39.59163760" lon="3.13630247"></trkpt>
    <trkpt lat="39.59139783" lon="3.13681746"></trkpt>
    <trkpt lat="39.59117099" lon="3.13731031"></trkpt>
    <trkpt lat="39.59093949" lon="3.13780853"></trkpt>
    <trkpt lat="39.59070386" lon="3.13830273"></trkpt>
    <trkpt lat="39.59047287" lon="3.13879894"></trkpt>
    <trkpt lat="39.59023466" lon="3.13930856"></trkpt>
    <trkpt lat="39.59000419" lon="3.13980946"></trkpt>
    <trkpt lat="39.58977475" lon="3.14030165"></trkpt>
    <trkpt lat="39.58953808" lon="3.14080322"></trkpt>
    <trkpt lat="39.58932415" lon="3.14126121"></trkpt>
    <trkpt lat="39.58909213" lon="3.14175473"></trkpt>
    <trkpt lat="39.58886011" lon="3.14225027"></trkpt>
    <trkpt lat="39.58862912" lon="3.14274715"></trkpt>
    <trkpt lat="39.58839400" lon="3.14324403"></trkpt>
    <trkpt lat="39.58816301" lon="3.14373622"></trkpt>
    <trkpt lat="39.58792633" lon="3.14424919"></trkpt>
    <trkpt lat="39.58769534" lon="3.14474137"></trkpt>
    <trkpt lat="39.58746228" lon="3.14523691"></trkpt>
    <trkpt lat="39.58722818" lon="3.14573848"></trkpt>
    <trkpt lat="39.58699564" lon="3.14623603"></trkpt>
    <trkpt lat="39.58676206" lon="3.14673493"></trkpt>
    <trkpt lat="39.58652796" lon="3.14723717"></trkpt>
    <trkpt lat="39.58629335" lon="3.14773539"></trkpt>
    <trkpt lat="39.58606339" lon="3.14823294"></trkpt>
    <trkpt lat="39.58582825" lon="3.14874189"></trkpt>
    <trkpt lat="39.58559519" lon="3.14923944"></trkpt>
    <trkpt lat="39.58536109" lon="3.14974101"></trkpt>
    <trkpt lat="39.58513060" lon="3.15022984"></trkpt>
    <trkpt lat="39.58489599" lon="3.15072538"></trkpt>
    <trkpt lat="39.58466343" lon="3.15122226"></trkpt>
    <trkpt lat="39.58442881" lon="3.15171981"></trkpt>
    <trkpt lat="39.58419884" lon="3.15221334"></trkpt>
    <trkpt lat="39.58396009" lon="3.15273100"></trkpt>
    <trkpt lat="39.58372495" lon="3.15323593"></trkpt>
    <trkpt lat="39.58349601" lon="3.15371873"></trkpt>
    <trkpt lat="39.58326087" lon="3.15421829"></trkpt>
    <trkpt lat="39.58302728" lon="3.15472657"></trkpt>
    <trkpt lat="39.58279058" lon="3.15524423"></trkpt>
    <trkpt lat="39.58234149" lon="3.15619642"></trkpt>
    <trkpt lat="39.58186809" lon="3.15722840"></trkpt>
    <trkpt lat="39.58163967" lon="3.15771119"></trkpt>
    <trkpt lat="39.58140090" lon="3.15822216"></trkpt>
    <trkpt lat="39.58114405" lon="3.15876329"></trkpt>
    <trkpt lat="39.58093112" lon="3.15921390"></trkpt>
    <trkpt lat="39.58074869" lon="3.15959679"></trkpt>
    <trkpt lat="39.58053576" lon="3.16004338"></trkpt>
    <trkpt lat="39.58036934" lon="3.16039877"></trkpt>
    <trkpt lat="39.58015900" lon="3.16085810"></trkpt>
    <trkpt lat="39.57992695" lon="3.16136638"></trkpt>
    <trkpt lat="39.57969490" lon="3.16184448"></trkpt>
    <trkpt lat="39.57946233" lon="3.16232392"></trkpt>
    <trkpt lat="39.57923751" lon="3.16280672"></trkpt>
    <trkpt lat="39.57899460" lon="3.16331969"></trkpt>
    <trkpt lat="39.57876255" lon="3.16381389"></trkpt>
    <trkpt lat="39.57852842" lon="3.16430541"></trkpt>
    <trkpt lat="39.57829275" lon="3.16482642"></trkpt>
    <trkpt lat="39.57805604" lon="3.16534141"></trkpt>
    <trkpt lat="39.57782398" lon="3.16584566"></trkpt>
    <trkpt lat="39.57759089" lon="3.16633114"></trkpt>
    <trkpt lat="39.57735779" lon="3.16682065"></trkpt>
    <trkpt lat="39.57712780" lon="3.16730814"></trkpt>
    <trkpt lat="39.57689160" lon="3.16781508"></trkpt>
    <trkpt lat="39.57665747" lon="3.16832000"></trkpt>
    <trkpt lat="39.57642541" lon="3.16881822"></trkpt>
    <trkpt lat="39.57619128" lon="3.16931711"></trkpt>
    <trkpt lat="39.57595870" lon="3.16982137"></trkpt>
    <trkpt lat="39.57572663" lon="3.17032629"></trkpt>
    <trkpt lat="39.57549043" lon="3.17081714"></trkpt>
    <trkpt lat="39.57527956" lon="3.17126440"></trkpt>
    <trkpt lat="39.57509349" lon="3.17166673"></trkpt>
    <trkpt lat="39.57490535" lon="3.17204693"></trkpt>
    <trkpt lat="39.57469758" lon="3.17243988"></trkpt>
    <trkpt lat="39.57448101" lon="3.17281538"></trkpt>
    <trkpt lat="39.57425256" lon="3.17317882"></trkpt>
    <trkpt lat="39.57403548" lon="3.17349331"></trkpt>
    <trkpt lat="39.57371864" lon="3.17391911"></trkpt>
    <trkpt lat="39.57347158" lon="3.17426177"></trkpt>
    <trkpt lat="39.57319815" lon="3.17464331"></trkpt>
    <trkpt lat="39.57292421" lon="3.17502552"></trkpt>
    <trkpt lat="39.57264562" lon="3.17541042"></trkpt>
    <trkpt lat="39.57240165" lon="3.17574570"></trkpt>
    <trkpt lat="39.57214942" lon="3.17609103"></trkpt>
    <trkpt lat="39.57187289" lon="3.17647325"></trkpt>
    <trkpt lat="39.57156276" lon="3.17690307"></trkpt>
    <trkpt lat="39.57125677" lon="3.17732351"></trkpt>
    <trkpt lat="39.57094831" lon="3.17774542"></trkpt>
    <trkpt lat="39.57064025" lon="3.17816854"></trkpt>
    <trkpt lat="39.57033011" lon="3.17859568"></trkpt>
    <trkpt lat="39.57002418" lon="3.17902335"></trkpt>
    <trkpt lat="39.56971560" lon="3.17944647"></trkpt>
    <trkpt lat="39.56941166" lon="3.17986423"></trkpt>
    <trkpt lat="39.56910411" lon="3.18028869"></trkpt>
    <trkpt lat="39.56879520" lon="3.18071596"></trkpt>
    <trkpt lat="39.56848454" lon="3.18114310"></trkpt>
    <trkpt lat="39.56817337" lon="3.18157292"></trkpt>
    <trkpt lat="39.56786426" lon="3.18199537"></trkpt>
    <trkpt lat="39.56756083" lon="3.18241581"></trkpt>
    <trkpt lat="39.56728015" lon="3.18280339"></trkpt>
    <trkpt lat="39.56703513" lon="3.18314134"></trkpt>
    <trkpt lat="39.56682061" lon="3.18343907"></trkpt>
    <trkpt lat="39.56663038" lon="3.18371735"></trkpt>
    <trkpt lat="39.56646394" lon="3.18398490"></trkpt>
    <trkpt lat="39.56631093" lon="3.18426251"></trkpt>
    <trkpt lat="39.56616102" lon="3.18456359"></trkpt>
    <trkpt lat="39.56603282" lon="3.18486601"></trkpt>
    <trkpt lat="39.56591548" lon="3.18518385"></trkpt>
    <trkpt lat="39.56581313" lon="3.18551108"></trkpt>
    <trkpt lat="39.56572680" lon="3.18583965"></trkpt>
    <trkpt lat="39.56565547" lon="3.18618230"></trkpt>
    <trkpt lat="39.56560119" lon="3.18652965"></trkpt>
    <trkpt lat="39.56556501" lon="3.18687766"></trkpt>
    <trkpt lat="39.56554433" lon="3.18721428"></trkpt>
    <trkpt lat="39.56553916" lon="3.18757772"></trkpt>
    <trkpt lat="39.56555157" lon="3.18793244"></trkpt>
    <trkpt lat="39.56558155" lon="3.18828113"></trkpt>
    <trkpt lat="39.56562652" lon="3.18863116"></trkpt>
    <trkpt lat="39.56568648" lon="3.18896576"></trkpt>
    <trkpt lat="39.56576506" lon="3.18929970"></trkpt>
    <trkpt lat="39.56586431" lon="3.18965911"></trkpt>
    <trkpt lat="39.56597700" lon="3.19001451"></trkpt>
    <trkpt lat="39.56612277" lon="3.19044366"></trkpt>
    <trkpt lat="39.56628560" lon="3.19091707"></trkpt>
    <trkpt lat="39.56646962" lon="3.19144949"></trkpt>
    <trkpt lat="39.56664641" lon="3.19196246"></trkpt>
    <trkpt lat="39.56683508" lon="3.19251030"></trkpt>
    <trkpt lat="39.56702066" lon="3.19304808"></trkpt>
    <trkpt lat="39.56720623" lon="3.19358453"></trkpt>
    <trkpt lat="39.56738870" lon="3.19411694"></trkpt>
    <trkpt lat="39.56757065" lon="3.19464668"></trkpt>
    <trkpt lat="39.56775622" lon="3.19519050"></trkpt>
    <trkpt lat="39.56793921" lon="3.19571688"></trkpt>
    <trkpt lat="39.56812013" lon="3.19624595"></trkpt>
    <trkpt lat="39.56830466" lon="3.19677770"></trkpt>
    <trkpt lat="39.56846594" lon="3.19724909"></trkpt>
    <trkpt lat="39.56861170" lon="3.19767758"></trkpt>
    <trkpt lat="39.56876057" lon="3.19810874"></trkpt>
    <trkpt lat="39.56888773" lon="3.19848358"></trkpt>
    <trkpt lat="39.56906141" lon="3.19898649"></trkpt>
    <trkpt lat="39.56922475" lon="3.19946058"></trkpt>
    <trkpt lat="39.56938964" lon="3.19993734"></trkpt>
    <trkpt lat="39.56980419" lon="3.20113427"></trkpt>
    <trkpt lat="39.56992773" lon="3.20148430"></trkpt>
    <trkpt lat="39.57018927" lon="3.20205092"></trkpt>
    <trkpt lat="39.57034176" lon="3.20233590"></trkpt>
    <trkpt lat="39.57053766" lon="3.20272616"></trkpt>
    <trkpt lat="39.57072115" lon="3.20308491"></trkpt>
  </trkseg></trk>
  <wpt lat="39.57611336" lon="2.65436975"><name>Palma  PK 0+000.0</name></wpt>
  <wpt lat="39.58042684" lon="2.66042216"><name>Jacint Verdaguer  PK 0+618.0</name></wpt>
  <wpt lat="39.58436758" lon="2.66618121"><name>Son Costa  PK 1+100.0</name></wpt>
  <wpt lat="39.59054492" lon="2.67509962"><name>Son Fuster  PK 2+300.0</name></wpt>
  <wpt lat="39.59358858" lon="2.67945785"><name>Son Cladera  PK 2+700.0</name></wpt>
  <wpt lat="39.59565077" lon="2.68283274"><name>Son Rullán  PK 3+300.0</name></wpt>
  <wpt lat="39.59680352" lon="2.68648658"><name>V.Lluc  PK 3+595.0</name></wpt>
  <wpt lat="39.59797227" lon="2.69113820"><name>Pont d'Inca  PK 4+020.0</name></wpt>
  <wpt lat="39.60464390" lon="2.70175908"><name>Pont d'Inca Nou  PK 5+200.0</name></wpt>
  <wpt lat="39.61557400" lon="2.71685424"><name>Pol.Marratxí  PK 7+000.0</name></wpt>
  <wpt lat="39.62510375" lon="2.72545541"><name>Marratxí  PK 8+400.0</name></wpt>
  <wpt lat="39.63209192" lon="2.73654836"><name>Es caülls  PK 9+550.0</name></wpt>
  <wpt lat="39.65326642" lon="2.77430820"><name>Sta.Maria  PK 14+450.0</name></wpt>
  <wpt lat="39.67745033" lon="2.80837222"><name>Consell-Alaró  PK 18+440.0</name></wpt>
  <wpt lat="39.69243599" lon="2.84115888"><name>Binnisalem  PK 21+780.0</name></wpt>
  <wpt lat="39.71620306" lon="2.86909408"><name>Lloseta  PK 25+325.0</name></wpt>
  <wpt lat="39.71811250" lon="2.90587876"><name>Inca  PK 28+550.0</name></wpt>
  <wpt lat="39.71474541" lon="2.91502956"><name>Constància  PK 29+400.0</name></wpt>
  <wpt lat="39.69071582" lon="2.95126343"><name>Enllaç  PK 33+573.0</name></wpt>
  <wpt lat="39.64397174" lon="3.01445261"><name>Sineu  PK 42+473.0</name></wpt>
  <wpt lat="39.62076122" lon="3.02471018"><name>Sant Joan  PK 45+240.0</name></wpt>
  <wpt lat="39.62265982" lon="3.05152017"><name>Paet SJ  PK 47+700.0</name></wpt>
  <wpt lat="39.61825187" lon="3.11107661"><name>Petra  PK 53+173.0</name></wpt>
  <wpt lat="39.57072115" lon="3.20308491"><name>Manacor  PK 64+185.0</name></wpt>
  <wpt lat="39.58044301" lon="2.66044641"><name>R-2  v2  PK 0+620.0  Retroceso</name></wpt>
  <wpt lat="39.58488965" lon="2.66691576"><name>E-2  v2  PK 1+200.0  Entrada</name></wpt>
  <wpt lat="39.58815068" lon="2.67164395"><name>E-SF3  v1  PK 1+835.0  Entrada</name></wpt>
  <wpt lat="39.58822808" lon="2.67175523"><name>A-PA22  v2  PK 1+850.0  Avanzada</name></wpt>
  <wpt lat="39.59003109" lon="2.67435521"><name>S-SF6  v2  PK 2+200.0  Salida</name></wpt>
  <wpt lat="39.59054492" lon="2.67509962"><name>S-SF9  v1  PK 2+300.0  Salida</name></wpt>
  <wpt lat="39.59199457" lon="2.67716507"><name>E-SF10  v2  PK 2+490.0  Entrada</name></wpt>
  <wpt lat="39.59381119" lon="2.67977767"><name>E-SR1  v1  PK 2+760.0  Entrada</name></wpt>
  <wpt lat="39.59464847" lon="2.68111563"><name>A-SF12  v2  PK 3+000.0  Avanzada</name></wpt>
  <wpt lat="39.59711783" lon="2.68774606"><name>R-SR4  v2  PK 3+710.0  Retroceso</name></wpt>
  <wpt lat="39.59786392" lon="2.69069970"><name>E-SR6  v2  PK 3+980.0  Entrada</name></wpt>
  <wpt lat="39.59821891" lon="2.69201837"><name>S-SR11  v1  PK 4+100.0  Salida</name></wpt>
  <wpt lat="39.60167830" lon="2.69766201"><name>A-SR10  v2  PK 4+720.0  Avanzada</name></wpt>
  <wpt lat="39.60950196" lon="2.70846750"><name>60/1  v1  PK 6+000.0  Hito / otra</name></wpt>
  <wpt lat="39.60980389" lon="2.70888885"><name>60/4  v2  PK 6+050.0  Hito / otra</name></wpt>
  <wpt lat="39.61719851" lon="2.71910322"><name>A-MA1  v1  PK 7+280.0  Avanzada</name></wpt>
  <wpt lat="39.62190131" lon="2.72400079"><name>E-MA3  v1  PK 8+000.0  Entrada</name></wpt>
  <wpt lat="39.62494347" lon="2.72538328"><name>S-MA10  v2  PK 8+380.0  Salida</name></wpt>
  <wpt lat="39.62605587" lon="2.72588919"><name>S-MA9  v1  PK 8+500.0  Salida</name></wpt>
  <wpt lat="39.62679725" lon="2.72629938"><name>E-MA14  v2  PK 8+580.0  Entrada</name></wpt>
  <wpt lat="39.63020804" lon="2.73439210"><name>A-MA16  v2  PK 9+300.0  Avanzada</name></wpt>
  <wpt lat="39.64309264" lon="2.74267896"><name>108/4  v2  PK 10+900.0  Hito / otra</name></wpt>
  <wpt lat="39.64350216" lon="2.74290038"><name>108/1  v1  PK 10+950.0  Hito / otra</name></wpt>
  <wpt lat="39.65291806" lon="2.76286670"><name>A-SM1  v1  PK 13+400.0  Avanzada</name></wpt>
  <wpt lat="39.65216113" lon="2.77116380"><name>E-SM3  v1  PK 14+150.0  Entrada</name></wpt>
  <wpt lat="39.65307670" lon="2.77378741"><name>S-SM8  v2  PK 14+400.0  Salida</name></wpt>
  <wpt lat="39.65345555" lon="2.77484040"><name>S-SM9  v1  PK 14+500.0  Salida</name></wpt>
  <wpt lat="39.65459543" lon="2.77803048"><name>R-SM14  v2  PK 14+800.0  Retroceso</name></wpt>
  <wpt lat="39.65551554" lon="2.78057747"><name>E-SM16  v2  PK 15+040.0  Entrada</name></wpt>
  <wpt lat="39.65984187" lon="2.78665645"><name>A-SM18  v2  PK 15+750.0  Avanzada</name></wpt>
  <wpt lat="39.66966197" lon="2.79876331"><name>A-CO1  v1  PK 17+250.0  Avanzada</name></wpt>
  <wpt lat="39.67456883" lon="2.80482161"><name>E-CO3  v1  PK 18+000.0  Entrada</name></wpt>
  <wpt lat="39.67699293" lon="2.80780593"><name>S-CO6  v2  PK 18+370.0  Salida</name></wpt>
  <wpt lat="39.67783967" lon="2.80885462"><name>S-CO7  v1  PK 18+500.0  Salida</name></wpt>
  <wpt lat="39.67881816" lon="2.81005350"><name>E-CO10  v2  PK 18+650.0  Entrada</name></wpt>
  <wpt lat="39.68344930" lon="2.81706591"><name>A-CO12  v2  PK 19+450.0  Avanzada</name></wpt>
  <wpt lat="39.68755972" lon="2.83123936"><name>A-BI1  v1  PK 20+750.0  Avanzada</name></wpt>
  <wpt lat="39.68999385" lon="2.83808080"><name>E-BI3  v1  PK 21+400.0  Entrada</name></wpt>
  <wpt lat="39.69317850" lon="2.84201903"><name>S-BI9  v1  PK 21+890.0  Salida</name></wpt>
  <wpt lat="39.69425861" lon="2.84327004"><name>E-BI14  v2  PK 22+050.0  Entrada</name></wpt>
  <wpt lat="39.69898209" lon="2.84874633"><name>A-BI16  v2  PK 22+750.0  Avanzada</name></wpt>
  <wpt lat="39.69898209" lon="2.84874633"><name>S-BI8  v2  PK 22+750.0  Salida</name></wpt>
  <wpt lat="39.71547401" lon="2.86797244"><name>253/4  v2  PK 25+200.0  Hito / otra</name></wpt>
  <wpt lat="39.71663376" lon="2.86992265"><name>254/1  v1  PK 25+410.0  Hito / otra</name></wpt>
  <wpt lat="39.71959116" lon="2.88978153"><name>A-IN1  v1  PK 27+150.0  Avanzada</name></wpt>
  <wpt lat="39.71958220" lon="2.89801917"><name>E-IN3  v1  PK 27+850.0  Entrada</name></wpt>
  <wpt lat="39.71841237" lon="2.90502219"><name>S-IN8  v2  PK 28+470.0  Salida</name></wpt>
  <wpt lat="39.71791830" lon="2.90641944"><name>S-IN11  v1  PK 28+600.0  Salida</name></wpt>
  <wpt lat="39.71712711" lon="2.90857328"><name>R-IN12  v2  PK 28+800.0  Retroceso</name></wpt>
  <wpt lat="39.71633640" lon="2.91072737"><name>E-IN14  v2  PK 29+000.0  Entrada</name></wpt>
  <wpt lat="39.71377848" lon="2.91764228"><name>A-IN16  v2  PK 29+650.0  Avanzada</name></wpt>
  <wpt lat="39.69712680" lon="2.93918491"><name>A-ELL1  v1  PK 32+300.0  Avanzada</name></wpt>
  <wpt lat="39.69320964" lon="2.94546517"><name>E-ELL3  v1  PK 33+000.0  Entrada</name></wpt>
  <wpt lat="39.69246240" lon="2.94718028"><name>R-ELL5  v1  PK 33+170.0  Retroceso</name></wpt>
  <wpt lat="39.69166396" lon="2.94899074"><name>S-ELL8  v2  PK 33+350.0  Salida</name></wpt>
  <wpt lat="39.69106583" lon="2.95041545"><name>S-ELL11  v1  PK 33+490.0  Salida</name></wpt>
  <wpt lat="39.69000091" lon="2.95282388"><name>R-ELL17  v2  PK 33+730.0  Retroceso</name></wpt>
  <wpt lat="39.68927836" lon="2.95455909"><name>E-ELL19  v2  PK 33+900.0  Entrada</name></wpt>
  <wpt lat="39.68621367" lon="2.96164053"><name>A-ELL21  v2  PK 34+600.0  Avanzada</name></wpt>
  <wpt lat="39.64766384" lon="3.01023668"><name>A-SN1  v1  PK 41+900.0  Avanzada</name></wpt>
  <wpt lat="39.64643828" lon="3.01265915"><name>E-SN2  v1  PK 42+150.0  Entrada</name></wpt>
  <wpt lat="39.64541806" lon="3.01377087"><name>R-SN3  v1  PK 42+300.0  Retroceso</name></wpt>
  <wpt lat="39.64541806" lon="3.01377087"><name>S-SN5  v2  PK 42+300.0  Salida</name></wpt>
  <wpt lat="39.64284904" lon="3.01482630"><name>R-SN8  v2  PK 42+600.0  Retroceso</name></wpt>
  <wpt lat="39.64284904" lon="3.01482630"><name>S-SN6  v1  PK 42+600.0  Salida</name></wpt>
  <wpt lat="39.64196803" lon="3.01513617"><name>E-SN9  v2  PK 42+700.0  Entrada</name></wpt>
  <wpt lat="39.63688094" lon="3.01969312"><name>A-SN10  v2  PK 43+400.0  Avanzada</name></wpt>
  <wpt lat="39.61983818" lon="3.04137199"><name>A-PS1  v1  PK 46+800.0  Avanzada</name></wpt>
  <wpt lat="39.62171561" lon="3.04813914"><name>E-PS2  v1  PK 47+400.0  Entrada</name></wpt>
  <wpt lat="39.62240933" lon="3.05061796"><name>R-PS3  v1  PK 47+620.0  Retroceso</name></wpt>
  <wpt lat="39.62265982" lon="3.05152017"><name>S-PS4  v2  PK 47+700.0  Salida</name></wpt>
  <wpt lat="39.62326901" lon="3.05369859"><name>R-PS8  v2  PK 47+900.0  Retroceso</name></wpt>
  <wpt lat="39.62326901" lon="3.05369859"><name>S-PS6  v1  PK 47+900.0  Salida</name></wpt>
  <wpt lat="39.62378494" lon="3.05591286"><name>E-PS9  v2  PK 48+100.0  Entrada</name></wpt>
  <wpt lat="39.62257280" lon="3.06006592"><name>A-PS10  v2  PK 48+500.0  Avanzada</name></wpt>
  <wpt lat="39.61635735" lon="3.10030841"><name>A-PE1  v1  PK 52+200.0  Avanzada</name></wpt>
  <wpt lat="39.61705245" lon="3.10832328"><name>E-PE2  v1  PK 52+900.0  Entrada</name></wpt>
  <wpt lat="39.61792826" lon="3.11034246"><name>S-PE5  v2  PK 53+100.0  Salida</name></wpt>
  <wpt lat="39.61859168" lon="3.11185835"><name>S-PE6  v1  PK 53+250.0  Salida</name></wpt>
  <wpt lat="39.61880896" lon="3.11236836"><name>R-PE8  v2  PK 53+300.0  Retroceso</name></wpt>
  <wpt lat="39.61938709" lon="3.11456443"><name>E-PE9  v1  PK 53+500.0  Entrada</name></wpt>
  <wpt lat="39.61721999" lon="3.12117760"><name>A-PE10  v2  PK 54+150.0  Avanzada</name></wpt>
  <wpt lat="39.56673339" lon="3.19221503"><name>A-MN1  v1  PK 63+150.0  Avanzada</name></wpt>
  <wpt lat="39.56929440" lon="3.19966197"><name>E-MN2  v1  PK 63+850.0  Entrada</name></wpt>
  <wpt lat="39.56966232" lon="3.20072465"><name>S-MN4  v2  PK 63+950.0  Salida</name></wpt>
</gpx>
